{
  "type": "FeatureCollection",
  "features": [
    {
      "type": "Feature",
      "properties": {
        "name": "Front Maritim",
        "source": "front-maritim.gpx",
        "pointsCount": 642
      },
      "geometry": {
        "type": "LineString",
        "coordinates": [
          [
            2.214497,
            41.404619,
            28.043
          ],
          [
            2.214476,
            41.404652,
            24.764
          ],
          [
            2.214464,
            41.404662,
            22.71
          ],
          [
            2.214638,
            41.404509,
            15.007
          ],
          [
            2.214653,
            41.404361,
            14.692
          ],
          [
            2.21478,
            41.404209,
            10.763
          ],
          [
            2.214857,
            41.404223,
            7.891
          ],
          [
            2.214898,
            41.404247,
            7.844
          ],
          [
            2.215088,
            41.404198,
            8.359
          ],
          [
            2.215389,
            41.403974,
            9.83
          ],
          [
            2.215726,
            41.403713,
            6.456
          ],
          [
            2.215735,
            41.403708,
            5.493
          ],
          [
            2.215771,
            41.403696,
            7.865
          ],
          [
            2.215901,
            41.403556,
            7.821
          ],
          [
            2.215815,
            41.403273,
            7.807
          ],
          [
            2.215506,
            41.402985,
            6.477
          ],
          [
            2.21545,
            41.402949,
            5.948
          ],
          [
            2.2154,
            41.402766,
            4.966
          ],
          [
            2.215169,
            41.402537,
            4.039
          ],
          [
            2.214873,
            41.402201,
            2.514
          ],
          [
            2.214686,
            41.401927,
            2.135
          ],
          [
            2.214594,
            41.401756,
            2.561
          ],
          [
            2.214446,
            41.401509,
            2.174
          ],
          [
            2.214364,
            41.401312,
            2.156
          ],
          [
            2.214329,
            41.401226,
            2.121
          ],
          [
            2.214108,
            41.400834,
            2.107
          ],
          [
            2.213898,
            41.40045,
            2.585
          ],
          [
            2.21383,
            41.400372,
            2.576
          ],
          [
            2.213757,
            41.400362,
            3.084
          ],
          [
            2.213665,
            41.400472,
            3.057
          ],
          [
            2.213423,
            41.400577,
            3.052
          ],
          [
            2.213198,
            41.400573,
            3.063
          ],
          [
            2.212901,
            41.40039,
            3.039
          ],
          [
            2.212647,
            41.400167,
            3.093
          ],
          [
            2.21232,
            41.399768,
            4.565
          ],
          [
            2.212098,
            41.399473,
            5.921
          ],
          [
            2.211856,
            41.399124,
            6.407
          ],
          [
            2.211571,
            41.39872,
            5.437
          ],
          [
            2.211333,
            41.398386,
            4.548
          ],
          [
            2.211096,
            41.398066,
            4.086
          ],
          [
            2.210771,
            41.397644,
            4.519
          ],
          [
            2.210587,
            41.397698,
            5.474
          ],
          [
            2.210341,
            41.397879,
            5.965
          ],
          [
            2.210319,
            41.397898,
            6.411
          ],
          [
            2.210295,
            41.39791,
            5.996
          ],
          [
            2.210126,
            41.397691,
            4.531
          ],
          [
            2.209815,
            41.397212,
            2.524
          ],
          [
            2.209578,
            41.396885,
            1.607
          ],
          [
            2.209174,
            41.396629,
            2.547
          ],
          [
            2.208944,
            41.396327,
            2.128
          ],
          [
            2.208683,
            41.396138,
            1.646
          ],
          [
            2.208568,
            41.396084,
            0.619
          ],
          [
            2.208488,
            41.396014,
            0.684
          ],
          [
            2.208074,
            41.395674,
            1.185
          ],
          [
            2.207615,
            41.395342,
            0.631
          ],
          [
            2.207269,
            41.395067,
            1.669
          ],
          [
            2.20691,
            41.394836,
            0.604
          ],
          [
            2.206477,
            41.394496,
            1.624
          ],
          [
            2.206095,
            41.394145,
            3.007
          ],
          [
            2.205792,
            41.393789,
            4.034
          ],
          [
            2.205521,
            41.393376,
            4.535
          ],
          [
            2.205329,
            41.392955,
            3.073
          ],
          [
            2.205022,
            41.392553,
            2.196
          ],
          [
            2.204718,
            41.392231,
            1.141
          ],
          [
            2.20446,
            41.391869,
            2.142
          ],
          [
            2.204084,
            41.391718,
            3.048
          ],
          [
            2.203704,
            41.391469,
            2.142
          ],
          [
            2.203197,
            41.39126,
            3.022
          ],
          [
            2.202784,
            41.391108,
            2.514
          ],
          [
            2.202269,
            41.39096,
            1.607
          ],
          [
            2.201858,
            41.390776,
            1.672
          ],
          [
            2.20134,
            41.390488,
            1.673
          ],
          [
            2.200966,
            41.390217,
            2.141
          ],
          [
            2.200775,
            41.390026,
            3.514
          ],
          [
            2.200736,
            41.390013,
            4.069
          ],
          [
            2.200488,
            41.389701,
            5.44
          ],
          [
            2.200191,
            41.389306,
            7.886
          ],
          [
            2.199844,
            41.389007,
            8.357
          ],
          [
            2.199441,
            41.388716,
            7.8
          ],
          [
            2.198919,
            41.388315,
            8.32
          ],
          [
            2.1986,
            41.388066,
            7.807
          ],
          [
            2.198404,
            41.387708,
            7.853
          ],
          [
            2.197953,
            41.387412,
            6.994
          ],
          [
            2.197603,
            41.38712,
            7.482
          ],
          [
            2.197593,
            41.387063,
            7.475
          ],
          [
            2.197847,
            41.386814,
            8.81
          ],
          [
            2.197856,
            41.386794,
            8.881
          ],
          [
            2.198172,
            41.38652,
            8.817
          ],
          [
            2.198232,
            41.386303,
            8.812
          ],
          [
            2.198204,
            41.386238,
            7.832
          ],
          [
            2.198207,
            41.386235,
            7.405
          ],
          [
            2.19814,
            41.386188,
            7.407
          ],
          [
            2.19806,
            41.386138,
            7.439
          ],
          [
            2.197728,
            41.385991,
            6.41
          ],
          [
            2.197545,
            41.385873,
            7.448
          ],
          [
            2.197418,
            41.385787,
            6.951
          ],
          [
            2.197036,
            41.385494,
            7.856
          ],
          [
            2.196797,
            41.3853,
            8.877
          ],
          [
            2.196377,
            41.385036,
            8.833
          ],
          [
            2.196089,
            41.38481,
            8.895
          ],
          [
            2.19578,
            41.384624,
            8.849
          ],
          [
            2.19546,
            41.384253,
            8.823
          ],
          [
            2.195157,
            41.383818,
            7.807
          ],
          [
            2.194868,
            41.383309,
            8.837
          ],
          [
            2.194572,
            41.382827,
            8.898
          ],
          [
            2.19436,
            41.382482,
            8.366
          ],
          [
            2.194091,
            41.38205,
            7.439
          ],
          [
            2.193857,
            41.381668,
            6.954
          ],
          [
            2.193571,
            41.381199,
            7.865
          ],
          [
            2.193327,
            41.380825,
            8.811
          ],
          [
            2.193129,
            41.380485,
            10.293
          ],
          [
            2.192825,
            41.379976,
            9.365
          ],
          [
            2.192474,
            41.379418,
            9.321
          ],
          [
            2.192224,
            41.378969,
            9.307
          ],
          [
            2.192045,
            41.378642,
            7.467
          ],
          [
            2.191752,
            41.378232,
            4.988
          ],
          [
            2.19144,
            41.37769,
            4.056
          ],
          [
            2.191271,
            41.377479,
            4.029
          ],
          [
            2.191268,
            41.377468,
            3.564
          ],
          [
            2.191235,
            41.377414,
            3.545
          ],
          [
            2.191136,
            41.377245,
            4.041
          ],
          [
            2.191106,
            41.377172,
            4.536
          ],
          [
            2.190875,
            41.376808,
            4.917
          ],
          [
            2.190722,
            41.376608,
            5.918
          ],
          [
            2.190566,
            41.376253,
            4.907
          ],
          [
            2.190403,
            41.375896,
            4.911
          ],
          [
            2.190212,
            41.375597,
            4.562
          ],
          [
            2.190101,
            41.375257,
            5.46
          ],
          [
            2.189926,
            41.374894,
            4.963
          ],
          [
            2.189599,
            41.374614,
            5.468
          ],
          [
            2.189379,
            41.374412,
            4.999
          ],
          [
            2.189364,
            41.374361,
            4.565
          ],
          [
            2.189339,
            41.374209,
            3.517
          ],
          [
            2.189273,
            41.373661,
            3.587
          ],
          [
            2.189194,
            41.37301,
            4.915
          ],
          [
            2.189153,
            41.372693,
            4.907
          ],
          [
            2.189093,
            41.372361,
            4.019
          ],
          [
            2.189068,
            41.372281,
            4.59
          ],
          [
            2.189043,
            41.372276,
            8.318
          ],
          [
            2.189061,
            41.372214,
            10.291
          ],
          [
            2.189009,
            41.371796,
            8.896
          ],
          [
            2.188922,
            41.371382,
            7.497
          ],
          [
            2.188891,
            41.371066,
            7.873
          ],
          [
            2.188807,
            41.370563,
            7.443
          ],
          [
            2.188773,
            41.370198,
            7.464
          ],
          [
            2.188716,
            41.369959,
            7.41
          ],
          [
            2.188725,
            41.369832,
            7.407
          ],
          [
            2.189047,
            41.36929,
            10.722
          ],
          [
            2.189349,
            41.36892,
            15.033
          ],
          [
            2.189467,
            41.368592,
            16.581
          ],
          [
            2.189346,
            41.368148,
            17.094
          ],
          [
            2.189287,
            41.367845,
            17.099
          ],
          [
            2.18972,
            41.367663,
            15.07
          ],
          [
            2.19004,
            41.367614,
            14.136
          ],
          [
            2.190219,
            41.367806,
            13.156
          ],
          [
            2.190237,
            41.36783,
            14.159
          ],
          [
            2.190239,
            41.367836,
            16.014
          ],
          [
            2.190208,
            41.367858,
            16.007
          ],
          [
            2.190227,
            41.367893,
            17.083
          ],
          [
            2.190227,
            41.36794,
            22.374
          ],
          [
            2.190217,
            41.367931,
            20.342
          ],
          [
            2.190198,
            41.367859,
            17.055
          ],
          [
            2.190174,
            41.367848,
            18.45
          ],
          [
            2.189959,
            41.367843,
            17.911
          ],
          [
            2.189461,
            41.367904,
            17.017
          ],
          [
            2.189368,
            41.367876,
            17.029
          ],
          [
            2.189341,
            41.367947,
            16.5
          ],
          [
            2.189356,
            41.368016,
            15.02
          ],
          [
            2.189506,
            41.368584,
            7.807
          ],
          [
            2.189121,
            41.369013,
            6.46
          ],
          [
            2.188533,
            41.369762,
            6.471
          ],
          [
            2.18827,
            41.370228,
            12.249
          ],
          [
            2.188211,
            41.37025,
            9.312
          ],
          [
            2.188209,
            41.370246,
            6.957
          ],
          [
            2.188217,
            41.370232,
            7.888
          ],
          [
            2.188219,
            41.370248,
            8.844
          ],
          [
            2.188219,
            41.370256,
            6.928
          ],
          [
            2.188196,
            41.370232,
            7.489
          ],
          [
            2.187727,
            41.370316,
            5.917
          ],
          [
            2.187708,
            41.370627,
            4.007
          ],
          [
            2.187739,
            41.37081,
            4.98
          ],
          [
            2.187758,
            41.371019,
            5.421
          ],
          [
            2.18776,
            41.371525,
            11.779
          ],
          [
            2.187755,
            41.371868,
            19.822
          ],
          [
            2.187838,
            41.372234,
            28.017
          ],
          [
            2.187923,
            41.372526,
            27.578
          ],
          [
            2.187935,
            41.372636,
            30.934
          ],
          [
            2.188091,
            41.373122,
            25.692
          ],
          [
            2.188166,
            41.373455,
            24.273
          ],
          [
            2.188321,
            41.373823,
            18.42
          ],
          [
            2.188471,
            41.374155,
            14.107
          ],
          [
            2.188703,
            41.374559,
            12.227
          ],
          [
            2.188935,
            41.374928,
            11.218
          ],
          [
            2.189073,
            41.375077,
            12.226
          ],
          [
            2.189071,
            41.375197,
            13.119
          ],
          [
            2.189018,
            41.375346,
            13.614
          ],
          [
            2.188977,
            41.37535,
            12.645
          ],
          [
            2.188896,
            41.375367,
            13.681
          ],
          [
            2.18868,
            41.375444,
            12.613
          ],
          [
            2.188678,
            41.375456,
            12.643
          ],
          [
            2.188753,
            41.375608,
            14.607
          ],
          [
            2.188775,
            41.375671,
            15.007
          ],
          [
            2.188771,
            41.375829,
            16.029
          ],
          [
            2.188725,
            41.375926,
            16.54
          ],
          [
            2.18864,
            41.376011,
            16.568
          ],
          [
            2.188594,
            41.376094,
            16.521
          ],
          [
            2.188597,
            41.376128,
            16.526
          ],
          [
            2.188557,
            41.376206,
            16.027
          ],
          [
            2.188366,
            41.376646,
            15.523
          ],
          [
            2.188211,
            41.376828,
            14.694
          ],
          [
            2.187822,
            41.377215,
            14.157
          ],
          [
            2.187617,
            41.37771,
            10.722
          ],
          [
            2.187393,
            41.378146,
            9.307
          ],
          [
            2.187166,
            41.378754,
            6.997
          ],
          [
            2.187085,
            41.378906,
            6.938
          ],
          [
            2.187066,
            41.379037,
            6.446
          ],
          [
            2.186897,
            41.379447,
            4.949
          ],
          [
            2.186751,
            41.379724,
            4.934
          ],
          [
            2.186744,
            41.379799,
            4.975
          ],
          [
            2.186673,
            41.379888,
            4.521
          ],
          [
            2.186481,
            41.380206,
            4.922
          ],
          [
            2.186443,
            41.38024,
            4.962
          ],
          [
            2.186254,
            41.380257,
            5.408
          ],
          [
            2.186058,
            41.380227,
            6.407
          ],
          [
            2.185697,
            41.380432,
            4.96
          ],
          [
            2.1854,
            41.380571,
            4.051
          ],
          [
            2.185091,
            41.380718,
            4.519
          ],
          [
            2.18474,
            41.380884,
            5.442
          ],
          [
            2.184586,
            41.380905,
            6.417
          ],
          [
            2.184372,
            41.380867,
            7.488
          ],
          [
            2.184038,
            41.3808,
            7.824
          ],
          [
            2.183697,
            41.380719,
            7.442
          ],
          [
            2.183674,
            41.380707,
            7.822
          ],
          [
            2.183711,
            41.380694,
            7.814
          ],
          [
            2.183636,
            41.380675,
            7.807
          ],
          [
            2.183384,
            41.380641,
            7.872
          ],
          [
            2.183372,
            41.380645,
            7.873
          ],
          [
            2.183239,
            41.380648,
            7.861
          ],
          [
            2.182982,
            41.380562,
            7.484
          ],
          [
            2.182914,
            41.380568,
            7.869
          ],
          [
            2.182815,
            41.380556,
            7.44
          ],
          [
            2.182609,
            41.380527,
            7.866
          ],
          [
            2.182417,
            41.380388,
            8.314
          ],
          [
            2.182405,
            41.380371,
            8.354
          ],
          [
            2.18233,
            41.380211,
            9.809
          ],
          [
            2.182325,
            41.379935,
            9.807
          ],
          [
            2.182056,
            41.37967,
            10.259
          ],
          [
            2.18183,
            41.379401,
            8.33
          ],
          [
            2.181595,
            41.379096,
            8.378
          ],
          [
            2.181508,
            41.378971,
            8.371
          ],
          [
            2.181392,
            41.37878,
            8.346
          ],
          [
            2.181325,
            41.378683,
            8.397
          ],
          [
            2.181238,
            41.37859,
            7.833
          ],
          [
            2.180993,
            41.378317,
            7.854
          ],
          [
            2.180787,
            41.378239,
            7.456
          ],
          [
            2.180468,
            41.37788,
            6.911
          ],
          [
            2.180238,
            41.377572,
            6.407
          ],
          [
            2.180067,
            41.37721,
            7.473
          ],
          [
            2.179845,
            41.376842,
            7.484
          ],
          [
            2.179714,
            41.376417,
            7.822
          ],
          [
            2.179637,
            41.376295,
            7.835
          ],
          [
            2.179485,
            41.376107,
            7.83
          ],
          [
            2.179252,
            41.375847,
            7.411
          ],
          [
            2.178914,
            41.375692,
            7.437
          ],
          [
            2.17888,
            41.37566,
            7.448
          ],
          [
            2.17874,
            41.375636,
            7.861
          ],
          [
            2.17864,
            41.375586,
            8.317
          ],
          [
            2.178384,
            41.375302,
            8.307
          ],
          [
            2.178188,
            41.375016,
            7.482
          ],
          [
            2.178014,
            41.37499,
            7.893
          ],
          [
            2.177767,
            41.374626,
            9.821
          ],
          [
            2.177501,
            41.374295,
            10.244
          ],
          [
            2.177263,
            41.374066,
            10.299
          ],
          [
            2.177373,
            41.373938,
            12.65
          ],
          [
            2.177682,
            41.37368,
            12.616
          ],
          [
            2.177793,
            41.373549,
            13.121
          ],
          [
            2.177644,
            41.373315,
            13.641
          ],
          [
            2.177408,
            41.373,
            11.205
          ],
          [
            2.177336,
            41.372922,
            10.707
          ],
          [
            2.176957,
            41.372773,
            10.21
          ],
          [
            2.176686,
            41.372403,
            7.811
          ],
          [
            2.176394,
            41.372073,
            7.839
          ],
          [
            2.176202,
            41.371759,
            6.982
          ],
          [
            2.176068,
            41.371614,
            7.437
          ],
          [
            2.175843,
            41.371351,
            7.868
          ],
          [
            2.17546,
            41.370852,
            9.364
          ],
          [
            2.175359,
            41.370459,
            10.791
          ],
          [
            2.17529,
            41.370036,
            11.281
          ],
          [
            2.175206,
            41.369512,
            11.219
          ],
          [
            2.175113,
            41.368857,
            12.207
          ],
          [
            2.175052,
            41.368409,
            12.277
          ],
          [
            2.17501,
            41.367876,
            11.738
          ],
          [
            2.175218,
            41.367548,
            11.246
          ],
          [
            2.175348,
            41.367203,
            10.729
          ],
          [
            2.175298,
            41.3671,
            10.224
          ],
          [
            2.175347,
            41.367031,
            11.235
          ],
          [
            2.175667,
            41.366929,
            12.231
          ],
          [
            2.175714,
            41.366926,
            12.627
          ],
          [
            2.175739,
            41.366936,
            12.668
          ],
          [
            2.175779,
            41.367006,
            10.714
          ],
          [
            2.175817,
            41.366984,
            11.207
          ],
          [
            2.175963,
            41.366885,
            27.59
          ],
          [
            2.176078,
            41.366829,
            39.141
          ],
          [
            2.176139,
            41.366835,
            32.339
          ],
          [
            2.176176,
            41.366814,
            26.142
          ],
          [
            2.176294,
            41.366767,
            26.197
          ],
          [
            2.176594,
            41.366667,
            30.498
          ],
          [
            2.177007,
            41.366522,
            27.514
          ],
          [
            2.17754,
            41.366367,
            18.427
          ],
          [
            2.178008,
            41.366202,
            17.468
          ],
          [
            2.178434,
            41.366052,
            20.314
          ],
          [
            2.178889,
            41.365892,
            23.207
          ],
          [
            2.1794,
            41.365697,
            26.11
          ],
          [
            2.179813,
            41.365546,
            27.521
          ],
          [
            2.180184,
            41.365419,
            27.549
          ],
          [
            2.180194,
            41.365419,
            27.542
          ],
          [
            2.180192,
            41.365423,
            26.677
          ],
          [
            2.180192,
            41.365428,
            22.388
          ],
          [
            2.180204,
            41.365412,
            22.314
          ],
          [
            2.180207,
            41.365411,
            22.372
          ],
          [
            2.18029,
            41.36538,
            22.713
          ],
          [
            2.180768,
            41.365192,
            24.714
          ],
          [
            2.181305,
            41.364987,
            25.107
          ],
          [
            2.181928,
            41.364757,
            23.785
          ],
          [
            2.182472,
            41.364542,
            26.116
          ],
          [
            2.182873,
            41.364114,
            22.314
          ],
          [
            2.182861,
            41.363494,
            17.077
          ],
          [
            2.182608,
            41.363097,
            13.672
          ],
          [
            2.182461,
            41.362872,
            12.693
          ],
          [
            2.181997,
            41.362165,
            9.379
          ],
          [
            2.181854,
            41.361902,
            10.236
          ],
          [
            2.181889,
            41.361867,
            11.217
          ],
          [
            2.181887,
            41.361772,
            11.218
          ],
          [
            2.181853,
            41.36173,
            11.207
          ],
          [
            2.181742,
            41.361625,
            10.771
          ],
          [
            2.18179,
            41.361576,
            12.232
          ],
          [
            2.181759,
            41.361535,
            11.71
          ],
          [
            2.181721,
            41.361527,
            11.773
          ],
          [
            2.181702,
            41.36151,
            11.788
          ],
          [
            2.181593,
            41.361353,
            10.719
          ],
          [
            2.18155,
            41.361263,
            10.735
          ],
          [
            2.181193,
            41.360666,
            9.815
          ],
          [
            2.1809,
            41.36023,
            9.365
          ],
          [
            2.180455,
            41.359566,
            8.311
          ],
          [
            2.180052,
            41.358901,
            6.907
          ],
          [
            2.179497,
            41.358102,
            7.879
          ],
          [
            2.179251,
            41.357743,
            7.86
          ],
          [
            2.179066,
            41.357468,
            8.898
          ],
          [
            2.178803,
            41.357055,
            9.351
          ],
          [
            2.178778,
            41.357017,
            9.336
          ],
          [
            2.178283,
            41.356209,
            9.897
          ],
          [
            2.177854,
            41.355555,
            9.823
          ],
          [
            2.177478,
            41.354968,
            9.397
          ],
          [
            2.177061,
            41.354347,
            9.323
          ],
          [
            2.17658,
            41.353612,
            10.225
          ],
          [
            2.176189,
            41.352982,
            10.707
          ],
          [
            2.176076,
            41.352808,
            10.217
          ],
          [
            2.176023,
            41.352734,
            10.248
          ],
          [
            2.175975,
            41.352645,
            10.246
          ],
          [
            2.175767,
            41.352287,
            9.849
          ],
          [
            2.175719,
            41.352203,
            9.334
          ],
          [
            2.175515,
            41.351889,
            9.895
          ],
          [
            2.175599,
            41.35184,
            10.211
          ],
          [
            2.17567,
            41.351803,
            10.796
          ],
          [
            2.175663,
            41.351796,
            10.231
          ],
          [
            2.175614,
            41.351782,
            15.024
          ],
          [
            2.175634,
            41.351792,
            12.607
          ],
          [
            2.175585,
            41.351783,
            18.487
          ],
          [
            2.175582,
            41.351783,
            21.388
          ],
          [
            2.175624,
            41.351785,
            16.516
          ],
          [
            2.175634,
            41.351796,
            17.949
          ],
          [
            2.175653,
            41.351811,
            14.624
          ],
          [
            2.175652,
            41.351799,
            12.255
          ],
          [
            2.175636,
            41.351795,
            16.581
          ],
          [
            2.175657,
            41.351803,
            14.651
          ],
          [
            2.175634,
            41.351803,
            17.901
          ],
          [
            2.175645,
            41.351804,
            18.411
          ],
          [
            2.175648,
            41.351801,
            17.907
          ],
          [
            2.175663,
            41.351806,
            16.063
          ],
          [
            2.17566,
            41.351796,
            15.574
          ],
          [
            2.175665,
            41.351796,
            13.192
          ],
          [
            2.175659,
            41.351802,
            12.245
          ],
          [
            2.175653,
            41.351807,
            11.23
          ],
          [
            2.17565,
            41.351795,
            9.871
          ],
          [
            2.175656,
            41.351793,
            9.847
          ],
          [
            2.17566,
            41.351801,
            9.316
          ],
          [
            2.175666,
            41.351799,
            9.876
          ],
          [
            2.175576,
            41.35195,
            8.813
          ],
          [
            2.175587,
            41.352016,
            8.807
          ],
          [
            2.175855,
            41.35244,
            7.889
          ],
          [
            2.176154,
            41.352919,
            8.38
          ],
          [
            2.176396,
            41.353311,
            8.318
          ],
          [
            2.176724,
            41.353825,
            7.441
          ],
          [
            2.177031,
            41.354267,
            6.956
          ],
          [
            2.177346,
            41.354739,
            6.947
          ],
          [
            2.177668,
            41.355238,
            6.423
          ],
          [
            2.177934,
            41.355647,
            5.928
          ],
          [
            2.178254,
            41.356153,
            5.989
          ],
          [
            2.178542,
            41.356587,
            6.917
          ],
          [
            2.178783,
            41.356971,
            6.907
          ],
          [
            2.178922,
            41.357225,
            6.97
          ],
          [
            2.179102,
            41.357477,
            7.411
          ],
          [
            2.179291,
            41.357798,
            6.969
          ],
          [
            2.179436,
            41.35799,
            5.972
          ],
          [
            2.179532,
            41.358099,
            5.447
          ],
          [
            2.179718,
            41.358362,
            4.528
          ],
          [
            2.180194,
            41.359079,
            4.014
          ],
          [
            2.180684,
            41.359849,
            4.086
          ],
          [
            2.180949,
            41.360284,
            4.56
          ],
          [
            2.181065,
            41.36041,
            4.526
          ],
          [
            2.181296,
            41.360828,
            4.907
          ],
          [
            2.181638,
            41.361285,
            4.086
          ],
          [
            2.181817,
            41.361547,
            4.527
          ],
          [
            2.181834,
            41.361562,
            4.525
          ],
          [
            2.181859,
            41.36161,
            4.038
          ],
          [
            2.181979,
            41.361809,
            4.513
          ],
          [
            2.181931,
            41.361869,
            4.584
          ],
          [
            2.181908,
            41.361875,
            4.03
          ],
          [
            2.1819,
            41.361889,
            4.074
          ],
          [
            2.181942,
            41.362032,
            4.556
          ],
          [
            2.182147,
            41.362368,
            7.421
          ],
          [
            2.182337,
            41.362672,
            9.307
          ],
          [
            2.182564,
            41.363019,
            11.295
          ],
          [
            2.182802,
            41.363379,
            14.686
          ],
          [
            2.182955,
            41.363817,
            17.034
          ],
          [
            2.182885,
            41.364147,
            17.077
          ],
          [
            2.18264,
            41.36445,
            18.962
          ],
          [
            2.182115,
            41.364715,
            18.973
          ],
          [
            2.181367,
            41.364989,
            18.939
          ],
          [
            2.180524,
            41.365288,
            20.321
          ],
          [
            2.1796,
            41.365635,
            17.941
          ],
          [
            2.178469,
            41.366042,
            11.205
          ],
          [
            2.17742,
            41.36642,
            4.507
          ],
          [
            2.17681,
            41.366645,
            1.66
          ],
          [
            2.176,
            41.366951,
            -1.891
          ],
          [
            2.175416,
            41.367251,
            -0.899
          ],
          [
            2.175399,
            41.367327,
            -0.852
          ],
          [
            2.175452,
            41.36734,
            -0.887
          ],
          [
            2.175447,
            41.36733,
            -1.878
          ],
          [
            2.175432,
            41.367302,
            -2.354
          ],
          [
            2.175386,
            41.367392,
            -1.391
          ],
          [
            2.175127,
            41.36758,
            -0.881
          ],
          [
            2.175183,
            41.367523,
            -1.319
          ],
          [
            2.175313,
            41.367415,
            -0.807
          ],
          [
            2.175348,
            41.367337,
            -0.897
          ],
          [
            2.175444,
            41.367343,
            -1.828
          ],
          [
            2.175462,
            41.367327,
            -2.776
          ],
          [
            2.175476,
            41.367337,
            -5.199
          ],
          [
            2.17548,
            41.367332,
            -7.144
          ],
          [
            2.175483,
            41.367324,
            -6.175
          ],
          [
            2.175457,
            41.367328,
            -4.291
          ],
          [
            2.175442,
            41.367343,
            -4.295
          ],
          [
            2.175354,
            41.367391,
            -3.749
          ],
          [
            2.175029,
            41.367708,
            -1.323
          ],
          [
            2.175021,
            41.367788,
            -1.307
          ],
          [
            2.175051,
            41.367939,
            -1.357
          ],
          [
            2.175126,
            41.368463,
            -0.818
          ],
          [
            2.175172,
            41.368857,
            -0.346
          ],
          [
            2.175225,
            41.369162,
            -0.399
          ],
          [
            2.175296,
            41.36968,
            0.164
          ],
          [
            2.175372,
            41.370185,
            0.655
          ],
          [
            2.175418,
            41.370642,
            0.681
          ],
          [
            2.17566,
            41.371094,
            0.135
          ],
          [
            2.175978,
            41.371481,
            0.686
          ],
          [
            2.176245,
            41.371832,
            1.114
          ],
          [
            2.176589,
            41.372246,
            -0.807
          ],
          [
            2.177031,
            41.372801,
            0.161
          ],
          [
            2.177236,
            41.372851,
            -0.872
          ],
          [
            2.177203,
            41.372921,
            -0.89
          ],
          [
            2.177041,
            41.372928,
            -0.363
          ],
          [
            2.177095,
            41.372888,
            0.178
          ],
          [
            2.177264,
            41.372822,
            0.139
          ],
          [
            2.177223,
            41.372844,
            0.175
          ],
          [
            2.177395,
            41.372927,
            -0.388
          ],
          [
            2.177416,
            41.372948,
            0.124
          ],
          [
            2.177559,
            41.373103,
            -0.326
          ],
          [
            2.177722,
            41.373312,
            -0.307
          ],
          [
            2.177785,
            41.373383,
            -0.846
          ],
          [
            2.1778,
            41.373701,
            -1.377
          ],
          [
            2.17739,
            41.373955,
            0.675
          ],
          [
            2.177442,
            41.374055,
            0.618
          ],
          [
            2.177684,
            41.374356,
            0.133
          ],
          [
            2.178043,
            41.374831,
            2.124
          ],
          [
            2.178162,
            41.374981,
            1.66
          ],
          [
            2.178078,
            41.375048,
            1.148
          ],
          [
            2.177799,
            41.375188,
            3.061
          ],
          [
            2.177836,
            41.375287,
            3.517
          ],
          [
            2.178121,
            41.375553,
            3.507
          ],
          [
            2.178177,
            41.375612,
            3.552
          ],
          [
            2.178228,
            41.375683,
            3.083
          ],
          [
            2.178348,
            41.375899,
            3.591
          ],
          [
            2.178418,
            41.376128,
            3.034
          ],
          [
            2.178418,
            41.376216,
            3.099
          ],
          [
            2.178681,
            41.376465,
            3.02
          ],
          [
            2.178715,
            41.376483,
            3.546
          ],
          [
            2.178823,
            41.376603,
            4.563
          ],
          [
            2.179006,
            41.376888,
            4.944
          ],
          [
            2.179272,
            41.377262,
            4.518
          ],
          [
            2.179578,
            41.377626,
            4.907
          ],
          [
            2.179864,
            41.377982,
            4.964
          ],
          [
            2.180296,
            41.378509,
            4.555
          ],
          [
            2.18083,
            41.379173,
            4.543
          ],
          [
            2.181271,
            41.379722,
            3.586
          ],
          [
            2.181776,
            41.380333,
            3.031
          ],
          [
            2.182131,
            41.380813,
            2.172
          ],
          [
            2.182329,
            41.380992,
            1.658
          ],
          [
            2.18239,
            41.381104,
            1.138
          ],
          [
            2.182398,
            41.381111,
            1.17
          ],
          [
            2.182546,
            41.381236,
            0.117
          ],
          [
            2.182625,
            41.381187,
            1.107
          ],
          [
            2.182639,
            41.381177,
            1.191
          ],
          [
            2.182647,
            41.38119,
            2.182
          ],
          [
            2.182663,
            41.381204,
            -4.26
          ],
          [
            2.182676,
            41.381217,
            -4.233
          ],
          [
            2.182682,
            41.381216,
            -4.228
          ],
          [
            2.182855,
            41.381195,
            -3.269
          ],
          [
            2.18341,
            41.381202,
            -2.775
          ],
          [
            2.18417,
            41.381322,
            -1.847
          ],
          [
            2.184407,
            41.381588,
            0.129
          ],
          [
            2.184749,
            41.381832,
            1.121
          ],
          [
            2.184791,
            41.381858,
            0.607
          ],
          [
            2.184878,
            41.381913,
            0.112
          ],
          [
            2.185208,
            41.382069,
            1.663
          ],
          [
            2.18544,
            41.382237,
            2.521
          ],
          [
            2.185467,
            41.382276,
            1.694
          ],
          [
            2.185437,
            41.382242,
            4.039
          ],
          [
            2.185446,
            41.382245,
            1.69
          ],
          [
            2.185554,
            41.382297,
            -0.376
          ],
          [
            2.185812,
            41.382445,
            -1.899
          ],
          [
            2.185841,
            41.382464,
            -2.707
          ],
          [
            2.185937,
            41.382467,
            -2.327
          ],
          [
            2.18623,
            41.38255,
            -0.307
          ],
          [
            2.186256,
            41.382559,
            0.177
          ],
          [
            2.18635,
            41.382631,
            2.538
          ],
          [
            2.186409,
            41.382652,
            3.066
          ],
          [
            2.186547,
            41.38273,
            2.159
          ],
          [
            2.187121,
            41.382932,
            2.514
          ],
          [
            2.187564,
            41.383118,
            2.555
          ],
          [
            2.188109,
            41.383358,
            1.691
          ],
          [
            2.188814,
            41.383678,
            1.172
          ],
          [
            2.189635,
            41.384071,
            1.613
          ],
          [
            2.190258,
            41.384359,
            1.614
          ],
          [
            2.190625,
            41.384546,
            2.507
          ],
          [
            2.191177,
            41.38481,
            4.015
          ],
          [
            2.191685,
            41.385077,
            4.056
          ],
          [
            2.192136,
            41.385318,
            3.094
          ],
          [
            2.192634,
            41.385622,
            3.587
          ],
          [
            2.193118,
            41.385959,
            4.042
          ],
          [
            2.193595,
            41.386311,
            4.953
          ],
          [
            2.194059,
            41.386668,
            4.959
          ],
          [
            2.194358,
            41.387001,
            6.965
          ],
          [
            2.194583,
            41.387271,
            14.668
          ],
          [
            2.19469,
            41.387362,
            17.014
          ],
          [
            2.194877,
            41.387495,
            19.807
          ],
          [
            2.195111,
            41.38766,
            19.464
          ],
          [
            2.195247,
            41.387742,
            18.955
          ],
          [
            2.195331,
            41.387792,
            18.923
          ],
          [
            2.195308,
            41.3878,
            22.796
          ],
          [
            2.195644,
            41.388025,
            18.931
          ],
          [
            2.195648,
            41.388073,
            14.122
          ],
          [
            2.195693,
            41.388109,
            9.338
          ],
          [
            2.195768,
            41.388166,
            8.888
          ],
          [
            2.196058,
            41.388374,
            8.824
          ],
          [
            2.196481,
            41.388722,
            8.326
          ],
          [
            2.196773,
            41.388945,
            5.407
          ],
          [
            2.197112,
            41.389177,
            6.986
          ],
          [
            2.197407,
            41.389402,
            7.457
          ],
          [
            2.197601,
            41.389554,
            7.825
          ],
          [
            2.197819,
            41.389693,
            5.938
          ],
          [
            2.19794,
            41.389807,
            4.933
          ],
          [
            2.198006,
            41.389837,
            4.914
          ],
          [
            2.198178,
            41.389968,
            7.45
          ],
          [
            2.198478,
            41.390176,
            9.343
          ],
          [
            2.198822,
            41.39043,
            9.364
          ],
          [
            2.199196,
            41.390705,
            7.81
          ],
          [
            2.19944,
            41.390905,
            6.907
          ],
          [
            2.199771,
            41.391159,
            6.462
          ],
          [
            2.200134,
            41.391438,
            4.553
          ],
          [
            2.200463,
            41.391668,
            3.091
          ],
          [
            2.200693,
            41.391839,
            5.914
          ],
          [
            2.200923,
            41.392008,
            6.949
          ],
          [
            2.201402,
            41.392255,
            8.39
          ],
          [
            2.201598,
            41.392413,
            6.456
          ],
          [
            2.201721,
            41.392488,
            5.936
          ],
          [
            2.202067,
            41.392782,
            5.917
          ],
          [
            2.202434,
            41.393029,
            4.518
          ],
          [
            2.202628,
            41.393155,
            4.007
          ],
          [
            2.202823,
            41.393357,
            4.541
          ],
          [
            2.202841,
            41.393372,
            4.592
          ],
          [
            2.203225,
            41.393643,
            4.56
          ],
          [
            2.203595,
            41.393958,
            4.543
          ],
          [
            2.203997,
            41.394269,
            2.588
          ],
          [
            2.204428,
            41.394708,
            1.129
          ],
          [
            2.204665,
            41.394946,
            -0.875
          ],
          [
            2.205135,
            41.395141,
            1.149
          ],
          [
            2.205426,
            41.395349,
            1.102
          ],
          [
            2.205868,
            41.395671,
            0.622
          ],
          [
            2.206101,
            41.395851,
            0.107
          ],
          [
            2.206405,
            41.396061,
            0.632
          ],
          [
            2.206744,
            41.396271,
            0.683
          ],
          [
            2.206903,
            41.396343,
            2.171
          ],
          [
            2.20708,
            41.396434,
            3.544
          ],
          [
            2.207472,
            41.396543,
            4.039
          ],
          [
            2.207793,
            41.396763,
            4.01
          ],
          [
            2.208008,
            41.397157,
            2.576
          ],
          [
            2.208086,
            41.397653,
            -0.335
          ],
          [
            2.208154,
            41.398119,
            -2.386
          ],
          [
            2.208229,
            41.398587,
            0.114
          ],
          [
            2.208234,
            41.398621,
            0.607
          ],
          [
            2.208533,
            41.399026,
            4.581
          ],
          [
            2.208516,
            41.399135,
            4.942
          ],
          [
            2.208518,
            41.399155,
            5.46
          ],
          [
            2.208766,
            41.399329,
            6.433
          ],
          [
            2.209052,
            41.399495,
            6.478
          ],
          [
            2.20938,
            41.39958,
            6.919
          ],
          [
            2.209883,
            41.399981,
            5.455
          ],
          [
            2.210608,
            41.400599,
            4.536
          ],
          [
            2.210744,
            41.400713,
            4.017
          ],
          [
            2.21105,
            41.400938,
            3.518
          ],
          [
            2.211474,
            41.401287,
            3.007
          ],
          [
            2.211782,
            41.401521,
            4.541
          ],
          [
            2.211572,
            41.401707,
            3.092
          ],
          [
            2.211566,
            41.401779,
            2.52
          ],
          [
            2.211687,
            41.401822,
            3.063
          ],
          [
            2.211939,
            41.401666,
            5.448
          ],
          [
            2.212104,
            41.401723,
            5.919
          ],
          [
            2.21268,
            41.402156,
            4.015
          ],
          [
            2.213507,
            41.402773,
            4.042
          ],
          [
            2.213799,
            41.403052,
            4.022
          ],
          [
            2.213912,
            41.403185,
            4.514
          ],
          [
            2.214353,
            41.403508,
            4.007
          ],
          [
            2.214527,
            41.403655,
            4.532
          ],
          [
            2.214429,
            41.403815,
            4.963
          ],
          [
            2.21451,
            41.403922,
            4.521
          ],
          [
            2.214772,
            41.404126,
            4.994
          ],
          [
            2.214738,
            41.404211,
            4.919
          ],
          [
            2.214724,
            41.404217,
            4.96
          ],
          [
            2.214663,
            41.404313,
            4.526
          ],
          [
            2.214609,
            41.404491,
            6.411
          ],
          [
            2.214378,
            41.40471,
            10.221
          ],
          [
            2.214343,
            41.40478,
            8.803
          ],
          [
            2.214367,
            41.404781,
            8.807
          ]
        ]
      }
    }
  ]
}