<?xml version="1.0" encoding="UTF-8"?><gpx creator="Wikiloc - https://www.wikiloc.com" version="1.1" xmlns="http://www.topografix.com/GPX/1/1" xmlns:xsi="http://www.w3.org/2001/XMLSchema-instance" xsi:schemaLocation="http://www.topografix.com/GPX/1/1 http://www.topografix.com/GPX/1/1/gpx.xsd"><metadata><name>Wikiloc - Front Marítim - Hotel Vela - Rompeolas</name><author><name>joseant.trek</name><link href="https://www.wikiloc.com/wikiloc/user.do?id=938989"><text>joseant.trek on Wikiloc</text></link></author><link href="https://www.wikiloc.com/mountain-biking-trails/front-maritim-hotel-vela-rompeolas-8970562"><text>Front Marítim - Hotel Vela - Rompeolas on Wikiloc</text></link><time>2015-03-01T11:34:16Z</time></metadata><trk><name>Front Marítim - Hotel Vela - Rompeolas - Wikiloc</name><cmt></cmt><desc></desc><trkseg><trkpt lat="41.404619" lon="2.214497"><ele>28.043</ele><time>2015-03-01T10:11:42Z</time></trkpt><trkpt lat="41.404652" lon="2.214476"><ele>24.764</ele><time>2015-03-01T10:12:11Z</time></trkpt><trkpt lat="41.404662" lon="2.214464"><ele>22.710</ele><time>2015-03-01T10:12:24Z</time></trkpt><trkpt lat="41.404509" lon="2.214638"><ele>15.007</ele><time>2015-03-01T10:12:35Z</time></trkpt><trkpt lat="41.404361" lon="2.214653"><ele>14.692</ele><time>2015-03-01T10:12:41Z</time></trkpt><trkpt lat="41.404209" lon="2.214780"><ele>10.763</ele><time>2015-03-01T10:12:51Z</time></trkpt><trkpt lat="41.404223" lon="2.214857"><ele>7.891</ele><time>2015-03-01T10:13:05Z</time></trkpt><trkpt lat="41.404247" lon="2.214898"><ele>7.844</ele><time>2015-03-01T10:13:07Z</time></trkpt><trkpt lat="41.404198" lon="2.215088"><ele>8.359</ele><time>2015-03-01T10:13:16Z</time></trkpt><trkpt lat="41.403974" lon="2.215389"><ele>9.830</ele><time>2015-03-01T10:13:32Z</time></trkpt><trkpt lat="41.403713" lon="2.215726"><ele>6.456</ele><time>2015-03-01T10:13:43Z</time></trkpt><trkpt lat="41.403708" lon="2.215735"><ele>5.493</ele><time>2015-03-01T10:13:56Z</time></trkpt><trkpt lat="41.403696" lon="2.215771"><ele>7.865</ele><time>2015-03-01T10:14:25Z</time></trkpt><trkpt lat="41.403556" lon="2.215901"><ele>7.821</ele><time>2015-03-01T10:14:35Z</time></trkpt><trkpt lat="41.403273" lon="2.215815"><ele>7.807</ele><time>2015-03-01T10:14:46Z</time></trkpt><trkpt lat="41.402985" lon="2.215506"><ele>6.477</ele><time>2015-03-01T10:14:59Z</time></trkpt><trkpt lat="41.402949" lon="2.215450"><ele>5.948</ele><time>2015-03-01T10:15:01Z</time></trkpt><trkpt lat="41.402766" lon="2.215400"><ele>4.966</ele><time>2015-03-01T10:15:09Z</time></trkpt><trkpt lat="41.402537" lon="2.215169"><ele>4.039</ele><time>2015-03-01T10:15:20Z</time></trkpt><trkpt lat="41.402201" lon="2.214873"><ele>2.514</ele><time>2015-03-01T10:15:36Z</time></trkpt><trkpt lat="41.401927" lon="2.214686"><ele>2.135</ele><time>2015-03-01T10:15:49Z</time></trkpt><trkpt lat="41.401756" lon="2.214594"><ele>2.561</ele><time>2015-03-01T10:16:03Z</time></trkpt><trkpt lat="41.401509" lon="2.214446"><ele>2.174</ele><time>2015-03-01T10:16:17Z</time></trkpt><trkpt lat="41.401312" lon="2.214364"><ele>2.156</ele><time>2015-03-01T10:16:26Z</time></trkpt><trkpt lat="41.401226" lon="2.214329"><ele>2.121</ele><time>2015-03-01T10:16:30Z</time></trkpt><trkpt lat="41.400834" lon="2.214108"><ele>2.107</ele><time>2015-03-01T10:16:48Z</time></trkpt><trkpt lat="41.400450" lon="2.213898"><ele>2.585</ele><time>2015-03-01T10:17:04Z</time></trkpt><trkpt lat="41.400372" lon="2.213830"><ele>2.576</ele><time>2015-03-01T10:17:08Z</time></trkpt><trkpt lat="41.400362" lon="2.213757"><ele>3.084</ele><time>2015-03-01T10:17:12Z</time></trkpt><trkpt lat="41.400472" lon="2.213665"><ele>3.057</ele><time>2015-03-01T10:17:19Z</time></trkpt><trkpt lat="41.400577" lon="2.213423"><ele>3.052</ele><time>2015-03-01T10:17:33Z</time></trkpt><trkpt lat="41.400573" lon="2.213198"><ele>3.063</ele><time>2015-03-01T10:17:43Z</time></trkpt><trkpt lat="41.400390" lon="2.212901"><ele>3.039</ele><time>2015-03-01T10:17:56Z</time></trkpt><trkpt lat="41.400167" lon="2.212647"><ele>3.093</ele><time>2015-03-01T10:18:09Z</time></trkpt><trkpt lat="41.399768" lon="2.212320"><ele>4.565</ele><time>2015-03-01T10:18:28Z</time></trkpt><trkpt lat="41.399473" lon="2.212098"><ele>5.921</ele><time>2015-03-01T10:18:41Z</time></trkpt><trkpt lat="41.399124" lon="2.211856"><ele>6.407</ele><time>2015-03-01T10:18:55Z</time></trkpt><trkpt lat="41.398720" lon="2.211571"><ele>5.437</ele><time>2015-03-01T10:19:11Z</time></trkpt><trkpt lat="41.398386" lon="2.211333"><ele>4.548</ele><time>2015-03-01T10:19:25Z</time></trkpt><trkpt lat="41.398066" lon="2.211096"><ele>4.086</ele><time>2015-03-01T10:19:38Z</time></trkpt><trkpt lat="41.397644" lon="2.210771"><ele>4.519</ele><time>2015-03-01T10:19:55Z</time></trkpt><trkpt lat="41.397698" lon="2.210587"><ele>5.474</ele><time>2015-03-01T10:20:03Z</time></trkpt><trkpt lat="41.397879" lon="2.210341"><ele>5.965</ele><time>2015-03-01T10:20:18Z</time></trkpt><trkpt lat="41.397898" lon="2.210319"><ele>6.411</ele><time>2015-03-01T10:20:20Z</time></trkpt><trkpt lat="41.397910" lon="2.210295"><ele>5.996</ele><time>2015-03-01T10:20:22Z</time></trkpt><trkpt lat="41.397691" lon="2.210126"><ele>4.531</ele><time>2015-03-01T10:20:37Z</time></trkpt><trkpt lat="41.397212" lon="2.209815"><ele>2.524</ele><time>2015-03-01T10:20:52Z</time></trkpt><trkpt lat="41.396885" lon="2.209578"><ele>1.607</ele><time>2015-03-01T10:21:04Z</time></trkpt><trkpt lat="41.396629" lon="2.209174"><ele>2.547</ele><time>2015-03-01T10:21:20Z</time></trkpt><trkpt lat="41.396327" lon="2.208944"><ele>2.128</ele><time>2015-03-01T10:21:34Z</time></trkpt><trkpt lat="41.396138" lon="2.208683"><ele>1.646</ele><time>2015-03-01T10:21:47Z</time></trkpt><trkpt lat="41.396084" lon="2.208568"><ele>0.619</ele><time>2015-03-01T10:21:52Z</time></trkpt><trkpt lat="41.396014" lon="2.208488"><ele>0.684</ele><time>2015-03-01T10:21:57Z</time></trkpt><trkpt lat="41.395674" lon="2.208074"><ele>1.185</ele><time>2015-03-01T10:22:16Z</time></trkpt><trkpt lat="41.395342" lon="2.207615"><ele>0.631</ele><time>2015-03-01T10:22:35Z</time></trkpt><trkpt lat="41.395067" lon="2.207269"><ele>1.669</ele><time>2015-03-01T10:22:50Z</time></trkpt><trkpt lat="41.394836" lon="2.206910"><ele>0.604</ele><time>2015-03-01T10:23:04Z</time></trkpt><trkpt lat="41.394496" lon="2.206477"><ele>1.624</ele><time>2015-03-01T10:23:22Z</time></trkpt><trkpt lat="41.394145" lon="2.206095"><ele>3.007</ele><time>2015-03-01T10:23:39Z</time></trkpt><trkpt lat="41.393789" lon="2.205792"><ele>4.034</ele><time>2015-03-01T10:23:56Z</time></trkpt><trkpt lat="41.393376" lon="2.205521"><ele>4.535</ele><time>2015-03-01T10:24:13Z</time></trkpt><trkpt lat="41.392955" lon="2.205329"><ele>3.073</ele><time>2015-03-01T10:24:29Z</time></trkpt><trkpt lat="41.392553" lon="2.205022"><ele>2.196</ele><time>2015-03-01T10:24:46Z</time></trkpt><trkpt lat="41.392231" lon="2.204718"><ele>1.141</ele><time>2015-03-01T10:25:01Z</time></trkpt><trkpt lat="41.391869" lon="2.204460"><ele>2.142</ele><time>2015-03-01T10:25:17Z</time></trkpt><trkpt lat="41.391718" lon="2.204084"><ele>3.048</ele><time>2015-03-01T10:25:30Z</time></trkpt><trkpt lat="41.391469" lon="2.203704"><ele>2.142</ele><time>2015-03-01T10:25:45Z</time></trkpt><trkpt lat="41.391260" lon="2.203197"><ele>3.022</ele><time>2015-03-01T10:26:02Z</time></trkpt><trkpt lat="41.391108" lon="2.202784"><ele>2.514</ele><time>2015-03-01T10:26:15Z</time></trkpt><trkpt lat="41.390960" lon="2.202269"><ele>1.607</ele><time>2015-03-01T10:26:31Z</time></trkpt><trkpt lat="41.390776" lon="2.201858"><ele>1.672</ele><time>2015-03-01T10:26:48Z</time></trkpt><trkpt lat="41.390488" lon="2.201340"><ele>1.673</ele><time>2015-03-01T10:27:07Z</time></trkpt><trkpt lat="41.390217" lon="2.200966"><ele>2.141</ele><time>2015-03-01T10:27:22Z</time></trkpt><trkpt lat="41.390026" lon="2.200775"><ele>3.514</ele><time>2015-03-01T10:27:34Z</time></trkpt><trkpt lat="41.390013" lon="2.200736"><ele>4.069</ele><time>2015-03-01T10:27:36Z</time></trkpt><trkpt lat="41.389701" lon="2.200488"><ele>5.440</ele><time>2015-03-01T10:27:52Z</time></trkpt><trkpt lat="41.389306" lon="2.200191"><ele>7.886</ele><time>2015-03-01T10:28:08Z</time></trkpt><trkpt lat="41.389007" lon="2.199844"><ele>8.357</ele><time>2015-03-01T10:28:22Z</time></trkpt><trkpt lat="41.388716" lon="2.199441"><ele>7.800</ele><time>2015-03-01T10:28:36Z</time></trkpt><trkpt lat="41.388315" lon="2.198919"><ele>8.320</ele><time>2015-03-01T10:28:54Z</time></trkpt><trkpt lat="41.388066" lon="2.198600"><ele>7.807</ele><time>2015-03-01T10:29:05Z</time></trkpt><trkpt lat="41.387708" lon="2.198404"><ele>7.853</ele><time>2015-03-01T10:29:20Z</time></trkpt><trkpt lat="41.387412" lon="2.197953"><ele>6.994</ele><time>2015-03-01T10:29:36Z</time></trkpt><trkpt lat="41.387120" lon="2.197603"><ele>7.482</ele><time>2015-03-01T10:29:50Z</time></trkpt><trkpt lat="41.387063" lon="2.197593"><ele>7.475</ele><time>2015-03-01T10:29:52Z</time></trkpt><trkpt lat="41.386814" lon="2.197847"><ele>8.810</ele><time>2015-03-01T10:30:07Z</time></trkpt><trkpt lat="41.386794" lon="2.197856"><ele>8.881</ele><time>2015-03-01T10:30:08Z</time></trkpt><trkpt lat="41.386520" lon="2.198172"><ele>8.817</ele><time>2015-03-01T10:30:25Z</time></trkpt><trkpt lat="41.386303" lon="2.198232"><ele>8.812</ele><time>2015-03-01T10:30:36Z</time></trkpt><trkpt lat="41.386238" lon="2.198204"><ele>7.832</ele><time>2015-03-01T10:30:50Z</time></trkpt><trkpt lat="41.386235" lon="2.198207"><ele>7.405</ele><time>2015-03-01T10:31:01Z</time></trkpt><trkpt lat="41.386188" lon="2.198140"><ele>7.407</ele><time>2015-03-01T10:31:06Z</time></trkpt><trkpt lat="41.386138" lon="2.198060"><ele>7.439</ele><time>2015-03-01T10:31:11Z</time></trkpt><trkpt lat="41.385991" lon="2.197728"><ele>6.410</ele><time>2015-03-01T10:31:25Z</time></trkpt><trkpt lat="41.385873" lon="2.197545"><ele>7.448</ele><time>2015-03-01T10:31:33Z</time></trkpt><trkpt lat="41.385787" lon="2.197418"><ele>6.951</ele><time>2015-03-01T10:31:40Z</time></trkpt><trkpt lat="41.385494" lon="2.197036"><ele>7.856</ele><time>2015-03-01T10:31:53Z</time></trkpt><trkpt lat="41.385300" lon="2.196797"><ele>8.877</ele><time>2015-03-01T10:32:05Z</time></trkpt><trkpt lat="41.385036" lon="2.196377"><ele>8.833</ele><time>2015-03-01T10:32:21Z</time></trkpt><trkpt lat="41.384810" lon="2.196089"><ele>8.895</ele><time>2015-03-01T10:32:33Z</time></trkpt><trkpt lat="41.384624" lon="2.195780"><ele>8.849</ele><time>2015-03-01T10:32:44Z</time></trkpt><trkpt lat="41.384253" lon="2.195460"><ele>8.823</ele><time>2015-03-01T10:33:02Z</time></trkpt><trkpt lat="41.383818" lon="2.195157"><ele>7.807</ele><time>2015-03-01T10:33:20Z</time></trkpt><trkpt lat="41.383309" lon="2.194868"><ele>8.837</ele><time>2015-03-01T10:33:40Z</time></trkpt><trkpt lat="41.382827" lon="2.194572"><ele>8.898</ele><time>2015-03-01T10:33:59Z</time></trkpt><trkpt lat="41.382482" lon="2.194360"><ele>8.366</ele><time>2015-03-01T10:34:13Z</time></trkpt><trkpt lat="41.382050" lon="2.194091"><ele>7.439</ele><time>2015-03-01T10:34:30Z</time></trkpt><trkpt lat="41.381668" lon="2.193857"><ele>6.954</ele><time>2015-03-01T10:34:45Z</time></trkpt><trkpt lat="41.381199" lon="2.193571"><ele>7.865</ele><time>2015-03-01T10:35:03Z</time></trkpt><trkpt lat="41.380825" lon="2.193327"><ele>8.811</ele><time>2015-03-01T10:35:18Z</time></trkpt><trkpt lat="41.380485" lon="2.193129"><ele>10.293</ele><time>2015-03-01T10:35:33Z</time></trkpt><trkpt lat="41.379976" lon="2.192825"><ele>9.365</ele><time>2015-03-01T10:35:52Z</time></trkpt><trkpt lat="41.379418" lon="2.192474"><ele>9.321</ele><time>2015-03-01T10:36:11Z</time></trkpt><trkpt lat="41.378969" lon="2.192224"><ele>9.307</ele><time>2015-03-01T10:36:26Z</time></trkpt><trkpt lat="41.378642" lon="2.192045"><ele>7.467</ele><time>2015-03-01T10:36:38Z</time></trkpt><trkpt lat="41.378232" lon="2.191752"><ele>4.988</ele><time>2015-03-01T10:36:50Z</time></trkpt><trkpt lat="41.377690" lon="2.191440"><ele>4.056</ele><time>2015-03-01T10:37:06Z</time></trkpt><trkpt lat="41.377479" lon="2.191271"><ele>4.029</ele><time>2015-03-01T10:37:20Z</time></trkpt><trkpt lat="41.377468" lon="2.191268"><ele>3.564</ele><time>2015-03-01T10:37:30Z</time></trkpt><trkpt lat="41.377414" lon="2.191235"><ele>3.545</ele><time>2015-03-01T10:37:35Z</time></trkpt><trkpt lat="41.377245" lon="2.191136"><ele>4.041</ele><time>2015-03-01T10:37:46Z</time></trkpt><trkpt lat="41.377172" lon="2.191106"><ele>4.536</ele><time>2015-03-01T10:37:50Z</time></trkpt><trkpt lat="41.376808" lon="2.190875"><ele>4.917</ele><time>2015-03-01T10:38:08Z</time></trkpt><trkpt lat="41.376608" lon="2.190722"><ele>5.918</ele><time>2015-03-01T10:38:20Z</time></trkpt><trkpt lat="41.376253" lon="2.190566"><ele>4.907</ele><time>2015-03-01T10:38:36Z</time></trkpt><trkpt lat="41.375896" lon="2.190403"><ele>4.911</ele><time>2015-03-01T10:38:52Z</time></trkpt><trkpt lat="41.375597" lon="2.190212"><ele>4.562</ele><time>2015-03-01T10:39:06Z</time></trkpt><trkpt lat="41.375257" lon="2.190101"><ele>5.460</ele><time>2015-03-01T10:39:20Z</time></trkpt><trkpt lat="41.374894" lon="2.189926"><ele>4.963</ele><time>2015-03-01T10:39:35Z</time></trkpt><trkpt lat="41.374614" lon="2.189599"><ele>5.468</ele><time>2015-03-01T10:39:50Z</time></trkpt><trkpt lat="41.374412" lon="2.189379"><ele>4.999</ele><time>2015-03-01T10:40:02Z</time></trkpt><trkpt lat="41.374361" lon="2.189364"><ele>4.565</ele><time>2015-03-01T10:40:12Z</time></trkpt><trkpt lat="41.374209" lon="2.189339"><ele>3.517</ele><time>2015-03-01T10:40:37Z</time></trkpt><trkpt lat="41.373661" lon="2.189273"><ele>3.587</ele><time>2015-03-01T10:40:52Z</time></trkpt><trkpt lat="41.373010" lon="2.189194"><ele>4.915</ele><time>2015-03-01T10:41:09Z</time></trkpt><trkpt lat="41.372693" lon="2.189153"><ele>4.907</ele><time>2015-03-01T10:41:20Z</time></trkpt><trkpt lat="41.372361" lon="2.189093"><ele>4.019</ele><time>2015-03-01T10:41:34Z</time></trkpt><trkpt lat="41.372281" lon="2.189068"><ele>4.590</ele><time>2015-03-01T10:41:46Z</time></trkpt><trkpt lat="41.372276" lon="2.189043"><ele>8.318</ele><time>2015-03-01T10:42:12Z</time></trkpt><trkpt lat="41.372214" lon="2.189061"><ele>10.291</ele><time>2015-03-01T10:42:33Z</time></trkpt><trkpt lat="41.371796" lon="2.189009"><ele>8.896</ele><time>2015-03-01T10:42:48Z</time></trkpt><trkpt lat="41.371382" lon="2.188922"><ele>7.497</ele><time>2015-03-01T10:43:01Z</time></trkpt><trkpt lat="41.371066" lon="2.188891"><ele>7.873</ele><time>2015-03-01T10:43:12Z</time></trkpt><trkpt lat="41.370563" lon="2.188807"><ele>7.443</ele><time>2015-03-01T10:43:29Z</time></trkpt><trkpt lat="41.370198" lon="2.188773"><ele>7.464</ele><time>2015-03-01T10:43:42Z</time></trkpt><trkpt lat="41.369959" lon="2.188716"><ele>7.410</ele><time>2015-03-01T10:43:50Z</time></trkpt><trkpt lat="41.369832" lon="2.188725"><ele>7.407</ele><time>2015-03-01T10:43:54Z</time></trkpt><trkpt lat="41.369290" lon="2.189047"><ele>10.722</ele><time>2015-03-01T10:44:13Z</time></trkpt><trkpt lat="41.368920" lon="2.189349"><ele>15.033</ele><time>2015-03-01T10:44:28Z</time></trkpt><trkpt lat="41.368592" lon="2.189467"><ele>16.581</ele><time>2015-03-01T10:44:40Z</time></trkpt><trkpt lat="41.368148" lon="2.189346"><ele>17.094</ele><time>2015-03-01T10:44:54Z</time></trkpt><trkpt lat="41.367845" lon="2.189287"><ele>17.099</ele><time>2015-03-01T10:45:04Z</time></trkpt><trkpt lat="41.367663" lon="2.189720"><ele>15.070</ele><time>2015-03-01T10:45:19Z</time></trkpt><trkpt lat="41.367614" lon="2.190040"><ele>14.136</ele><time>2015-03-01T10:45:29Z</time></trkpt><trkpt lat="41.367806" lon="2.190219"><ele>13.156</ele><time>2015-03-01T10:45:43Z</time></trkpt><trkpt lat="41.367830" lon="2.190237"><ele>14.159</ele><time>2015-03-01T10:45:59Z</time></trkpt><trkpt lat="41.367836" lon="2.190239"><ele>16.014</ele><time>2015-03-01T10:46:30Z</time></trkpt><trkpt lat="41.367858" lon="2.190208"><ele>16.007</ele><time>2015-03-01T10:46:41Z</time></trkpt><trkpt lat="41.367893" lon="2.190227"><ele>17.083</ele><time>2015-03-01T10:47:03Z</time></trkpt><trkpt lat="41.367940" lon="2.190227"><ele>22.374</ele><time>2015-03-01T10:47:36Z</time></trkpt><trkpt lat="41.367931" lon="2.190217"><ele>20.342</ele><time>2015-03-01T10:48:01Z</time></trkpt><trkpt lat="41.367859" lon="2.190198"><ele>17.055</ele><time>2015-03-01T10:48:27Z</time></trkpt><trkpt lat="41.367848" lon="2.190174"><ele>18.450</ele><time>2015-03-01T10:48:46Z</time></trkpt><trkpt lat="41.367843" lon="2.189959"><ele>17.911</ele><time>2015-03-01T10:48:56Z</time></trkpt><trkpt lat="41.367904" lon="2.189461"><ele>17.017</ele><time>2015-03-01T10:49:14Z</time></trkpt><trkpt lat="41.367876" lon="2.189368"><ele>17.029</ele><time>2015-03-01T10:49:17Z</time></trkpt><trkpt lat="41.367947" lon="2.189341"><ele>16.500</ele><time>2015-03-01T10:49:22Z</time></trkpt><trkpt lat="41.368016" lon="2.189356"><ele>15.020</ele><time>2015-03-01T10:49:24Z</time></trkpt><trkpt lat="41.368584" lon="2.189506"><ele>7.807</ele><time>2015-03-01T10:49:35Z</time></trkpt><trkpt lat="41.369013" lon="2.189121"><ele>6.460</ele><time>2015-03-01T10:49:44Z</time></trkpt><trkpt lat="41.369762" lon="2.188533"><ele>6.471</ele><time>2015-03-01T10:49:57Z</time></trkpt><trkpt lat="41.370228" lon="2.188270"><ele>12.249</ele><time>2015-03-01T10:50:10Z</time></trkpt><trkpt lat="41.370250" lon="2.188211"><ele>9.312</ele><time>2015-03-01T10:50:21Z</time></trkpt><trkpt lat="41.370246" lon="2.188209"><ele>6.957</ele><time>2015-03-01T10:50:54Z</time></trkpt><trkpt lat="41.370232" lon="2.188217"><ele>7.888</ele><time>2015-03-01T10:51:32Z</time></trkpt><trkpt lat="41.370248" lon="2.188219"><ele>8.844</ele><time>2015-03-01T10:52:00Z</time></trkpt><trkpt lat="41.370256" lon="2.188219"><ele>6.928</ele><time>2015-03-01T10:52:21Z</time></trkpt><trkpt lat="41.370232" lon="2.188196"><ele>7.489</ele><time>2015-03-01T10:52:38Z</time></trkpt><trkpt lat="41.370316" lon="2.187727"><ele>5.917</ele><time>2015-03-01T10:52:53Z</time></trkpt><trkpt lat="41.370627" lon="2.187708"><ele>4.007</ele><time>2015-03-01T10:53:06Z</time></trkpt><trkpt lat="41.370810" lon="2.187739"><ele>4.980</ele><time>2015-03-01T10:53:15Z</time></trkpt><trkpt lat="41.371019" lon="2.187758"><ele>5.421</ele><time>2015-03-01T10:53:28Z</time></trkpt><trkpt lat="41.371525" lon="2.187760"><ele>11.779</ele><time>2015-03-01T10:53:49Z</time></trkpt><trkpt lat="41.371868" lon="2.187755"><ele>19.822</ele><time>2015-03-01T10:54:03Z</time></trkpt><trkpt lat="41.372234" lon="2.187838"><ele>28.017</ele><time>2015-03-01T10:54:18Z</time></trkpt><trkpt lat="41.372526" lon="2.187923"><ele>27.578</ele><time>2015-03-01T10:54:28Z</time></trkpt><trkpt lat="41.372636" lon="2.187935"><ele>30.934</ele><time>2015-03-01T10:54:32Z</time></trkpt><trkpt lat="41.373122" lon="2.188091"><ele>25.692</ele><time>2015-03-01T10:54:50Z</time></trkpt><trkpt lat="41.373455" lon="2.188166"><ele>24.273</ele><time>2015-03-01T10:55:04Z</time></trkpt><trkpt lat="41.373823" lon="2.188321"><ele>18.420</ele><time>2015-03-01T10:55:19Z</time></trkpt><trkpt lat="41.374155" lon="2.188471"><ele>14.107</ele><time>2015-03-01T10:55:33Z</time></trkpt><trkpt lat="41.374559" lon="2.188703"><ele>12.227</ele><time>2015-03-01T10:55:49Z</time></trkpt><trkpt lat="41.374928" lon="2.188935"><ele>11.218</ele><time>2015-03-01T10:56:04Z</time></trkpt><trkpt lat="41.375077" lon="2.189073"><ele>12.226</ele><time>2015-03-01T10:56:11Z</time></trkpt><trkpt lat="41.375197" lon="2.189071"><ele>13.119</ele><time>2015-03-01T10:56:16Z</time></trkpt><trkpt lat="41.375346" lon="2.189018"><ele>13.614</ele><time>2015-03-01T10:56:22Z</time></trkpt><trkpt lat="41.375350" lon="2.188977"><ele>12.645</ele><time>2015-03-01T10:56:37Z</time></trkpt><trkpt lat="41.375367" lon="2.188896"><ele>13.681</ele><time>2015-03-01T10:56:59Z</time></trkpt><trkpt lat="41.375444" lon="2.188680"><ele>12.613</ele><time>2015-03-01T10:57:10Z</time></trkpt><trkpt lat="41.375456" lon="2.188678"><ele>12.643</ele><time>2015-03-01T10:57:15Z</time></trkpt><trkpt lat="41.375608" lon="2.188753"><ele>14.607</ele><time>2015-03-01T10:57:24Z</time></trkpt><trkpt lat="41.375671" lon="2.188775"><ele>15.007</ele><time>2015-03-01T10:57:27Z</time></trkpt><trkpt lat="41.375829" lon="2.188771"><ele>16.029</ele><time>2015-03-01T10:57:35Z</time></trkpt><trkpt lat="41.375926" lon="2.188725"><ele>16.540</ele><time>2015-03-01T10:57:40Z</time></trkpt><trkpt lat="41.376011" lon="2.188640"><ele>16.568</ele><time>2015-03-01T10:57:45Z</time></trkpt><trkpt lat="41.376094" lon="2.188594"><ele>16.521</ele><time>2015-03-01T10:57:50Z</time></trkpt><trkpt lat="41.376128" lon="2.188597"><ele>16.526</ele><time>2015-03-01T10:57:52Z</time></trkpt><trkpt lat="41.376206" lon="2.188557"><ele>16.027</ele><time>2015-03-01T10:57:56Z</time></trkpt><trkpt lat="41.376646" lon="2.188366"><ele>15.523</ele><time>2015-03-01T10:58:16Z</time></trkpt><trkpt lat="41.376828" lon="2.188211"><ele>14.694</ele><time>2015-03-01T10:58:26Z</time></trkpt><trkpt lat="41.377215" lon="2.187822"><ele>14.157</ele><time>2015-03-01T10:58:42Z</time></trkpt><trkpt lat="41.377710" lon="2.187617"><ele>10.722</ele><time>2015-03-01T10:58:58Z</time></trkpt><trkpt lat="41.378146" lon="2.187393"><ele>9.307</ele><time>2015-03-01T10:59:11Z</time></trkpt><trkpt lat="41.378754" lon="2.187166"><ele>6.997</ele><time>2015-03-01T10:59:29Z</time></trkpt><trkpt lat="41.378906" lon="2.187085"><ele>6.938</ele><time>2015-03-01T10:59:34Z</time></trkpt><trkpt lat="41.379037" lon="2.187066"><ele>6.446</ele><time>2015-03-01T10:59:38Z</time></trkpt><trkpt lat="41.379447" lon="2.186897"><ele>4.949</ele><time>2015-03-01T10:59:53Z</time></trkpt><trkpt lat="41.379724" lon="2.186751"><ele>4.934</ele><time>2015-03-01T11:00:04Z</time></trkpt><trkpt lat="41.379799" lon="2.186744"><ele>4.975</ele><time>2015-03-01T11:00:07Z</time></trkpt><trkpt lat="41.379888" lon="2.186673"><ele>4.521</ele><time>2015-03-01T11:00:11Z</time></trkpt><trkpt lat="41.380206" lon="2.186481"><ele>4.922</ele><time>2015-03-01T11:00:25Z</time></trkpt><trkpt lat="41.380240" lon="2.186443"><ele>4.962</ele><time>2015-03-01T11:00:27Z</time></trkpt><trkpt lat="41.380257" lon="2.186254"><ele>5.408</ele><time>2015-03-01T11:00:34Z</time></trkpt><trkpt lat="41.380227" lon="2.186058"><ele>6.407</ele><time>2015-03-01T11:00:42Z</time></trkpt><trkpt lat="41.380432" lon="2.185697"><ele>4.960</ele><time>2015-03-01T11:00:58Z</time></trkpt><trkpt lat="41.380571" lon="2.185400"><ele>4.051</ele><time>2015-03-01T11:01:11Z</time></trkpt><trkpt lat="41.380718" lon="2.185091"><ele>4.519</ele><time>2015-03-01T11:01:26Z</time></trkpt><trkpt lat="41.380884" lon="2.184740"><ele>5.442</ele><time>2015-03-01T11:01:42Z</time></trkpt><trkpt lat="41.380905" lon="2.184586"><ele>6.417</ele><time>2015-03-01T11:01:48Z</time></trkpt><trkpt lat="41.380867" lon="2.184372"><ele>7.488</ele><time>2015-03-01T11:01:56Z</time></trkpt><trkpt lat="41.380800" lon="2.184038"><ele>7.824</ele><time>2015-03-01T11:02:08Z</time></trkpt><trkpt lat="41.380719" lon="2.183697"><ele>7.442</ele><time>2015-03-01T11:02:21Z</time></trkpt><trkpt lat="41.380707" lon="2.183674"><ele>7.822</ele><time>2015-03-01T11:02:32Z</time></trkpt><trkpt lat="41.380694" lon="2.183711"><ele>7.814</ele><time>2015-03-01T11:03:01Z</time></trkpt><trkpt lat="41.380675" lon="2.183636"><ele>7.807</ele><time>2015-03-01T11:03:09Z</time></trkpt><trkpt lat="41.380641" lon="2.183384"><ele>7.872</ele><time>2015-03-01T11:03:21Z</time></trkpt><trkpt lat="41.380645" lon="2.183372"><ele>7.873</ele><time>2015-03-01T11:03:22Z</time></trkpt><trkpt lat="41.380648" lon="2.183239"><ele>7.861</ele><time>2015-03-01T11:03:28Z</time></trkpt><trkpt lat="41.380562" lon="2.182982"><ele>7.484</ele><time>2015-03-01T11:03:41Z</time></trkpt><trkpt lat="41.380568" lon="2.182914"><ele>7.869</ele><time>2015-03-01T11:03:44Z</time></trkpt><trkpt lat="41.380556" lon="2.182815"><ele>7.440</ele><time>2015-03-01T11:03:49Z</time></trkpt><trkpt lat="41.380527" lon="2.182609"><ele>7.866</ele><time>2015-03-01T11:03:58Z</time></trkpt><trkpt lat="41.380388" lon="2.182417"><ele>8.314</ele><time>2015-03-01T11:04:09Z</time></trkpt><trkpt lat="41.380371" lon="2.182405"><ele>8.354</ele><time>2015-03-01T11:04:10Z</time></trkpt><trkpt lat="41.380211" lon="2.182330"><ele>9.809</ele><time>2015-03-01T11:04:18Z</time></trkpt><trkpt lat="41.379935" lon="2.182325"><ele>9.807</ele><time>2015-03-01T11:04:32Z</time></trkpt><trkpt lat="41.379670" lon="2.182056"><ele>10.259</ele><time>2015-03-01T11:04:47Z</time></trkpt><trkpt lat="41.379401" lon="2.181830"><ele>8.330</ele><time>2015-03-01T11:05:01Z</time></trkpt><trkpt lat="41.379096" lon="2.181595"><ele>8.378</ele><time>2015-03-01T11:05:16Z</time></trkpt><trkpt lat="41.378971" lon="2.181508"><ele>8.371</ele><time>2015-03-01T11:05:22Z</time></trkpt><trkpt lat="41.378780" lon="2.181392"><ele>8.346</ele><time>2015-03-01T11:05:31Z</time></trkpt><trkpt lat="41.378683" lon="2.181325"><ele>8.397</ele><time>2015-03-01T11:05:36Z</time></trkpt><trkpt lat="41.378590" lon="2.181238"><ele>7.833</ele><time>2015-03-01T11:05:42Z</time></trkpt><trkpt lat="41.378317" lon="2.180993"><ele>7.854</ele><time>2015-03-01T11:05:56Z</time></trkpt><trkpt lat="41.378239" lon="2.180787"><ele>7.456</ele><time>2015-03-01T11:06:00Z</time></trkpt><trkpt lat="41.377880" lon="2.180468"><ele>6.911</ele><time>2015-03-01T11:06:13Z</time></trkpt><trkpt lat="41.377572" lon="2.180238"><ele>6.407</ele><time>2015-03-01T11:06:27Z</time></trkpt><trkpt lat="41.377210" lon="2.180067"><ele>7.473</ele><time>2015-03-01T11:06:40Z</time></trkpt><trkpt lat="41.376842" lon="2.179845"><ele>7.484</ele><time>2015-03-01T11:06:54Z</time></trkpt><trkpt lat="41.376417" lon="2.179714"><ele>7.822</ele><time>2015-03-01T11:07:07Z</time></trkpt><trkpt lat="41.376295" lon="2.179637"><ele>7.835</ele><time>2015-03-01T11:07:11Z</time></trkpt><trkpt lat="41.376107" lon="2.179485"><ele>7.830</ele><time>2015-03-01T11:07:19Z</time></trkpt><trkpt lat="41.375847" lon="2.179252"><ele>7.411</ele><time>2015-03-01T11:07:32Z</time></trkpt><trkpt lat="41.375692" lon="2.178914"><ele>7.437</ele><time>2015-03-01T11:07:46Z</time></trkpt><trkpt lat="41.375660" lon="2.178880"><ele>7.448</ele><time>2015-03-01T11:07:48Z</time></trkpt><trkpt lat="41.375636" lon="2.178740"><ele>7.861</ele><time>2015-03-01T11:07:54Z</time></trkpt><trkpt lat="41.375586" lon="2.178640"><ele>8.317</ele><time>2015-03-01T11:07:58Z</time></trkpt><trkpt lat="41.375302" lon="2.178384"><ele>8.307</ele><time>2015-03-01T11:08:12Z</time></trkpt><trkpt lat="41.375016" lon="2.178188"><ele>7.482</ele><time>2015-03-01T11:08:24Z</time></trkpt><trkpt lat="41.374990" lon="2.178014"><ele>7.893</ele><time>2015-03-01T11:08:30Z</time></trkpt><trkpt lat="41.374626" lon="2.177767"><ele>9.821</ele><time>2015-03-01T11:08:47Z</time></trkpt><trkpt lat="41.374295" lon="2.177501"><ele>10.244</ele><time>2015-03-01T11:09:02Z</time></trkpt><trkpt lat="41.374066" lon="2.177263"><ele>10.299</ele><time>2015-03-01T11:09:13Z</time></trkpt><trkpt lat="41.373938" lon="2.177373"><ele>12.650</ele><time>2015-03-01T11:09:21Z</time></trkpt><trkpt lat="41.373680" lon="2.177682"><ele>12.616</ele><time>2015-03-01T11:09:36Z</time></trkpt><trkpt lat="41.373549" lon="2.177793"><ele>13.121</ele><time>2015-03-01T11:09:42Z</time></trkpt><trkpt lat="41.373315" lon="2.177644"><ele>13.641</ele><time>2015-03-01T11:09:55Z</time></trkpt><trkpt lat="41.373000" lon="2.177408"><ele>11.205</ele><time>2015-03-01T11:10:09Z</time></trkpt><trkpt lat="41.372922" lon="2.177336"><ele>10.707</ele><time>2015-03-01T11:10:13Z</time></trkpt><trkpt lat="41.372773" lon="2.176957"><ele>10.210</ele><time>2015-03-01T11:10:29Z</time></trkpt><trkpt lat="41.372403" lon="2.176686"><ele>7.811</ele><time>2015-03-01T11:10:46Z</time></trkpt><trkpt lat="41.372073" lon="2.176394"><ele>7.839</ele><time>2015-03-01T11:11:00Z</time></trkpt><trkpt lat="41.371759" lon="2.176202"><ele>6.982</ele><time>2015-03-01T11:11:13Z</time></trkpt><trkpt lat="41.371614" lon="2.176068"><ele>7.437</ele><time>2015-03-01T11:11:20Z</time></trkpt><trkpt lat="41.371351" lon="2.175843"><ele>7.868</ele><time>2015-03-01T11:11:32Z</time></trkpt><trkpt lat="41.370852" lon="2.175460"><ele>9.364</ele><time>2015-03-01T11:11:53Z</time></trkpt><trkpt lat="41.370459" lon="2.175359"><ele>10.791</ele><time>2015-03-01T11:12:08Z</time></trkpt><trkpt lat="41.370036" lon="2.175290"><ele>11.281</ele><time>2015-03-01T11:12:23Z</time></trkpt><trkpt lat="41.369512" lon="2.175206"><ele>11.219</ele><time>2015-03-01T11:12:37Z</time></trkpt><trkpt lat="41.368857" lon="2.175113"><ele>12.207</ele><time>2015-03-01T11:12:54Z</time></trkpt><trkpt lat="41.368409" lon="2.175052"><ele>12.277</ele><time>2015-03-01T11:13:07Z</time></trkpt><trkpt lat="41.367876" lon="2.175010"><ele>11.738</ele><time>2015-03-01T11:13:22Z</time></trkpt><trkpt lat="41.367548" lon="2.175218"><ele>11.246</ele><time>2015-03-01T11:13:32Z</time></trkpt><trkpt lat="41.367203" lon="2.175348"><ele>10.729</ele><time>2015-03-01T11:13:44Z</time></trkpt><trkpt lat="41.367100" lon="2.175298"><ele>10.224</ele><time>2015-03-01T11:13:49Z</time></trkpt><trkpt lat="41.367031" lon="2.175347"><ele>11.235</ele><time>2015-03-01T11:13:54Z</time></trkpt><trkpt lat="41.366929" lon="2.175667"><ele>12.231</ele><time>2015-03-01T11:14:06Z</time></trkpt><trkpt lat="41.366926" lon="2.175714"><ele>12.627</ele><time>2015-03-01T11:14:09Z</time></trkpt><trkpt lat="41.366936" lon="2.175739"><ele>12.668</ele><time>2015-03-01T11:14:11Z</time></trkpt><trkpt lat="41.367006" lon="2.175779"><ele>10.714</ele><time>2015-03-01T11:14:19Z</time></trkpt><trkpt lat="41.366984" lon="2.175817"><ele>11.207</ele><time>2015-03-01T11:14:21Z</time></trkpt><trkpt lat="41.366885" lon="2.175963"><ele>27.590</ele><time>2015-03-01T11:14:32Z</time></trkpt><trkpt lat="41.366829" lon="2.176078"><ele>39.141</ele><time>2015-03-01T11:14:46Z</time></trkpt><trkpt lat="41.366835" lon="2.176139"><ele>32.339</ele><time>2015-03-01T11:15:14Z</time></trkpt><trkpt lat="41.366814" lon="2.176176"><ele>26.142</ele><time>2015-03-01T11:15:32Z</time></trkpt><trkpt lat="41.366767" lon="2.176294"><ele>26.197</ele><time>2015-03-01T11:15:38Z</time></trkpt><trkpt lat="41.366667" lon="2.176594"><ele>30.498</ele><time>2015-03-01T11:15:51Z</time></trkpt><trkpt lat="41.366522" lon="2.177007"><ele>27.514</ele><time>2015-03-01T11:16:06Z</time></trkpt><trkpt lat="41.366367" lon="2.177540"><ele>18.427</ele><time>2015-03-01T11:16:24Z</time></trkpt><trkpt lat="41.366202" lon="2.178008"><ele>17.468</ele><time>2015-03-01T11:16:42Z</time></trkpt><trkpt lat="41.366052" lon="2.178434"><ele>20.314</ele><time>2015-03-01T11:16:58Z</time></trkpt><trkpt lat="41.365892" lon="2.178889"><ele>23.207</ele><time>2015-03-01T11:17:16Z</time></trkpt><trkpt lat="41.365697" lon="2.179400"><ele>26.110</ele><time>2015-03-01T11:17:36Z</time></trkpt><trkpt lat="41.365546" lon="2.179813"><ele>27.521</ele><time>2015-03-01T11:17:51Z</time></trkpt><trkpt lat="41.365419" lon="2.180184"><ele>27.549</ele><time>2015-03-01T11:18:10Z</time></trkpt><trkpt lat="41.365419" lon="2.180194"><ele>27.542</ele><time>2015-03-01T11:18:36Z</time></trkpt><trkpt lat="41.365423" lon="2.180192"><ele>26.677</ele><time>2015-03-01T11:19:06Z</time></trkpt><trkpt lat="41.365428" lon="2.180192"><ele>22.388</ele><time>2015-03-01T11:19:35Z</time></trkpt><trkpt lat="41.365412" lon="2.180204"><ele>22.314</ele><time>2015-03-01T11:20:05Z</time></trkpt><trkpt lat="41.365411" lon="2.180207"><ele>22.372</ele><time>2015-03-01T11:20:11Z</time></trkpt><trkpt lat="41.365380" lon="2.180290"><ele>22.713</ele><time>2015-03-01T11:20:16Z</time></trkpt><trkpt lat="41.365192" lon="2.180768"><ele>24.714</ele><time>2015-03-01T11:20:33Z</time></trkpt><trkpt lat="41.364987" lon="2.181305"><ele>25.107</ele><time>2015-03-01T11:20:48Z</time></trkpt><trkpt lat="41.364757" lon="2.181928"><ele>23.785</ele><time>2015-03-01T11:21:04Z</time></trkpt><trkpt lat="41.364542" lon="2.182472"><ele>26.116</ele><time>2015-03-01T11:21:19Z</time></trkpt><trkpt lat="41.364114" lon="2.182873"><ele>22.314</ele><time>2015-03-01T11:21:34Z</time></trkpt><trkpt lat="41.363494" lon="2.182861"><ele>17.077</ele><time>2015-03-01T11:21:48Z</time></trkpt><trkpt lat="41.363097" lon="2.182608"><ele>13.672</ele><time>2015-03-01T11:22:01Z</time></trkpt><trkpt lat="41.362872" lon="2.182461"><ele>12.693</ele><time>2015-03-01T11:22:12Z</time></trkpt><trkpt lat="41.362165" lon="2.181997"><ele>9.379</ele><time>2015-03-01T11:22:27Z</time></trkpt><trkpt lat="41.361902" lon="2.181854"><ele>10.236</ele><time>2015-03-01T11:22:35Z</time></trkpt><trkpt lat="41.361867" lon="2.181889"><ele>11.217</ele><time>2015-03-01T11:22:39Z</time></trkpt><trkpt lat="41.361772" lon="2.181887"><ele>11.218</ele><time>2015-03-01T11:22:47Z</time></trkpt><trkpt lat="41.361730" lon="2.181853"><ele>11.207</ele><time>2015-03-01T11:22:50Z</time></trkpt><trkpt lat="41.361625" lon="2.181742"><ele>10.771</ele><time>2015-03-01T11:22:57Z</time></trkpt><trkpt lat="41.361576" lon="2.181790"><ele>12.232</ele><time>2015-03-01T11:23:04Z</time></trkpt><trkpt lat="41.361535" lon="2.181759"><ele>11.710</ele><time>2015-03-01T11:23:08Z</time></trkpt><trkpt lat="41.361527" lon="2.181721"><ele>11.773</ele><time>2015-03-01T11:23:11Z</time></trkpt><trkpt lat="41.361510" lon="2.181702"><ele>11.788</ele><time>2015-03-01T11:23:13Z</time></trkpt><trkpt lat="41.361353" lon="2.181593"><ele>10.719</ele><time>2015-03-01T11:23:25Z</time></trkpt><trkpt lat="41.361263" lon="2.181550"><ele>10.735</ele><time>2015-03-01T11:23:28Z</time></trkpt><trkpt lat="41.360666" lon="2.181193"><ele>9.815</ele><time>2015-03-01T11:23:46Z</time></trkpt><trkpt lat="41.360230" lon="2.180900"><ele>9.365</ele><time>2015-03-01T11:24:00Z</time></trkpt><trkpt lat="41.359566" lon="2.180455"><ele>8.311</ele><time>2015-03-01T11:24:19Z</time></trkpt><trkpt lat="41.358901" lon="2.180052"><ele>6.907</ele><time>2015-03-01T11:24:38Z</time></trkpt><trkpt lat="41.358102" lon="2.179497"><ele>7.879</ele><time>2015-03-01T11:25:01Z</time></trkpt><trkpt lat="41.357743" lon="2.179251"><ele>7.860</ele><time>2015-03-01T11:25:15Z</time></trkpt><trkpt lat="41.357468" lon="2.179066"><ele>8.898</ele><time>2015-03-01T11:25:28Z</time></trkpt><trkpt lat="41.357055" lon="2.178803"><ele>9.351</ele><time>2015-03-01T11:25:43Z</time></trkpt><trkpt lat="41.357017" lon="2.178778"><ele>9.336</ele><time>2015-03-01T11:25:44Z</time></trkpt><trkpt lat="41.356209" lon="2.178283"><ele>9.897</ele><time>2015-03-01T11:26:01Z</time></trkpt><trkpt lat="41.355555" lon="2.177854"><ele>9.823</ele><time>2015-03-01T11:26:16Z</time></trkpt><trkpt lat="41.354968" lon="2.177478"><ele>9.397</ele><time>2015-03-01T11:26:28Z</time></trkpt><trkpt lat="41.354347" lon="2.177061"><ele>9.323</ele><time>2015-03-01T11:26:44Z</time></trkpt><trkpt lat="41.353612" lon="2.176580"><ele>10.225</ele><time>2015-03-01T11:27:04Z</time></trkpt><trkpt lat="41.352982" lon="2.176189"><ele>10.707</ele><time>2015-03-01T11:27:22Z</time></trkpt><trkpt lat="41.352808" lon="2.176076"><ele>10.217</ele><time>2015-03-01T11:27:27Z</time></trkpt><trkpt lat="41.352734" lon="2.176023"><ele>10.248</ele><time>2015-03-01T11:27:29Z</time></trkpt><trkpt lat="41.352645" lon="2.175975"><ele>10.246</ele><time>2015-03-01T11:27:31Z</time></trkpt><trkpt lat="41.352287" lon="2.175767"><ele>9.849</ele><time>2015-03-01T11:27:39Z</time></trkpt><trkpt lat="41.352203" lon="2.175719"><ele>9.334</ele><time>2015-03-01T11:27:41Z</time></trkpt><trkpt lat="41.351889" lon="2.175515"><ele>9.895</ele><time>2015-03-01T11:27:49Z</time></trkpt><trkpt lat="41.351840" lon="2.175599"><ele>10.211</ele><time>2015-03-01T11:27:55Z</time></trkpt><trkpt lat="41.351803" lon="2.175670"><ele>10.796</ele><time>2015-03-01T11:28:06Z</time></trkpt><trkpt lat="41.351796" lon="2.175663"><ele>10.231</ele><time>2015-03-01T11:28:46Z</time></trkpt><trkpt lat="41.351782" lon="2.175614"><ele>15.024</ele><time>2015-03-01T11:29:29Z</time></trkpt><trkpt lat="41.351792" lon="2.175634"><ele>12.607</ele><time>2015-03-01T11:30:04Z</time></trkpt><trkpt lat="41.351783" lon="2.175585"><ele>18.487</ele><time>2015-03-01T11:30:47Z</time></trkpt><trkpt lat="41.351783" lon="2.175582"><ele>21.388</ele><time>2015-03-01T11:31:11Z</time></trkpt><trkpt lat="41.351785" lon="2.175624"><ele>16.516</ele><time>2015-03-01T11:31:50Z</time></trkpt><trkpt lat="41.351796" lon="2.175634"><ele>17.949</ele><time>2015-03-01T11:32:26Z</time></trkpt><trkpt lat="41.351811" lon="2.175653"><ele>14.624</ele><time>2015-03-01T11:33:04Z</time></trkpt><trkpt lat="41.351799" lon="2.175652"><ele>12.255</ele><time>2015-03-01T11:33:36Z</time></trkpt><trkpt lat="41.351795" lon="2.175636"><ele>16.581</ele><time>2015-03-01T11:34:06Z</time></trkpt><trkpt lat="41.351803" lon="2.175657"><ele>14.651</ele><time>2015-03-01T11:34:36Z</time></trkpt><trkpt lat="41.351803" lon="2.175634"><ele>17.901</ele><time>2015-03-01T11:35:09Z</time></trkpt><trkpt lat="41.351804" lon="2.175645"><ele>18.411</ele><time>2015-03-01T11:35:44Z</time></trkpt><trkpt lat="41.351801" lon="2.175648"><ele>17.907</ele><time>2015-03-01T11:36:21Z</time></trkpt><trkpt lat="41.351806" lon="2.175663"><ele>16.063</ele><time>2015-03-01T11:36:47Z</time></trkpt><trkpt lat="41.351796" lon="2.175660"><ele>15.574</ele><time>2015-03-01T11:37:15Z</time></trkpt><trkpt lat="41.351796" lon="2.175665"><ele>13.192</ele><time>2015-03-01T11:37:45Z</time></trkpt><trkpt lat="41.351802" lon="2.175659"><ele>12.245</ele><time>2015-03-01T11:38:24Z</time></trkpt><trkpt lat="41.351807" lon="2.175653"><ele>11.230</ele><time>2015-03-01T11:39:02Z</time></trkpt><trkpt lat="41.351795" lon="2.175650"><ele>9.871</ele><time>2015-03-01T11:39:41Z</time></trkpt><trkpt lat="41.351793" lon="2.175656"><ele>9.847</ele><time>2015-03-01T11:40:15Z</time></trkpt><trkpt lat="41.351801" lon="2.175660"><ele>9.316</ele><time>2015-03-01T11:40:38Z</time></trkpt><trkpt lat="41.351799" lon="2.175666"><ele>9.876</ele><time>2015-03-01T11:40:55Z</time></trkpt><trkpt lat="41.351950" lon="2.175576"><ele>8.813</ele><time>2015-03-01T11:41:06Z</time></trkpt><trkpt lat="41.352016" lon="2.175587"><ele>8.807</ele><time>2015-03-01T11:41:09Z</time></trkpt><trkpt lat="41.352440" lon="2.175855"><ele>7.889</ele><time>2015-03-01T11:41:27Z</time></trkpt><trkpt lat="41.352919" lon="2.176154"><ele>8.380</ele><time>2015-03-01T11:41:47Z</time></trkpt><trkpt lat="41.353311" lon="2.176396"><ele>8.318</ele><time>2015-03-01T11:42:03Z</time></trkpt><trkpt lat="41.353825" lon="2.176724"><ele>7.441</ele><time>2015-03-01T11:42:24Z</time></trkpt><trkpt lat="41.354267" lon="2.177031"><ele>6.956</ele><time>2015-03-01T11:42:43Z</time></trkpt><trkpt lat="41.354739" lon="2.177346"><ele>6.947</ele><time>2015-03-01T11:43:03Z</time></trkpt><trkpt lat="41.355238" lon="2.177668"><ele>6.423</ele><time>2015-03-01T11:43:24Z</time></trkpt><trkpt lat="41.355647" lon="2.177934"><ele>5.928</ele><time>2015-03-01T11:43:41Z</time></trkpt><trkpt lat="41.356153" lon="2.178254"><ele>5.989</ele><time>2015-03-01T11:44:01Z</time></trkpt><trkpt lat="41.356587" lon="2.178542"><ele>6.917</ele><time>2015-03-01T11:44:19Z</time></trkpt><trkpt lat="41.356971" lon="2.178783"><ele>6.907</ele><time>2015-03-01T11:44:36Z</time></trkpt><trkpt lat="41.357225" lon="2.178922"><ele>6.970</ele><time>2015-03-01T11:44:53Z</time></trkpt><trkpt lat="41.357477" lon="2.179102"><ele>7.411</ele><time>2015-03-01T11:45:07Z</time></trkpt><trkpt lat="41.357798" lon="2.179291"><ele>6.969</ele><time>2015-03-01T11:45:24Z</time></trkpt><trkpt lat="41.357990" lon="2.179436"><ele>5.972</ele><time>2015-03-01T11:45:30Z</time></trkpt><trkpt lat="41.358099" lon="2.179532"><ele>5.447</ele><time>2015-03-01T11:45:33Z</time></trkpt><trkpt lat="41.358362" lon="2.179718"><ele>4.528</ele><time>2015-03-01T11:45:43Z</time></trkpt><trkpt lat="41.359079" lon="2.180194"><ele>4.014</ele><time>2015-03-01T11:46:00Z</time></trkpt><trkpt lat="41.359849" lon="2.180684"><ele>4.086</ele><time>2015-03-01T11:46:17Z</time></trkpt><trkpt lat="41.360284" lon="2.180949"><ele>4.560</ele><time>2015-03-01T11:46:28Z</time></trkpt><trkpt lat="41.360410" lon="2.181065"><ele>4.526</ele><time>2015-03-01T11:46:33Z</time></trkpt><trkpt lat="41.360828" lon="2.181296"><ele>4.907</ele><time>2015-03-01T11:46:49Z</time></trkpt><trkpt lat="41.361285" lon="2.181638"><ele>4.086</ele><time>2015-03-01T11:47:00Z</time></trkpt><trkpt lat="41.361547" lon="2.181817"><ele>4.527</ele><time>2015-03-01T11:47:11Z</time></trkpt><trkpt lat="41.361562" lon="2.181834"><ele>4.525</ele><time>2015-03-01T11:47:12Z</time></trkpt><trkpt lat="41.361610" lon="2.181859"><ele>4.038</ele><time>2015-03-01T11:47:18Z</time></trkpt><trkpt lat="41.361809" lon="2.181979"><ele>4.513</ele><time>2015-03-01T11:47:33Z</time></trkpt><trkpt lat="41.361869" lon="2.181931"><ele>4.584</ele><time>2015-03-01T11:47:38Z</time></trkpt><trkpt lat="41.361875" lon="2.181908"><ele>4.030</ele><time>2015-03-01T11:47:53Z</time></trkpt><trkpt lat="41.361889" lon="2.181900"><ele>4.074</ele><time>2015-03-01T11:48:19Z</time></trkpt><trkpt lat="41.362032" lon="2.181942"><ele>4.556</ele><time>2015-03-01T11:48:29Z</time></trkpt><trkpt lat="41.362368" lon="2.182147"><ele>7.421</ele><time>2015-03-01T11:48:47Z</time></trkpt><trkpt lat="41.362672" lon="2.182337"><ele>9.307</ele><time>2015-03-01T11:49:04Z</time></trkpt><trkpt lat="41.363019" lon="2.182564"><ele>11.295</ele><time>2015-03-01T11:49:23Z</time></trkpt><trkpt lat="41.363379" lon="2.182802"><ele>14.686</ele><time>2015-03-01T11:49:42Z</time></trkpt><trkpt lat="41.363817" lon="2.182955"><ele>17.034</ele><time>2015-03-01T11:50:03Z</time></trkpt><trkpt lat="41.364147" lon="2.182885"><ele>17.077</ele><time>2015-03-01T11:50:18Z</time></trkpt><trkpt lat="41.364450" lon="2.182640"><ele>18.962</ele><time>2015-03-01T11:50:33Z</time></trkpt><trkpt lat="41.364715" lon="2.182115"><ele>18.973</ele><time>2015-03-01T11:50:51Z</time></trkpt><trkpt lat="41.364989" lon="2.181367"><ele>18.939</ele><time>2015-03-01T11:51:09Z</time></trkpt><trkpt lat="41.365288" lon="2.180524"><ele>20.321</ele><time>2015-03-01T11:51:27Z</time></trkpt><trkpt lat="41.365635" lon="2.179600"><ele>17.941</ele><time>2015-03-01T11:51:44Z</time></trkpt><trkpt lat="41.366042" lon="2.178469"><ele>11.205</ele><time>2015-03-01T11:52:00Z</time></trkpt><trkpt lat="41.366420" lon="2.177420"><ele>4.507</ele><time>2015-03-01T11:52:14Z</time></trkpt><trkpt lat="41.366645" lon="2.176810"><ele>1.660</ele><time>2015-03-01T11:52:28Z</time></trkpt><trkpt lat="41.366951" lon="2.176000"><ele>-1.891</ele><time>2015-03-01T11:52:44Z</time></trkpt><trkpt lat="41.367251" lon="2.175416"><ele>-0.899</ele><time>2015-03-01T11:52:58Z</time></trkpt><trkpt lat="41.367327" lon="2.175399"><ele>-0.852</ele><time>2015-03-01T11:53:01Z</time></trkpt><trkpt lat="41.367340" lon="2.175452"><ele>-0.887</ele><time>2015-03-01T11:53:09Z</time></trkpt><trkpt lat="41.367330" lon="2.175447"><ele>-1.878</ele><time>2015-03-01T11:53:20Z</time></trkpt><trkpt lat="41.367302" lon="2.175432"><ele>-2.354</ele><time>2015-03-01T11:53:23Z</time></trkpt><trkpt lat="41.367392" lon="2.175386"><ele>-1.391</ele><time>2015-03-01T11:53:32Z</time></trkpt><trkpt lat="41.367580" lon="2.175127"><ele>-0.881</ele><time>2015-03-01T11:53:46Z</time></trkpt><trkpt lat="41.367523" lon="2.175183"><ele>-1.319</ele><time>2015-03-01T11:53:54Z</time></trkpt><trkpt lat="41.367415" lon="2.175313"><ele>-0.807</ele><time>2015-03-01T11:54:01Z</time></trkpt><trkpt lat="41.367337" lon="2.175348"><ele>-0.897</ele><time>2015-03-01T11:54:05Z</time></trkpt><trkpt lat="41.367343" lon="2.175444"><ele>-1.828</ele><time>2015-03-01T11:54:14Z</time></trkpt><trkpt lat="41.367327" lon="2.175462"><ele>-2.776</ele><time>2015-03-01T11:54:41Z</time></trkpt><trkpt lat="41.367337" lon="2.175476"><ele>-5.199</ele><time>2015-03-01T11:55:14Z</time></trkpt><trkpt lat="41.367332" lon="2.175480"><ele>-7.144</ele><time>2015-03-01T11:55:50Z</time></trkpt><trkpt lat="41.367324" lon="2.175483"><ele>-6.175</ele><time>2015-03-01T11:56:24Z</time></trkpt><trkpt lat="41.367328" lon="2.175457"><ele>-4.291</ele><time>2015-03-01T11:56:49Z</time></trkpt><trkpt lat="41.367343" lon="2.175442"><ele>-4.295</ele><time>2015-03-01T11:56:51Z</time></trkpt><trkpt lat="41.367391" lon="2.175354"><ele>-3.749</ele><time>2015-03-01T11:56:56Z</time></trkpt><trkpt lat="41.367708" lon="2.175029"><ele>-1.323</ele><time>2015-03-01T11:57:11Z</time></trkpt><trkpt lat="41.367788" lon="2.175021"><ele>-1.307</ele><time>2015-03-01T11:57:14Z</time></trkpt><trkpt lat="41.367939" lon="2.175051"><ele>-1.357</ele><time>2015-03-01T11:57:19Z</time></trkpt><trkpt lat="41.368463" lon="2.175126"><ele>-0.818</ele><time>2015-03-01T11:57:36Z</time></trkpt><trkpt lat="41.368857" lon="2.175172"><ele>-0.346</ele><time>2015-03-01T11:57:50Z</time></trkpt><trkpt lat="41.369162" lon="2.175225"><ele>-0.399</ele><time>2015-03-01T11:58:03Z</time></trkpt><trkpt lat="41.369680" lon="2.175296"><ele>0.164</ele><time>2015-03-01T11:58:18Z</time></trkpt><trkpt lat="41.370185" lon="2.175372"><ele>0.655</ele><time>2015-03-01T11:58:32Z</time></trkpt><trkpt lat="41.370642" lon="2.175418"><ele>0.681</ele><time>2015-03-01T11:58:46Z</time></trkpt><trkpt lat="41.371094" lon="2.175660"><ele>0.135</ele><time>2015-03-01T11:59:00Z</time></trkpt><trkpt lat="41.371481" lon="2.175978"><ele>0.686</ele><time>2015-03-01T11:59:12Z</time></trkpt><trkpt lat="41.371832" lon="2.176245"><ele>1.114</ele><time>2015-03-01T11:59:24Z</time></trkpt><trkpt lat="41.372246" lon="2.176589"><ele>-0.807</ele><time>2015-03-01T11:59:40Z</time></trkpt><trkpt lat="41.372801" lon="2.177031"><ele>0.161</ele><time>2015-03-01T12:00:01Z</time></trkpt><trkpt lat="41.372851" lon="2.177236"><ele>-0.872</ele><time>2015-03-01T12:00:06Z</time></trkpt><trkpt lat="41.372921" lon="2.177203"><ele>-0.890</ele><time>2015-03-01T12:00:11Z</time></trkpt><trkpt lat="41.372928" lon="2.177041"><ele>-0.363</ele><time>2015-03-01T12:00:16Z</time></trkpt><trkpt lat="41.372888" lon="2.177095"><ele>0.178</ele><time>2015-03-01T12:00:24Z</time></trkpt><trkpt lat="41.372822" lon="2.177264"><ele>0.139</ele><time>2015-03-01T12:00:35Z</time></trkpt><trkpt lat="41.372844" lon="2.177223"><ele>0.175</ele><time>2015-03-01T12:00:43Z</time></trkpt><trkpt lat="41.372927" lon="2.177395"><ele>-0.388</ele><time>2015-03-01T12:00:50Z</time></trkpt><trkpt lat="41.372948" lon="2.177416"><ele>0.124</ele><time>2015-03-01T12:00:51Z</time></trkpt><trkpt lat="41.373103" lon="2.177559"><ele>-0.326</ele><time>2015-03-01T12:00:59Z</time></trkpt><trkpt lat="41.373312" lon="2.177722"><ele>-0.307</ele><time>2015-03-01T12:01:10Z</time></trkpt><trkpt lat="41.373383" lon="2.177785"><ele>-0.846</ele><time>2015-03-01T12:01:13Z</time></trkpt><trkpt lat="41.373701" lon="2.177800"><ele>-1.377</ele><time>2015-03-01T12:01:25Z</time></trkpt><trkpt lat="41.373955" lon="2.177390"><ele>0.675</ele><time>2015-03-01T12:01:43Z</time></trkpt><trkpt lat="41.374055" lon="2.177442"><ele>0.618</ele><time>2015-03-01T12:01:50Z</time></trkpt><trkpt lat="41.374356" lon="2.177684"><ele>0.133</ele><time>2015-03-01T12:02:05Z</time></trkpt><trkpt lat="41.374831" lon="2.178043"><ele>2.124</ele><time>2015-03-01T12:02:27Z</time></trkpt><trkpt lat="41.374981" lon="2.178162"><ele>1.660</ele><time>2015-03-01T12:02:36Z</time></trkpt><trkpt lat="41.375048" lon="2.178078"><ele>1.148</ele><time>2015-03-01T12:02:42Z</time></trkpt><trkpt lat="41.375188" lon="2.177799"><ele>3.061</ele><time>2015-03-01T12:02:53Z</time></trkpt><trkpt lat="41.375287" lon="2.177836"><ele>3.517</ele><time>2015-03-01T12:02:59Z</time></trkpt><trkpt lat="41.375553" lon="2.178121"><ele>3.507</ele><time>2015-03-01T12:03:13Z</time></trkpt><trkpt lat="41.375612" lon="2.178177"><ele>3.552</ele><time>2015-03-01T12:03:16Z</time></trkpt><trkpt lat="41.375683" lon="2.178228"><ele>3.083</ele><time>2015-03-01T12:03:20Z</time></trkpt><trkpt lat="41.375899" lon="2.178348"><ele>3.591</ele><time>2015-03-01T12:03:30Z</time></trkpt><trkpt lat="41.376128" lon="2.178418"><ele>3.034</ele><time>2015-03-01T12:03:40Z</time></trkpt><trkpt lat="41.376216" lon="2.178418"><ele>3.099</ele><time>2015-03-01T12:03:45Z</time></trkpt><trkpt lat="41.376465" lon="2.178681"><ele>3.020</ele><time>2015-03-01T12:04:04Z</time></trkpt><trkpt lat="41.376483" lon="2.178715"><ele>3.546</ele><time>2015-03-01T12:04:06Z</time></trkpt><trkpt lat="41.376603" lon="2.178823"><ele>4.563</ele><time>2015-03-01T12:04:16Z</time></trkpt><trkpt lat="41.376888" lon="2.179006"><ele>4.944</ele><time>2015-03-01T12:04:28Z</time></trkpt><trkpt lat="41.377262" lon="2.179272"><ele>4.518</ele><time>2015-03-01T12:04:39Z</time></trkpt><trkpt lat="41.377626" lon="2.179578"><ele>4.907</ele><time>2015-03-01T12:04:55Z</time></trkpt><trkpt lat="41.377982" lon="2.179864"><ele>4.964</ele><time>2015-03-01T12:05:09Z</time></trkpt><trkpt lat="41.378509" lon="2.180296"><ele>4.555</ele><time>2015-03-01T12:05:26Z</time></trkpt><trkpt lat="41.379173" lon="2.180830"><ele>4.543</ele><time>2015-03-01T12:05:46Z</time></trkpt><trkpt lat="41.379722" lon="2.181271"><ele>3.586</ele><time>2015-03-01T12:06:03Z</time></trkpt><trkpt lat="41.380333" lon="2.181776"><ele>3.031</ele><time>2015-03-01T12:06:23Z</time></trkpt><trkpt lat="41.380813" lon="2.182131"><ele>2.172</ele><time>2015-03-01T12:06:36Z</time></trkpt><trkpt lat="41.380992" lon="2.182329"><ele>1.658</ele><time>2015-03-01T12:06:42Z</time></trkpt><trkpt lat="41.381104" lon="2.182390"><ele>1.138</ele><time>2015-03-01T12:06:51Z</time></trkpt><trkpt lat="41.381111" lon="2.182398"><ele>1.170</ele><time>2015-03-01T12:06:57Z</time></trkpt><trkpt lat="41.381236" lon="2.182546"><ele>0.117</ele><time>2015-03-01T12:07:07Z</time></trkpt><trkpt lat="41.381187" lon="2.182625"><ele>1.107</ele><time>2015-03-01T12:07:16Z</time></trkpt><trkpt lat="41.381177" lon="2.182639"><ele>1.191</ele><time>2015-03-01T12:07:42Z</time></trkpt><trkpt lat="41.381190" lon="2.182647"><ele>2.182</ele><time>2015-03-01T12:08:01Z</time></trkpt><trkpt lat="41.381204" lon="2.182663"><ele>-4.260</ele><time>2015-03-01T12:08:35Z</time></trkpt><trkpt lat="41.381217" lon="2.182676"><ele>-4.233</ele><time>2015-03-01T12:09:00Z</time></trkpt><trkpt lat="41.381216" lon="2.182682"><ele>-4.228</ele><time>2015-03-01T12:09:03Z</time></trkpt><trkpt lat="41.381195" lon="2.182855"><ele>-3.269</ele><time>2015-03-01T12:09:10Z</time></trkpt><trkpt lat="41.381202" lon="2.183410"><ele>-2.775</ele><time>2015-03-01T12:09:26Z</time></trkpt><trkpt lat="41.381322" lon="2.184170"><ele>-1.847</ele><time>2015-03-01T12:09:45Z</time></trkpt><trkpt lat="41.381588" lon="2.184407"><ele>0.129</ele><time>2015-03-01T12:09:56Z</time></trkpt><trkpt lat="41.381832" lon="2.184749"><ele>1.121</ele><time>2015-03-01T12:10:09Z</time></trkpt><trkpt lat="41.381858" lon="2.184791"><ele>0.607</ele><time>2015-03-01T12:10:12Z</time></trkpt><trkpt lat="41.381913" lon="2.184878"><ele>0.112</ele><time>2015-03-01T12:10:17Z</time></trkpt><trkpt lat="41.382069" lon="2.185208"><ele>1.663</ele><time>2015-03-01T12:10:30Z</time></trkpt><trkpt lat="41.382237" lon="2.185440"><ele>2.521</ele><time>2015-03-01T12:10:44Z</time></trkpt><trkpt lat="41.382276" lon="2.185467"><ele>1.694</ele><time>2015-03-01T12:11:06Z</time></trkpt><trkpt lat="41.382242" lon="2.185437"><ele>4.039</ele><time>2015-03-01T12:11:36Z</time></trkpt><trkpt lat="41.382245" lon="2.185446"><ele>1.690</ele><time>2015-03-01T12:12:03Z</time></trkpt><trkpt lat="41.382297" lon="2.185554"><ele>-0.376</ele><time>2015-03-01T12:12:20Z</time></trkpt><trkpt lat="41.382445" lon="2.185812"><ele>-1.899</ele><time>2015-03-01T12:12:32Z</time></trkpt><trkpt lat="41.382464" lon="2.185841"><ele>-2.707</ele><time>2015-03-01T12:12:34Z</time></trkpt><trkpt lat="41.382467" lon="2.185937"><ele>-2.327</ele><time>2015-03-01T12:12:38Z</time></trkpt><trkpt lat="41.382550" lon="2.186230"><ele>-0.307</ele><time>2015-03-01T12:12:48Z</time></trkpt><trkpt lat="41.382559" lon="2.186256"><ele>0.177</ele><time>2015-03-01T12:12:49Z</time></trkpt><trkpt lat="41.382631" lon="2.186350"><ele>2.538</ele><time>2015-03-01T12:12:54Z</time></trkpt><trkpt lat="41.382652" lon="2.186409"><ele>3.066</ele><time>2015-03-01T12:12:56Z</time></trkpt><trkpt lat="41.382730" lon="2.186547"><ele>2.159</ele><time>2015-03-01T12:13:01Z</time></trkpt><trkpt lat="41.382932" lon="2.187121"><ele>2.514</ele><time>2015-03-01T12:13:17Z</time></trkpt><trkpt lat="41.383118" lon="2.187564"><ele>2.555</ele><time>2015-03-01T12:13:29Z</time></trkpt><trkpt lat="41.383358" lon="2.188109"><ele>1.691</ele><time>2015-03-01T12:13:42Z</time></trkpt><trkpt lat="41.383678" lon="2.188814"><ele>1.172</ele><time>2015-03-01T12:13:57Z</time></trkpt><trkpt lat="41.384071" lon="2.189635"><ele>1.613</ele><time>2015-03-01T12:14:15Z</time></trkpt><trkpt lat="41.384359" lon="2.190258"><ele>1.614</ele><time>2015-03-01T12:14:30Z</time></trkpt><trkpt lat="41.384546" lon="2.190625"><ele>2.507</ele><time>2015-03-01T12:14:40Z</time></trkpt><trkpt lat="41.384810" lon="2.191177"><ele>4.015</ele><time>2015-03-01T12:14:55Z</time></trkpt><trkpt lat="41.385077" lon="2.191685"><ele>4.056</ele><time>2015-03-01T12:15:10Z</time></trkpt><trkpt lat="41.385318" lon="2.192136"><ele>3.094</ele><time>2015-03-01T12:15:24Z</time></trkpt><trkpt lat="41.385622" lon="2.192634"><ele>3.587</ele><time>2015-03-01T12:15:40Z</time></trkpt><trkpt lat="41.385959" lon="2.193118"><ele>4.042</ele><time>2015-03-01T12:15:55Z</time></trkpt><trkpt lat="41.386311" lon="2.193595"><ele>4.953</ele><time>2015-03-01T12:16:10Z</time></trkpt><trkpt lat="41.386668" lon="2.194059"><ele>4.959</ele><time>2015-03-01T12:16:25Z</time></trkpt><trkpt lat="41.387001" lon="2.194358"><ele>6.965</ele><time>2015-03-01T12:16:38Z</time></trkpt><trkpt lat="41.387271" lon="2.194583"><ele>14.668</ele><time>2015-03-01T12:16:49Z</time></trkpt><trkpt lat="41.387362" lon="2.194690"><ele>17.014</ele><time>2015-03-01T12:16:54Z</time></trkpt><trkpt lat="41.387495" lon="2.194877"><ele>19.807</ele><time>2015-03-01T12:17:06Z</time></trkpt><trkpt lat="41.387660" lon="2.195111"><ele>19.464</ele><time>2015-03-01T12:17:20Z</time></trkpt><trkpt lat="41.387742" lon="2.195247"><ele>18.955</ele><time>2015-03-01T12:17:29Z</time></trkpt><trkpt lat="41.387792" lon="2.195331"><ele>18.923</ele><time>2015-03-01T12:17:44Z</time></trkpt><trkpt lat="41.387800" lon="2.195308"><ele>22.796</ele><time>2015-03-01T12:18:08Z</time></trkpt><trkpt lat="41.388025" lon="2.195644"><ele>18.931</ele><time>2015-03-01T12:18:22Z</time></trkpt><trkpt lat="41.388073" lon="2.195648"><ele>14.122</ele><time>2015-03-01T12:18:34Z</time></trkpt><trkpt lat="41.388109" lon="2.195693"><ele>9.338</ele><time>2015-03-01T12:18:57Z</time></trkpt><trkpt lat="41.388166" lon="2.195768"><ele>8.888</ele><time>2015-03-01T12:19:02Z</time></trkpt><trkpt lat="41.388374" lon="2.196058"><ele>8.824</ele><time>2015-03-01T12:19:15Z</time></trkpt><trkpt lat="41.388722" lon="2.196481"><ele>8.326</ele><time>2015-03-01T12:19:29Z</time></trkpt><trkpt lat="41.388945" lon="2.196773"><ele>5.407</ele><time>2015-03-01T12:19:41Z</time></trkpt><trkpt lat="41.389177" lon="2.197112"><ele>6.986</ele><time>2015-03-01T12:19:54Z</time></trkpt><trkpt lat="41.389402" lon="2.197407"><ele>7.457</ele><time>2015-03-01T12:20:08Z</time></trkpt><trkpt lat="41.389554" lon="2.197601"><ele>7.825</ele><time>2015-03-01T12:20:20Z</time></trkpt><trkpt lat="41.389693" lon="2.197819"><ele>5.938</ele><time>2015-03-01T12:20:35Z</time></trkpt><trkpt lat="41.389807" lon="2.197940"><ele>4.933</ele><time>2015-03-01T12:20:50Z</time></trkpt><trkpt lat="41.389837" lon="2.198006"><ele>4.914</ele><time>2015-03-01T12:21:01Z</time></trkpt><trkpt lat="41.389968" lon="2.198178"><ele>7.450</ele><time>2015-03-01T12:21:11Z</time></trkpt><trkpt lat="41.390176" lon="2.198478"><ele>9.343</ele><time>2015-03-01T12:21:25Z</time></trkpt><trkpt lat="41.390430" lon="2.198822"><ele>9.364</ele><time>2015-03-01T12:21:39Z</time></trkpt><trkpt lat="41.390705" lon="2.199196"><ele>7.810</ele><time>2015-03-01T12:21:54Z</time></trkpt><trkpt lat="41.390905" lon="2.199440"><ele>6.907</ele><time>2015-03-01T12:22:05Z</time></trkpt><trkpt lat="41.391159" lon="2.199771"><ele>6.462</ele><time>2015-03-01T12:22:18Z</time></trkpt><trkpt lat="41.391438" lon="2.200134"><ele>4.553</ele><time>2015-03-01T12:22:33Z</time></trkpt><trkpt lat="41.391668" lon="2.200463"><ele>3.091</ele><time>2015-03-01T12:22:48Z</time></trkpt><trkpt lat="41.391839" lon="2.200693"><ele>5.914</ele><time>2015-03-01T12:22:59Z</time></trkpt><trkpt lat="41.392008" lon="2.200923"><ele>6.949</ele><time>2015-03-01T12:23:08Z</time></trkpt><trkpt lat="41.392255" lon="2.201402"><ele>8.390</ele><time>2015-03-01T12:23:24Z</time></trkpt><trkpt lat="41.392413" lon="2.201598"><ele>6.456</ele><time>2015-03-01T12:23:32Z</time></trkpt><trkpt lat="41.392488" lon="2.201721"><ele>5.936</ele><time>2015-03-01T12:23:37Z</time></trkpt><trkpt lat="41.392782" lon="2.202067"><ele>5.917</ele><time>2015-03-01T12:23:53Z</time></trkpt><trkpt lat="41.393029" lon="2.202434"><ele>4.518</ele><time>2015-03-01T12:24:07Z</time></trkpt><trkpt lat="41.393155" lon="2.202628"><ele>4.007</ele><time>2015-03-01T12:24:15Z</time></trkpt><trkpt lat="41.393357" lon="2.202823"><ele>4.541</ele><time>2015-03-01T12:24:28Z</time></trkpt><trkpt lat="41.393372" lon="2.202841"><ele>4.592</ele><time>2015-03-01T12:24:29Z</time></trkpt><trkpt lat="41.393643" lon="2.203225"><ele>4.560</ele><time>2015-03-01T12:24:46Z</time></trkpt><trkpt lat="41.393958" lon="2.203595"><ele>4.543</ele><time>2015-03-01T12:25:04Z</time></trkpt><trkpt lat="41.394269" lon="2.203997"><ele>2.588</ele><time>2015-03-01T12:25:20Z</time></trkpt><trkpt lat="41.394708" lon="2.204428"><ele>1.129</ele><time>2015-03-01T12:25:34Z</time></trkpt><trkpt lat="41.394946" lon="2.204665"><ele>-0.875</ele><time>2015-03-01T12:25:45Z</time></trkpt><trkpt lat="41.395141" lon="2.205135"><ele>1.149</ele><time>2015-03-01T12:25:59Z</time></trkpt><trkpt lat="41.395349" lon="2.205426"><ele>1.102</ele><time>2015-03-01T12:26:10Z</time></trkpt><trkpt lat="41.395671" lon="2.205868"><ele>0.622</ele><time>2015-03-01T12:26:25Z</time></trkpt><trkpt lat="41.395851" lon="2.206101"><ele>0.107</ele><time>2015-03-01T12:26:37Z</time></trkpt><trkpt lat="41.396061" lon="2.206405"><ele>0.632</ele><time>2015-03-01T12:26:49Z</time></trkpt><trkpt lat="41.396271" lon="2.206744"><ele>0.683</ele><time>2015-03-01T12:27:02Z</time></trkpt><trkpt lat="41.396343" lon="2.206903"><ele>2.171</ele><time>2015-03-01T12:27:16Z</time></trkpt><trkpt lat="41.396434" lon="2.207080"><ele>3.544</ele><time>2015-03-01T12:27:29Z</time></trkpt><trkpt lat="41.396543" lon="2.207472"><ele>4.039</ele><time>2015-03-01T12:27:42Z</time></trkpt><trkpt lat="41.396763" lon="2.207793"><ele>4.010</ele><time>2015-03-01T12:27:58Z</time></trkpt><trkpt lat="41.397157" lon="2.208008"><ele>2.576</ele><time>2015-03-01T12:28:16Z</time></trkpt><trkpt lat="41.397653" lon="2.208086"><ele>-0.335</ele><time>2015-03-01T12:28:33Z</time></trkpt><trkpt lat="41.398119" lon="2.208154"><ele>-2.386</ele><time>2015-03-01T12:28:47Z</time></trkpt><trkpt lat="41.398587" lon="2.208229"><ele>0.114</ele><time>2015-03-01T12:29:01Z</time></trkpt><trkpt lat="41.398621" lon="2.208234"><ele>0.607</ele><time>2015-03-01T12:29:02Z</time></trkpt><trkpt lat="41.399026" lon="2.208533"><ele>4.581</ele><time>2015-03-01T12:29:16Z</time></trkpt><trkpt lat="41.399135" lon="2.208516"><ele>4.942</ele><time>2015-03-01T12:29:27Z</time></trkpt><trkpt lat="41.399155" lon="2.208518"><ele>5.460</ele><time>2015-03-01T12:29:35Z</time></trkpt><trkpt lat="41.399329" lon="2.208766"><ele>6.433</ele><time>2015-03-01T12:29:48Z</time></trkpt><trkpt lat="41.399495" lon="2.209052"><ele>6.478</ele><time>2015-03-01T12:30:00Z</time></trkpt><trkpt lat="41.399580" lon="2.209380"><ele>6.919</ele><time>2015-03-01T12:30:12Z</time></trkpt><trkpt lat="41.399981" lon="2.209883"><ele>5.455</ele><time>2015-03-01T12:30:24Z</time></trkpt><trkpt lat="41.400599" lon="2.210608"><ele>4.536</ele><time>2015-03-01T12:30:40Z</time></trkpt><trkpt lat="41.400713" lon="2.210744"><ele>4.017</ele><time>2015-03-01T12:30:43Z</time></trkpt><trkpt lat="41.400938" lon="2.211050"><ele>3.518</ele><time>2015-03-01T12:30:52Z</time></trkpt><trkpt lat="41.401287" lon="2.211474"><ele>3.007</ele><time>2015-03-01T12:31:05Z</time></trkpt><trkpt lat="41.401521" lon="2.211782"><ele>4.541</ele><time>2015-03-01T12:31:15Z</time></trkpt><trkpt lat="41.401707" lon="2.211572"><ele>3.092</ele><time>2015-03-01T12:31:23Z</time></trkpt><trkpt lat="41.401779" lon="2.211566"><ele>2.520</ele><time>2015-03-01T12:31:26Z</time></trkpt><trkpt lat="41.401822" lon="2.211687"><ele>3.063</ele><time>2015-03-01T12:31:30Z</time></trkpt><trkpt lat="41.401666" lon="2.211939"><ele>5.448</ele><time>2015-03-01T12:31:39Z</time></trkpt><trkpt lat="41.401723" lon="2.212104"><ele>5.919</ele><time>2015-03-01T12:31:46Z</time></trkpt><trkpt lat="41.402156" lon="2.212680"><ele>4.015</ele><time>2015-03-01T12:31:58Z</time></trkpt><trkpt lat="41.402773" lon="2.213507"><ele>4.042</ele><time>2015-03-01T12:32:15Z</time></trkpt><trkpt lat="41.403052" lon="2.213799"><ele>4.022</ele><time>2015-03-01T12:32:25Z</time></trkpt><trkpt lat="41.403185" lon="2.213912"><ele>4.514</ele><time>2015-03-01T12:32:29Z</time></trkpt><trkpt lat="41.403508" lon="2.214353"><ele>4.007</ele><time>2015-03-01T12:32:42Z</time></trkpt><trkpt lat="41.403655" lon="2.214527"><ele>4.532</ele><time>2015-03-01T12:32:49Z</time></trkpt><trkpt lat="41.403815" lon="2.214429"><ele>4.963</ele><time>2015-03-01T12:32:55Z</time></trkpt><trkpt lat="41.403922" lon="2.214510"><ele>4.521</ele><time>2015-03-01T12:32:59Z</time></trkpt><trkpt lat="41.404126" lon="2.214772"><ele>4.994</ele><time>2015-03-01T12:33:07Z</time></trkpt><trkpt lat="41.404211" lon="2.214738"><ele>4.919</ele><time>2015-03-01T12:33:15Z</time></trkpt><trkpt lat="41.404217" lon="2.214724"><ele>4.960</ele><time>2015-03-01T12:33:19Z</time></trkpt><trkpt lat="41.404313" lon="2.214663"><ele>4.526</ele><time>2015-03-01T12:33:24Z</time></trkpt><trkpt lat="41.404491" lon="2.214609"><ele>6.411</ele><time>2015-03-01T12:33:32Z</time></trkpt><trkpt lat="41.404710" lon="2.214378"><ele>10.221</ele><time>2015-03-01T12:33:45Z</time></trkpt><trkpt lat="41.404780" lon="2.214343"><ele>8.803</ele><time>2015-03-01T12:34:12Z</time></trkpt><trkpt lat="41.404781" lon="2.214367"><ele>8.807</ele><time>2015-03-01T12:34:16Z</time></trkpt></trkseg></trk></gpx>