<gpx xmlns="http://www.topografix.com/GPX/1/1" xmlns:xsi="http://www.w3.org/2001/XMLSchema-instance" xsi:schemaLocation="http://www.topografix.com/GPX/1/1 http://www.topografix.com/GPX/1/1/gpx.xsd" version="1.1" creator="OpenLayers"><trk><name>Camping Izarpe_MTB_Ruta 1_Senderos de Atetz</name><trkseg><trkpt lat="42.93744564056396" lon="-1.6928815841674805"><ele>552.53997803</ele></trkpt><trkpt lat="42.93763875961304" lon="-1.6896629333496043"><ele>549.61999512</ele></trkpt><trkpt lat="42.937617301940904" lon="-1.6892123222351103"><ele>549.71002197</ele></trkpt><trkpt lat="42.93759584426879" lon="-1.6889548301696768"><ele>549.88000488</ele></trkpt><trkpt lat="42.93755292892455" lon="-1.6887402534484885"><ele>550</ele></trkpt><trkpt lat="42.9374885559082" lon="-1.688504219055182"><ele>549.94000244</ele></trkpt><trkpt lat="42.93684482574463" lon="-1.6867661476135176"><ele>548.71002197</ele></trkpt><trkpt lat="42.93670400977136" lon="-1.6864219028502776"><ele>548.14001465</ele></trkpt><trkpt lat="42.93665170669555" lon="-1.6862940788269118"><ele>547.9699707</ele></trkpt><trkpt lat="42.936522960662835" lon="-1.686036586761477"><ele>547.44000244</ele></trkpt><trkpt lat="42.93628692626952" lon="-1.685585975646976"><ele>546.65997314</ele></trkpt><trkpt lat="42.9358148574829" lon="-1.6847491264343237"><ele>546.01000977</ele></trkpt><trkpt lat="42.93564319610597" lon="-1.6845345497131265"><ele>545.61999512</ele></trkpt><trkpt lat="42.935450077056885" lon="-1.6843414306640654"><ele>545.60998535</ele></trkpt><trkpt lat="42.935450077056885" lon="-1.6843414306640654"><ele>545.60998535</ele></trkpt><trkpt lat="42.935106754303" lon="-1.6841912269592374"><ele>545.16998291</ele></trkpt><trkpt lat="42.93407678604125" lon="-1.683762073516854"><ele>543.40002441</ele></trkpt><trkpt lat="42.93399095535279" lon="-1.6841697692871036"><ele>543.54998779</ele></trkpt><trkpt lat="42.93381929397583" lon="-1.6841483116149956"><ele>542.33001709</ele></trkpt><trkpt lat="42.93351888656616" lon="-1.684191226959232"><ele>542.84002686</ele></trkpt><trkpt lat="42.93351888656616" lon="-1.684191226959232"><ele>542.84002686</ele></trkpt><trkpt lat="42.933475971221924" lon="-1.6841912269592283"><ele>543.05999756</ele></trkpt><trkpt lat="42.93336868286133" lon="-1.6843628883361905"><ele>543.04998779</ele></trkpt><trkpt lat="42.93330430984497" lon="-1.6846632957458538"><ele>544.23999023</ele></trkpt><trkpt lat="42.93288940563798" lon="-1.685886718332769"><ele>550.36999512</ele></trkpt><trkpt lat="42.93283224105835" lon="-1.6860365867614735"><ele>549.71002197</ele></trkpt><trkpt lat="42.93220996856691" lon="-1.6873669624328587"><ele>554.70001221</ele></trkpt><trkpt lat="42.931737899780266" lon="-1.6880965232849179"><ele>556.40002441</ele></trkpt><trkpt lat="42.93163061141966" lon="-1.688203811645501"><ele>555.40997314</ele></trkpt><trkpt lat="42.93141603469847" lon="-1.6883540153503442"><ele>555.09997559</ele></trkpt><trkpt lat="42.93091706000268" lon="-1.6888699214905545"><ele>554.94000244</ele></trkpt><trkpt lat="42.93046141974627" lon="-1.6894151642918542"><ele>555.89001465</ele></trkpt><trkpt lat="42.930214405059814" lon="-1.6897058486938574"><ele>554.79998779</ele></trkpt><trkpt lat="42.93012857437134" lon="-1.6898345947265687"><ele>555.0300293</ele></trkpt><trkpt lat="42.9299783706665" lon="-1.6901135444641047"><ele>555.01000977</ele></trkpt><trkpt lat="42.92974233627319" lon="-1.6904139518737777"><ele>555.35998535</ele></trkpt><trkpt lat="42.92965650558471" lon="-1.690499782562253"><ele>555.51000977</ele></trkpt><trkpt lat="42.929313182830796" lon="-1.6906929016113248"><ele>556.5300293</ele></trkpt><trkpt lat="42.92903423309328" lon="-1.6908860206604022"><ele>557.75</ele></trkpt><trkpt lat="42.928304672241204" lon="-1.6915082931518635"><ele>560.76000977</ele></trkpt><trkpt lat="42.928197383880615" lon="-1.6915941238403343"><ele>560.86999512</ele></trkpt><trkpt lat="42.92798280715942" lon="-1.6917014122009337"><ele>561.14001465</ele></trkpt><trkpt lat="42.927746772766106" lon="-1.6917228698730575"><ele>561.40002441</ele></trkpt><trkpt lat="42.92761802673338" lon="-1.6917443275451736"><ele>561.71002197</ele></trkpt><trkpt lat="42.92744636535643" lon="-1.691744327545171"><ele>561.54998779</ele></trkpt><trkpt lat="42.92729616165161" lon="-1.6916584968566912"><ele>561.51000977</ele></trkpt><trkpt lat="42.927168002352104" lon="-1.6915625240653824"><ele>561.44000244</ele></trkpt><trkpt lat="42.927124500274644" lon="-1.6915297508239757"><ele>561.47998047</ele></trkpt><trkpt lat="42.92708158493042" lon="-1.6915726661682051"><ele>561.46002197</ele></trkpt><trkpt lat="42.92708158493041" lon="-1.6916155815124543"><ele>561.29998779</ele></trkpt><trkpt lat="42.92712450027465" lon="-1.691701412200927"><ele>561.38000488</ele></trkpt><trkpt lat="42.927339076995835" lon="-1.6919159889221136"><ele>561.98999023</ele></trkpt><trkpt lat="42.92733907699584" lon="-1.6920018196106037"><ele>562.21002197</ele></trkpt><trkpt lat="42.9273819923401" lon="-1.6920447349548366"><ele>562.08001709</ele></trkpt><trkpt lat="42.9276180267334" lon="-1.6921091079711836"><ele>561.35998535</ele></trkpt><trkpt lat="42.92781114578247" lon="-1.6922163963317898"><ele>561.59002686</ele></trkpt><trkpt lat="42.92824029922483" lon="-1.6924524307250957"><ele>565.04998779</ele></trkpt><trkpt lat="42.928433418273926" lon="-1.692602634429932"><ele>566.38000488</ele></trkpt><trkpt lat="42.92865210212765" lon="-1.6928058117628102"><ele>566.59997559</ele></trkpt><trkpt lat="42.92873382568359" lon="-1.692881584167471"><ele>566.25</ele></trkpt><trkpt lat="42.928905487060554" lon="-1.6929888725280813"><ele>565.95001221</ele></trkpt><trkpt lat="42.92924880981444" lon="-1.6931605339050328"><ele>568.40002441</ele></trkpt><trkpt lat="42.9293131828308" lon="-1.6932034492492711"><ele>568.65997314</ele></trkpt><trkpt lat="42.92939901351929" lon="-1.6933321952819735"><ele>569.03997803</ele></trkpt><trkpt lat="42.92954921722412" lon="-1.6937398910522445"><ele>569.40002441</ele></trkpt><trkpt lat="42.92980670928956" lon="-1.6944050788879483"><ele>569.4699707</ele></trkpt><trkpt lat="42.929978370666504" lon="-1.6950058937072807"><ele>566.54998779</ele></trkpt><trkpt lat="42.930107116699226" lon="-1.6951990127563445"><ele>565.2199707</ele></trkpt><trkpt lat="42.930235862731934" lon="-1.6952848434448309"><ele>566.20001221</ele></trkpt><trkpt lat="42.930300235748284" lon="-1.6953706741332986"><ele>566.69000244</ele></trkpt><trkpt lat="42.930364608764656" lon="-1.6954994201660092"><ele>567.33001709</ele></trkpt><trkpt lat="42.93040752410889" lon="-1.695628166198734"><ele>567.52001953</ele></trkpt><trkpt lat="42.930450439453125" lon="-1.6959500312805253"><ele>570.55999756</ele></trkpt><trkpt lat="42.93045043945312" lon="-1.6963148117065463"><ele>571.33001709</ele></trkpt><trkpt lat="42.93049335479736" lon="-1.6965508460998522"><ele>575.25</ele></trkpt><trkpt lat="42.93049335479737" lon="-1.696829795837395"><ele>575.09997559</ele></trkpt><trkpt lat="42.93059268034994" lon="-1.6972931474447297"><ele>579.2199707</ele></trkpt><trkpt lat="42.930686473846436" lon="-1.6977310180664102"><ele>585.13000488</ele></trkpt><trkpt lat="42.930707931518555" lon="-1.6981387138366624"><ele>588.78997803</ele></trkpt><trkpt lat="42.9307723045349" lon="-1.698396205902097"><ele>589.95001221</ele></trkpt><trkpt lat="42.93083667755124" lon="-1.6986107826232981"><ele>593.2199707</ele></trkpt><trkpt lat="42.930858135223374" lon="-1.6989326477050704"><ele>596.95001221</ele></trkpt><trkpt lat="42.930858135223374" lon="-1.6991686820983865"><ele>599.65002441</ele></trkpt><trkpt lat="42.93083667755127" lon="-1.6994476318359346"><ele>603.28997803</ele></trkpt><trkpt lat="42.93083667755127" lon="-1.699790954589841"><ele>605.39001465</ele></trkpt><trkpt lat="42.93098688125611" lon="-1.700434684753417"><ele>612.5</ele></trkpt><trkpt lat="42.93100833892822" lon="-1.7009711265563927"><ele>617.77001953</ele></trkpt><trkpt lat="42.931072711944566" lon="-1.7013573646545446"><ele>621.86999512</ele></trkpt><trkpt lat="42.931244373321526" lon="-1.702065467834483"><ele>626.2199707</ele></trkpt><trkpt lat="42.93147462420164" lon="-1.7027351818978749"><ele>631.83001709</ele></trkpt><trkpt lat="42.93173789978027" lon="-1.7033314704895013"><ele>638.71002197</ele></trkpt><trkpt lat="42.931909561157205" lon="-1.7037820816040117"><ele>641.19000244</ele></trkpt><trkpt lat="42.932016849517815" lon="-1.7040824890136723"><ele>644.54998779</ele></trkpt><trkpt lat="42.932188510894775" lon="-1.7044687271118113"><ele>648.5</ele></trkpt><trkpt lat="42.93253183364868" lon="-1.7050480842590259"><ele>657.23999023</ele></trkpt><trkpt lat="42.93248732574284" lon="-1.7049730662256537"><ele>657.57000732</ele></trkpt><trkpt lat="42.93253183364868" lon="-1.7050480842590259"><ele>657.23999023</ele></trkpt><trkpt lat="42.93257474899292" lon="-1.7052412033081012"><ele>654</ele></trkpt><trkpt lat="42.932510375976555" lon="-1.7053270339965763"><ele>655.34002686</ele></trkpt><trkpt lat="42.932510375976555" lon="-1.70541286468506"><ele>655.85998535</ele></trkpt><trkpt lat="42.9325532913208" lon="-1.7059707641601622"><ele>655.33001709</ele></trkpt><trkpt lat="42.93261766433717" lon="-1.7063784599304186"><ele>656.2199707</ele></trkpt><trkpt lat="42.93255329132081" lon="-1.706593036651616"><ele>658.41998291</ele></trkpt><trkpt lat="42.9325532913208" lon="-1.7067217826843282"><ele>659.88000488</ele></trkpt><trkpt lat="42.93272495269775" lon="-1.7076230049133252"><ele>666.9699707</ele></trkpt><trkpt lat="42.93278932571411" lon="-1.708331108093261"><ele>671.03997803</ele></trkpt><trkpt lat="42.93278932571413" lon="-1.7083954811096203"><ele>671.15997314</ele></trkpt><trkpt lat="42.93278932571411" lon="-1.7084813117980948"><ele>671.19000244</ele></trkpt><trkpt lat="42.93276786804197" lon="-1.7087602615356445"><ele>671.61999512</ele></trkpt><trkpt lat="42.932789325714126" lon="-1.7094683647155844"><ele>670.84002686</ele></trkpt><trkpt lat="42.932789325714126" lon="-1.709725856781008"><ele>670.2199707</ele></trkpt><trkpt lat="42.93283224105836" lon="-1.7100906372070284"><ele>669.30999756</ele></trkpt><trkpt lat="42.93285369873047" lon="-1.7101979255676276"><ele>669.14001465</ele></trkpt><trkpt lat="42.932875156402574" lon="-1.7106699943542563"><ele>672.71002197</ele></trkpt><trkpt lat="42.93298244476319" lon="-1.711485385894772"><ele>684.32000732</ele></trkpt><trkpt lat="42.93330430984497" lon="-1.7133736610412622"><ele>690.07000732</ele></trkpt><trkpt lat="42.93332576751709" lon="-1.7140388488769553"><ele>688.40002441</ele></trkpt><trkpt lat="42.933364994823926" lon="-1.7143450397998083"><ele>689.98999023</ele></trkpt><trkpt lat="42.93336675502358" lon="-1.7146966606378569"><ele>694.07000732</ele></trkpt><trkpt lat="42.933388967067" lon="-1.7149969842284847"><ele>696.09997559</ele></trkpt><trkpt lat="42.93343297205866" lon="-1.715264031663537"><ele>696.70001221</ele></trkpt><trkpt lat="42.93345401063561" lon="-1.7155709769576786"><ele>696.96002197</ele></trkpt><trkpt lat="42.93344713747501" lon="-1.7157791834324614"><ele>697.45001221</ele></trkpt><trkpt lat="42.93342903256416" lon="-1.7160840332508005"><ele>698.90002441</ele></trkpt><trkpt lat="42.93339801952243" lon="-1.7164980154484517"><ele>699.52001953</ele></trkpt><trkpt lat="42.93341402895747" lon="-1.7167529929429386"><ele>699.38000488</ele></trkpt><trkpt lat="42.93344596400857" lon="-1.7170349601656272"><ele>699.26000977</ele></trkpt><trkpt lat="42.9334949143231" lon="-1.7174014169722855"><ele>699.55999756</ele></trkpt><trkpt lat="42.933477982878685" lon="-1.7177920136600702"><ele>701.7199707</ele></trkpt><trkpt lat="42.9335049726069" lon="-1.7181744799017855"><ele>700.70001221</ele></trkpt><trkpt lat="42.933516874909394" lon="-1.7188057210296455"><ele>696.33001709</ele></trkpt><trkpt lat="42.933484688401236" lon="-1.7192493751645124"><ele>693.27001953</ele></trkpt><trkpt lat="42.93347454629838" lon="-1.7196558136492919"><ele>688.38000488</ele></trkpt><trkpt lat="42.93347999453543" lon="-1.7198930215090475"><ele>685.84997559</ele></trkpt><trkpt lat="42.93339600786566" lon="-1.720118997618552"><ele>683.94000244</ele></trkpt><trkpt lat="42.93331922963261" lon="-1.7204309720545967"><ele>679.17999268</ele></trkpt><trkpt lat="42.933225017040975" lon="-1.720586707815535"><ele>676.75</ele></trkpt><trkpt lat="42.9329822771251" lon="-1.7206190619617676"><ele>676.04998779</ele></trkpt><trkpt lat="42.93272629380226" lon="-1.7205319739878187"><ele>673.54998779</ele></trkpt><trkpt lat="42.93254574760794" lon="-1.7204929143190373"><ele>670.14001465</ele></trkpt><trkpt lat="42.932357992976904" lon="-1.72058352269232"><ele>667.98999023</ele></trkpt><trkpt lat="42.93220016174018" lon="-1.7208383325487364"><ele>666.59002686</ele></trkpt><trkpt lat="42.932170657441006" lon="-1.7210664879530628"><ele>665.73999023</ele></trkpt><trkpt lat="42.93217602185903" lon="-1.7213269975036467"><ele>663.78997803</ele></trkpt><trkpt lat="42.932070996612296" lon="-1.7215119861066266"><ele>664.20001221</ele></trkpt><trkpt lat="42.93199899606407" lon="-1.7216910235583789"><ele>662.80999756</ele></trkpt><trkpt lat="42.931972006335855" lon="-1.7219119705259827"><ele>658.16998291</ele></trkpt><trkpt lat="42.93206596747039" lon="-1.722048008814457"><ele>653.75</ele></trkpt><trkpt lat="42.9321650415659" lon="-1.722201984375708"><ele>653.89001465</ele></trkpt><trkpt lat="42.93227802962065" lon="-1.7222500126808848"><ele>652.55999756</ele></trkpt><trkpt lat="42.93242387473583" lon="-1.7222467437386522"><ele>651.09002686</ele></trkpt><trkpt lat="42.9325585719198" lon="-1.722290413454176"><ele>647.41998291</ele></trkpt><trkpt lat="42.93268136680127" lon="-1.7223350889980695"><ele>646.7199707</ele></trkpt><trkpt lat="42.93284900486469" lon="-1.7221899982541893"><ele>643.15997314</ele></trkpt><trkpt lat="42.93308596126736" lon="-1.722125038504611"><ele>639</ele></trkpt><trkpt lat="42.93323457241058" lon="-1.7220972944051025"><ele>636.73999023</ele></trkpt><trkpt lat="42.93335602618753" lon="-1.722160996869212"><ele>638.13000488</ele></trkpt><trkpt lat="42.933569010347114" lon="-1.7221609968692142"><ele>634.39001465</ele></trkpt><trkpt lat="42.933753076940775" lon="-1.7223120387643516"><ele>629.57000732</ele></trkpt><trkpt lat="42.933909986168125" lon="-1.72235000878572"><ele>627.90002441</ele></trkpt><trkpt lat="42.93403001502158" lon="-1.7224240209907318"><ele>624.88000488</ele></trkpt><trkpt lat="42.93414115905761" lon="-1.722493171691898"><ele>624.80999756</ele></trkpt><trkpt lat="42.93482780456542" lon="-1.7223429679870574"><ele>623.27001953</ele></trkpt><trkpt lat="42.93532133102417" lon="-1.7222142219543455"><ele>615.09997559</ele></trkpt><trkpt lat="42.935535907745354" lon="-1.7221713066101054"><ele>613.23999023</ele></trkpt><trkpt lat="42.935535907745354" lon="-1.7221713066101054"><ele>613.23999023</ele></trkpt><trkpt lat="42.93598651885985" lon="-1.7219138145446726"><ele>608.13000488</ele></trkpt><trkpt lat="42.93607234954832" lon="-1.7217850685119547"><ele>607.9699707</ele></trkpt><trkpt lat="42.936158180236816" lon="-1.7216348648071258"><ele>606.90997314</ele></trkpt><trkpt lat="42.93626546859741" lon="-1.7215275764465259"><ele>605.7800293</ele></trkpt><trkpt lat="42.936859242618084" lon="-1.7208711057901425"><ele>605.07000732</ele></trkpt><trkpt lat="42.936918837949634" lon="-1.7207183875143512"><ele>604.64001465</ele></trkpt><trkpt lat="42.93693065643312" lon="-1.7206907272338872"><ele>604.78997803</ele></trkpt><trkpt lat="42.936969716101885" lon="-1.720514874905345"><ele>603.13000488</ele></trkpt><trkpt lat="42.937015062198036" lon="-1.7203945945948358"><ele>603.70001221</ele></trkpt><trkpt lat="42.93715353123846" lon="-1.7202490847557816"><ele>605.70001221</ele></trkpt><trkpt lat="42.93724807910619" lon="-1.7201839573681397"><ele>606.71002197</ele></trkpt><trkpt lat="42.93739459477366" lon="-1.7200553789734767"><ele>606.9699707</ele></trkpt><trkpt lat="42.9375749733299" lon="-1.7199680395424422"><ele>605.34002686</ele></trkpt><trkpt lat="42.93778879567981" lon="-1.7198871541768326"><ele>605.40002441</ele></trkpt><trkpt lat="42.93792902491985" lon="-1.719842981547122"><ele>609.15002441</ele></trkpt><trkpt lat="42.9380063060671" lon="-1.7198090348392705"><ele>604.73999023</ele></trkpt><trkpt lat="42.938129520043724" lon="-1.71985840424896"><ele>605.92999268</ele></trkpt><trkpt lat="42.93820420280098" lon="-1.7199221067130492"><ele>606.90997314</ele></trkpt><trkpt lat="42.938265223056064" lon="-1.7199464980512769"><ele>607.2199707</ele></trkpt><trkpt lat="42.93840201571584" lon="-1.7199366912245722"><ele>607.05999756</ele></trkpt><trkpt lat="42.938512992113836" lon="-1.719922022894022"><ele>607.42999268</ele></trkpt><trkpt lat="42.93870602734387" lon="-1.7198090348392647"><ele>607.70001221</ele></trkpt><trkpt lat="42.938795126974576" lon="-1.719785565510394"><ele>608.5</ele></trkpt><trkpt lat="42.9389289021492" lon="-1.7197423148900288"><ele>608.30999756</ele></trkpt><trkpt lat="42.939008949324474" lon="-1.7197549715638167"><ele>607.57000732</ele></trkpt><trkpt lat="42.93914146721364" lon="-1.7198325041681535"><ele>608.67999268</ele></trkpt><trkpt lat="42.939238697290406" lon="-1.7198804486542862"><ele>608.35998535</ele></trkpt><trkpt lat="42.93931346386671" lon="-1.7199416365474405"><ele>609.29998779</ele></trkpt><trkpt lat="42.9393573012203" lon="-1.7200149782002023"><ele>609.64001465</ele></trkpt><trkpt lat="42.93944313190877" lon="-1.7200973723083788"><ele>610.11999512</ele></trkpt><trkpt lat="42.93955083936453" lon="-1.7201923392713088"><ele>610.14001465</ele></trkpt><trkpt lat="42.93962401337922" lon="-1.720238020643585"><ele>610.27001953</ele></trkpt><trkpt lat="42.93972258456052" lon="-1.7202842887490946"><ele>611.4699707</ele></trkpt><trkpt lat="42.93980011716485" lon="-1.7202797625213913"><ele>612.25</ele></trkpt><trkpt lat="42.93991696089506" lon="-1.7202619928866671"><ele>612.90002441</ele></trkpt><trkpt lat="42.94000924564897" lon="-1.7201863881200492"><ele>613.75</ele></trkpt><trkpt lat="42.940113097429276" lon="-1.7201011441648053"><ele>612.65002441</ele></trkpt><trkpt lat="42.94022876769304" lon="-1.7199910059571355"><ele>611.60998535</ele></trkpt><trkpt lat="42.94031476601957" lon="-1.719966279342774"><ele>611.76000977</ele></trkpt><trkpt lat="42.940456336364136" lon="-1.7199485097080378"><ele>610.11999512</ele></trkpt><trkpt lat="42.940514087677" lon="-1.719961166381842"><ele>609.85998535</ele></trkpt><trkpt lat="42.94100761413574" lon="-1.7199611663818277"><ele>601.79998779</ele></trkpt><trkpt lat="42.94095288030803" lon="-1.7199611663818348"><ele>602.78997803</ele></trkpt><trkpt lat="42.94100761413574" lon="-1.7199611663818277"><ele>601.79998779</ele></trkpt><trkpt lat="42.94154405593873" lon="-1.7199826240539484"><ele>593.39001465</ele></trkpt><trkpt lat="42.942037582397454" lon="-1.7200899124145543"><ele>587.17999268</ele></trkpt><trkpt lat="42.94240236282349" lon="-1.7201113700866741"><ele>583.30999756</ele></trkpt><trkpt lat="42.942336061969385" lon="-1.7201075144112077"><ele>583.64001465</ele></trkpt><trkpt lat="42.94240236282349" lon="-1.7201113700866741"><ele>583.30999756</ele></trkpt><trkpt lat="42.94319629669189" lon="-1.720561981201168"><ele>578.29998779</ele></trkpt><trkpt lat="42.94323921203613" lon="-1.7205834388732963"><ele>578.17999268</ele></trkpt><trkpt lat="42.943264860659845" lon="-1.7205577902495863"><ele>577.75</ele></trkpt><trkpt lat="42.94386148452759" lon="-1.7195749282836865"><ele>569.7800293</ele></trkpt><trkpt lat="42.944655418395996" lon="-1.7184162139892543"><ele>574.55999756</ele></trkpt><trkpt lat="42.9447841644287" lon="-1.7182874679565405"><ele>577.83001709</ele></trkpt><trkpt lat="42.94482707977294" lon="-1.7182016372680655"><ele>579.15002441</ele></trkpt><trkpt lat="42.94506311416626" lon="-1.7184805870056148"><ele>580.2800293</ele></trkpt><trkpt lat="42.9453962109983" lon="-1.7189327068626954"><ele>579.65002441</ele></trkpt><trkpt lat="42.94596433639527" lon="-1.7197036743163998"><ele>578.19000244</ele></trkpt><trkpt lat="42.94630765914916" lon="-1.7201757431030347"><ele>576.69000244</ele></trkpt><trkpt lat="42.946372032165534" lon="-1.7202401161193905"><ele>576.41998291</ele></trkpt><trkpt lat="42.946586608886726" lon="-1.7203903198242199"><ele>575.16998291</ele></trkpt><trkpt lat="42.94671535491941" lon="-1.72054052352906"><ele>574.40997314</ele></trkpt><trkpt lat="42.9468011856079" lon="-1.7206692695617622"><ele>574.20001221</ele></trkpt><trkpt lat="42.94682264328003" lon="-1.720798015594483"><ele>574.0300293</ele></trkpt><trkpt lat="42.946865558624275" lon="-1.7216777801513723"><ele>575.89001465</ele></trkpt><trkpt lat="42.947165966033936" lon="-1.7214202880859404"><ele>577.65997314</ele></trkpt><trkpt lat="42.94727325439453" lon="-1.721355915069582"><ele>578.20001221</ele></trkpt><trkpt lat="42.94757366180419" lon="-1.7213344573974578"><ele>579.60998535</ele></trkpt><trkpt lat="42.947895526886" lon="-1.7213988304138153"><ele>580.51000977</ele></trkpt><trkpt lat="42.947895526885986" lon="-1.7214632034301809"><ele>580.54998779</ele></trkpt><trkpt lat="42.94787406921384" lon="-1.7215275764465379"><ele>580.79998779</ele></trkpt><trkpt lat="42.94763803482055" lon="-1.7219138145446857"><ele>586.40997314</ele></trkpt><trkpt lat="42.947616577148445" lon="-1.7220211029052739"><ele>587.71002197</ele></trkpt><trkpt lat="42.94761657714844" lon="-1.7221498489379907"><ele>589.01000977</ele></trkpt><trkpt lat="42.947647674009204" lon="-1.7221656069159486"><ele>589.2800293</ele></trkpt><trkpt lat="42.94783115386961" lon="-1.7222571372985889"><ele>594.07000732</ele></trkpt><trkpt lat="42.94791698455809" lon="-1.722385883331302"><ele>596.48999023</ele></trkpt><trkpt lat="42.94802427291869" lon="-1.7224287986755418"><ele>597.16998291</ele></trkpt><trkpt lat="42.94806718826294" lon="-1.7224287986755389"><ele>597.76000977</ele></trkpt><trkpt lat="42.948088645935066" lon="-1.7223644256591832"><ele>598.90997314</ele></trkpt><trkpt lat="42.9482388496399" lon="-1.7223215103149447"><ele>600.84002686</ele></trkpt><trkpt lat="42.9483675956726" lon="-1.7223429679870617"><ele>603.65002441</ele></trkpt><trkpt lat="42.94856071472167" lon="-1.722600460052499"><ele>607.44000244</ele></trkpt><trkpt lat="42.949311733245835" lon="-1.723244190216062"><ele>619.27001953</ele></trkpt><trkpt lat="42.94941902160645" lon="-1.7232871055603103"><ele>621.21002197</ele></trkpt><trkpt lat="42.94954776763914" lon="-1.723351478576665"><ele>623.20001221</ele></trkpt><trkpt lat="42.9495140723884" lon="-1.723334714770311"><ele>623.09002686</ele></trkpt><trkpt lat="42.94971305876972" lon="-1.7235766164958426"><ele>625.77001953</ele></trkpt><trkpt lat="42.949840966612115" lon="-1.7237440031021827"><ele>628.30999756</ele></trkpt><trkpt lat="42.94989100657402" lon="-1.7239109706133586"><ele>629.58001709</ele></trkpt><trkpt lat="42.95002955943346" lon="-1.7242501862347208"><ele>632.05999756</ele></trkpt><trkpt lat="42.9501459840685" lon="-1.7245769966393691"><ele>633.91998291</ele></trkpt><trkpt lat="42.95025201514365" lon="-1.7247670143842704"><ele>636.33001709</ele></trkpt><trkpt lat="42.95040003955362" lon="-1.724782017990951"><ele>638.51000977</ele></trkpt><trkpt lat="42.95052635483442" lon="-1.7248017154633952"><ele>641.61999512</ele></trkpt><trkpt lat="42.95069877058266" lon="-1.724979327991602"><ele>648.19000244</ele></trkpt><trkpt lat="42.95086205005646" lon="-1.725091561675067"><ele>650.71002197</ele></trkpt><trkpt lat="42.951069669798024" lon="-1.7252708505839145"><ele>654.05999756</ele></trkpt><trkpt lat="42.95119699090719" lon="-1.7254153545945845"><ele>655.92999268</ele></trkpt><trkpt lat="42.95136370696126" lon="-1.7256539035588434"><ele>657.86999512</ele></trkpt><trkpt lat="42.9514885134995" lon="-1.7258323542773752"><ele>658.96002197</ele></trkpt><trkpt lat="42.95175296254454" lon="-1.7262040078639989"><ele>661</ele></trkpt><trkpt lat="42.951945997774594" lon="-1.7264650203287524"><ele>661.65002441</ele></trkpt><trkpt lat="42.95203803107143" lon="-1.726649003103383"><ele>661.82000732</ele></trkpt><trkpt lat="42.95217197388411" lon="-1.7270049825310747"><ele>661.82000732</ele></trkpt><trkpt lat="42.95234195888043" lon="-1.7273769713938285"><ele>660.90002441</ele></trkpt><trkpt lat="42.952441032975905" lon="-1.7275740299373876"><ele>660.86999512</ele></trkpt><trkpt lat="42.952506998553865" lon="-1.7277730163186724"><ele>660.16998291</ele></trkpt><trkpt lat="42.952555613592246" lon="-1.7280193604528982"><ele>659.9699707</ele></trkpt><trkpt lat="42.95266700908542" lon="-1.7282080370932817"><ele>659.70001221</ele></trkpt><trkpt lat="42.95274403877556" lon="-1.728410962969061"><ele>659.41998291</ele></trkpt><trkpt lat="42.95284805819392" lon="-1.7285935208201393"><ele>659.29998779</ele></trkpt><trkpt lat="42.95296498574316" lon="-1.7288940120488394"><ele>659.97998047</ele></trkpt><trkpt lat="42.95305903069676" lon="-1.7291950061917267"><ele>660.64001465</ele></trkpt><trkpt lat="42.95307202264666" lon="-1.7294000275432997"><ele>662.65002441</ele></trkpt><trkpt lat="42.953036986291416" lon="-1.729670008644467"><ele>664.65997314</ele></trkpt><trkpt lat="42.95300832018256" lon="-1.7299933824688185"><ele>667.11999512</ele></trkpt><trkpt lat="42.95296515338123" lon="-1.7301654629409309"><ele>667.97998047</ele></trkpt><trkpt lat="42.95295400545001" lon="-1.7302780319005333"><ele>668.41998291</ele></trkpt><trkpt lat="42.95300563797352" lon="-1.730447430163631"><ele>669.72998047</ele></trkpt><trkpt lat="42.95303472317754" lon="-1.7305900063365647"><ele>670.58001709</ele></trkpt><trkpt lat="42.95305400155483" lon="-1.7307979613542608"><ele>671.21002197</ele></trkpt><trkpt lat="42.953095994889736" lon="-1.73097599297762"><ele>672.19000244</ele></trkpt><trkpt lat="42.95310563407838" lon="-1.731158467009663"><ele>672.09997559</ele></trkpt><trkpt lat="42.95312901958824" lon="-1.7313029710203507"><ele>672.26000977</ele></trkpt><trkpt lat="42.95316766016185" lon="-1.7313873767852728"><ele>672.4699707</ele></trkpt><trkpt lat="42.95318903401494" lon="-1.7314720340073115"><ele>672.64001465</ele></trkpt><trkpt lat="42.95318098738789" lon="-1.7315820045769195"><ele>671.67999268</ele></trkpt><trkpt lat="42.95321753248573" lon="-1.731731789186594"><ele>670.84997559</ele></trkpt><trkpt lat="42.9532600287348" lon="-1.731888027861715"><ele>670.58001709</ele></trkpt><trkpt lat="42.95329137705265" lon="-1.732178628444665"><ele>671.76000977</ele></trkpt><trkpt lat="42.95328936539589" lon="-1.7322847433388222"><ele>671.90002441</ele></trkpt><trkpt lat="42.95330294407903" lon="-1.7325456719845538"><ele>672.20001221</ele></trkpt><trkpt lat="42.953330017626286" lon="-1.7326480150222763"><ele>672.2800293</ele></trkpt><trkpt lat="42.953354995697744" lon="-1.7327920161187682"><ele>671.84002686</ele></trkpt><trkpt lat="42.95339883305133" lon="-1.732958983629942"><ele>671.89001465</ele></trkpt><trkpt lat="42.953453734517105" lon="-1.7331422120332622"><ele>671.36999512</ele></trkpt><trkpt lat="42.95352900400758" lon="-1.7333152145147273"><ele>671.28997803</ele></trkpt><trkpt lat="42.953590610995874" lon="-1.7334804218262423"><ele>670.54998779</ele></trkpt><trkpt lat="42.953624809160836" lon="-1.7336494009941783"><ele>669.36999512</ele></trkpt><trkpt lat="42.953674010932446" lon="-1.7338140215724749"><ele>668.59997559</ele></trkpt><trkpt lat="42.95372765511275" lon="-1.7340653110295594"><ele>666.71002197</ele></trkpt><trkpt lat="42.95376252382994" lon="-1.734292209148402"><ele>666.15997314</ele></trkpt><trkpt lat="42.95377903617918" lon="-1.7344423290342137"><ele>666.46002197</ele></trkpt><trkpt lat="42.953767972067" lon="-1.734599992632866"><ele>666.4699707</ele></trkpt><trkpt lat="42.95375900343059" lon="-1.7348226159810984"><ele>666.51000977</ele></trkpt><trkpt lat="42.95370996929705" lon="-1.734958989545702"><ele>665.9699707</ele></trkpt><trkpt lat="42.95360117219387" lon="-1.7350575607269951"><ele>663.84002686</ele></trkpt><trkpt lat="42.953586000949144" lon="-1.735146995633845"><ele>664.98999023</ele></trkpt><trkpt lat="42.953463373705745" lon="-1.735252356156717"><ele>664.51000977</ele></trkpt><trkpt lat="42.95336664654314" lon="-1.7353403661400113"><ele>663.90002441</ele></trkpt><trkpt lat="42.9532346315682" lon="-1.7354906536638794"><ele>662.71002197</ele></trkpt><trkpt lat="42.95317620970307" lon="-1.7355828545987697"><ele>661.80999756</ele></trkpt><trkpt lat="42.95305903069675" lon="-1.7357169650495115"><ele>659.90997314</ele></trkpt><trkpt lat="42.95302701182663" lon="-1.7357710283249557"><ele>659.59997559</ele></trkpt><trkpt lat="42.952983174473054" lon="-1.7358007002621865"><ele>659.09997559</ele></trkpt><trkpt lat="42.95294998213647" lon="-1.7358619719743669"><ele>658.67999268</ele></trkpt><trkpt lat="42.95294562354683" lon="-1.7359563522040795"><ele>658.54998779</ele></trkpt><trkpt lat="42.95292802155017" lon="-1.7360919713974017"><ele>657.84997559</ele></trkpt><trkpt lat="42.95289332047105" lon="-1.7362913768738562"><ele>656.59997559</ele></trkpt><trkpt lat="42.95288946479559" lon="-1.7364286724477946"><ele>655.46002197</ele></trkpt><trkpt lat="42.95288502238691" lon="-1.7365200351923737"><ele>655.59002686</ele></trkpt><trkpt lat="42.952864151448004" lon="-1.7366044409573145"><ele>656.5300293</ele></trkpt><trkpt lat="42.952768011018634" lon="-1.7367330193519588"><ele>655.35998535</ele></trkpt><trkpt lat="42.952668434008956" lon="-1.7368598375469408"><ele>655.71002197</ele></trkpt><trkpt lat="42.95251697301864" lon="-1.7370370309799967"><ele>656.73999023</ele></trkpt><trkpt lat="42.95245603658258" lon="-1.7371119651943425"><ele>656.34002686</ele></trkpt><trkpt lat="42.952407170087106" lon="-1.737215733155614"><ele>655.82000732</ele></trkpt><trkpt lat="42.95235101133584" lon="-1.7372816149145378"><ele>655.32000732</ele></trkpt><trkpt lat="42.9522319883108" lon="-1.7374149709939997"><ele>653.26000977</ele></trkpt><trkpt lat="42.9521368537098" lon="-1.737511949613682"><ele>652.15002441</ele></trkpt><trkpt lat="42.95203534886241" lon="-1.7376760672777924"><ele>650.07000732</ele></trkpt><trkpt lat="42.95199695974588" lon="-1.7377960123121767"><ele>648.80999756</ele></trkpt><trkpt lat="42.9519539605826" lon="-1.7378720361739468"><ele>648.04998779</ele></trkpt><trkpt lat="42.95188765972853" lon="-1.7379432823509058"><ele>646.65002441</ele></trkpt><trkpt lat="42.951804595068076" lon="-1.7380385845899544"><ele>645.07000732</ele></trkpt><trkpt lat="42.95185396447778" lon="-1.738049983978271"><ele>646.20001221</ele></trkpt><trkpt lat="42.95197298750281" lon="-1.7380732856690833"><ele>647.42999268</ele></trkpt><trkpt lat="42.952024787664406" lon="-1.7380955815315335"><ele>648.32000732</ele></trkpt><trkpt lat="42.952122101560235" lon="-1.7381716053932867"><ele>649.23999023</ele></trkpt><trkpt lat="42.9521910008043" lon="-1.7382270097732544"><ele>650.52001953</ele></trkpt><trkpt lat="42.952280603349195" lon="-1.7382744513452084"><ele>651.01000977</ele></trkpt><trkpt lat="42.952394010499106" lon="-1.7383291851729064"><ele>651.03997803</ele></trkpt><trkpt lat="42.95244681648911" lon="-1.7383534926921191"><ele>650.88000488</ele></trkpt><trkpt lat="42.95248998329041" lon="-1.7383829969912772"><ele>650.69000244</ele></trkpt><trkpt lat="42.9527140315622" lon="-1.7384659778326828"><ele>650.39001465</ele></trkpt><trkpt lat="42.95290304347875" lon="-1.7384370602667276"><ele>654.05999756</ele></trkpt><trkpt lat="42.953052995726445" lon="-1.7385330330580548"><ele>655.65997314</ele></trkpt><trkpt lat="42.95315500348807" lon="-1.7385939694941064"><ele>656.14001465</ele></trkpt><trkpt lat="42.95330202206968" lon="-1.7385819833725746"><ele>659.09002686</ele></trkpt><trkpt lat="42.95343202538788" lon="-1.7386379744857525"><ele>659.55999756</ele></trkpt><trkpt lat="42.9535417445004" lon="-1.7385994177311692"><ele>662.15002441</ele></trkpt><trkpt lat="42.9537259787321" lon="-1.7386050336062902"><ele>663.98999023</ele></trkpt><trkpt lat="42.9538610111922" lon="-1.738564716652042"><ele>665.19000244</ele></trkpt><trkpt lat="42.954537849873304" lon="-1.7382778041064677"><ele>672.35998535</ele></trkpt><trkpt lat="42.95500597916543" lon="-1.7380794044583991"><ele>674.7199707</ele></trkpt><trkpt lat="42.95530496165156" lon="-1.7379329726099895"><ele>676.57000732</ele></trkpt><trkpt lat="42.95549003407356" lon="-1.7378550209105093"><ele>677.41998291</ele></trkpt><trkpt lat="42.95586403459309" lon="-1.7376759834587623"><ele>679.41998291</ele></trkpt><trkpt lat="42.95616787858307" lon="-1.7375013045966583"><ele>680.91998291</ele></trkpt><trkpt lat="42.95638496987519" lon="-1.737369038164614"><ele>681.7199707</ele></trkpt><trkpt lat="42.956575825810454" lon="-1.7371967062354101"><ele>682.34002686</ele></trkpt><trkpt lat="42.95684530399738" lon="-1.7369040939956955"><ele>681.78997803</ele></trkpt><trkpt lat="42.9569700267166" lon="-1.7367490287870135"><ele>679.59002686</ele></trkpt><trkpt lat="42.95724193565547" lon="-1.73651450313627"><ele>676.01000977</ele></trkpt><trkpt lat="42.95752180740236" lon="-1.7362115811556635"><ele>676.90997314</ele></trkpt><trkpt lat="42.957826908677816" lon="-1.735988706350325"><ele>674.47998047</ele></trkpt><trkpt lat="42.95813301578164" lon="-1.7356154602020955"><ele>671.48999023</ele></trkpt><trkpt lat="42.958361003547914" lon="-1.7353479936719018"><ele>668.4699707</ele></trkpt><trkpt lat="42.95853903517125" lon="-1.7350835446268416"><ele>665.51000977</ele></trkpt><trkpt lat="42.95884916558861" lon="-1.734749693423507"><ele>663.95001221</ele></trkpt><trkpt lat="42.95897103846072" lon="-1.7346330173313647"><ele>663.17999268</ele></trkpt><trkpt lat="42.959089726209655" lon="-1.7345685604959746"><ele>661.30999756</ele></trkpt><trkpt lat="42.95918201096356" lon="-1.7345858272165038"><ele>661.64001465</ele></trkpt><trkpt lat="42.959334058687084" lon="-1.7346589174121674"><ele>661.45001221</ele></trkpt><trkpt lat="42.95941502787173" lon="-1.734648020938035"><ele>660.83001709</ele></trkpt><trkpt lat="42.95960906893015" lon="-1.7345648724585805"><ele>660.09002686</ele></trkpt><trkpt lat="42.959778970107436" lon="-1.7345109768211913"><ele>659.80999756</ele></trkpt><trkpt lat="42.959913834929466" lon="-1.7344740126281926"><ele>659.82000732</ele></trkpt><trkpt lat="42.95999002642928" lon="-1.7343750223517362"><ele>660.40997314</ele></trkpt><trkpt lat="42.96016579493879" lon="-1.7341799754649336"><ele>660.76000977</ele></trkpt><trkpt lat="42.96028674580156" lon="-1.7340534087270558"><ele>660.79998779</ele></trkpt><trkpt lat="42.96040216460823" lon="-1.7339457850903206"><ele>660.84002686</ele></trkpt><trkpt lat="42.96059503220022" lon="-1.7338170390576095"><ele>660.69000244</ele></trkpt><trkpt lat="42.96078295446933" lon="-1.7337054759263917"><ele>659.30999756</ele></trkpt><trkpt lat="42.96096618287266" lon="-1.7335777357220608"><ele>660</ele></trkpt><trkpt lat="42.96109601855277" lon="-1.7335169669240684"><ele>662.5</ele></trkpt><trkpt lat="42.961209593340755" lon="-1.733393920585515"><ele>662.97998047</ele></trkpt><trkpt lat="42.96136256307364" lon="-1.7332281265407872"><ele>663.76000977</ele></trkpt><trkpt lat="42.96147203072904" lon="-1.7330859694629843"><ele>664.78997803</ele></trkpt><trkpt lat="42.96154000796378" lon="-1.7329340055584843"><ele>666.07000732</ele></trkpt><trkpt lat="42.96166003681719" lon="-1.7327409703284553"><ele>667.54998779</ele></trkpt><trkpt lat="42.96171996742487" lon="-1.7325920239090862"><ele>667.13000488</ele></trkpt><trkpt lat="42.961821807548404" lon="-1.732415501028298"><ele>667.55999756</ele></trkpt><trkpt lat="42.96196086332202" lon="-1.7322477791458417"><ele>666.70001221</ele></trkpt><trkpt lat="42.96214015223085" lon="-1.7321375571191338"><ele>666</ele></trkpt><trkpt lat="42.96232019551098" lon="-1.7320002615451744"><ele>666.79998779</ele></trkpt><trkpt lat="42.96233369037509" lon="-1.7319123353809147"><ele>667.28997803</ele></trkpt><trkpt lat="42.962396554648876" lon="-1.7316660750657364"><ele>669.80999756</ele></trkpt><trkpt lat="42.96241457574069" lon="-1.7315488960593906"><ele>670.71002197</ele></trkpt><trkpt lat="42.962463945150375" lon="-1.7312264442443863"><ele>673.2800293</ele></trkpt><trkpt lat="42.9624595027417" lon="-1.7310447245836287"><ele>673</ele></trkpt><trkpt lat="42.962454976513996" lon="-1.7308160662651162"><ele>673.60998535</ele></trkpt><trkpt lat="42.96248640865089" lon="-1.7305405531078526"><ele>674.70001221</ele></trkpt><trkpt lat="42.96253133565187" lon="-1.7301125731319198"><ele>675.92999268</ele></trkpt><trkpt lat="42.96254927292467" lon="-1.7299659736454494"><ele>676.03997803</ele></trkpt><trkpt lat="42.96272277832032" lon="-1.7297673225402737"><ele>677.85998535</ele></trkpt><trkpt lat="42.96306610107422" lon="-1.7295527458190891"><ele>677.70001221</ele></trkpt><trkpt lat="42.963345050811746" lon="-1.7295098304748513"><ele>677.2800293</ele></trkpt><trkpt lat="42.96370983123779" lon="-1.729595661163337"><ele>676.40997314</ele></trkpt><trkpt lat="42.964138984680176" lon="-1.7296600341796828"><ele>674.9699707</ele></trkpt><trkpt lat="42.96420327387749" lon="-1.7296600341796824"><ele>674.52001953</ele></trkpt><trkpt lat="42.96469688415528" lon="-1.7296600341796906"><ele>672.2800293</ele></trkpt><trkpt lat="42.96521186828614" lon="-1.7296385765075717"><ele>668.13000488</ele></trkpt><trkpt lat="42.96536207199096" lon="-1.7296385765075633"><ele>667.39001465</ele></trkpt><trkpt lat="42.965619564056375" lon="-1.729745864868173"><ele>666.67999268</ele></trkpt><trkpt lat="42.96596288681028" lon="-1.7299604415893592"><ele>660.89001465</ele></trkpt><trkpt lat="42.96617746353148" lon="-1.730153560638422"><ele>659.79998779</ele></trkpt><trkpt lat="42.9660125914961" lon="-1.730005284771325"><ele>660.39001465</ele></trkpt><trkpt lat="42.96617746353148" lon="-1.730153560638422"><ele>659.79998779</ele></trkpt><trkpt lat="42.966220378875725" lon="-1.7301750183105369"><ele>659.17999268</ele></trkpt><trkpt lat="42.96632766723633" lon="-1.7301106452941837"><ele>658.7199707</ele></trkpt><trkpt lat="42.96654224395752" lon="-1.7300248146057073"><ele>656.65002441</ele></trkpt><trkpt lat="42.96684265136719" lon="-1.7299818992614657"><ele>659.04998779</ele></trkpt><trkpt lat="42.96688556671142" lon="-1.730024814605708"><ele>659.75</ele></trkpt><trkpt lat="42.96710014343262" lon="-1.7304325103759755"><ele>664.08001709</ele></trkpt><trkpt lat="42.96733617782593" lon="-1.7306041717529221"><ele>666.82000732</ele></trkpt><trkpt lat="42.96744346618651" lon="-1.7306256294250546"><ele>667.77001953</ele></trkpt><trkpt lat="42.967486381530755" lon="-1.7306041717529272"><ele>668.23999023</ele></trkpt><trkpt lat="42.96752929687499" lon="-1.7305612564086965"><ele>669.46002197</ele></trkpt><trkpt lat="42.96757221221924" lon="-1.7300033569335993"><ele>673.34997559</ele></trkpt><trkpt lat="42.96761512756348" lon="-1.7296814918518153"><ele>673.45001221</ele></trkpt><trkpt lat="42.967679500579834" lon="-1.7294454574585052"><ele>673.57000732</ele></trkpt><trkpt lat="42.96785116195679" lon="-1.7290806770324727"><ele>675.51000977</ele></trkpt><trkpt lat="42.9678511619568" lon="-1.728630065917968"><ele>675.01000977</ele></trkpt><trkpt lat="42.9678726196289" lon="-1.7282009124755964"><ele>675.13000488</ele></trkpt><trkpt lat="42.96787915751338" lon="-1.7280640359967958"><ele>675.23999023</ele></trkpt><trkpt lat="42.967894077301025" lon="-1.7277503013610847"><ele>676.0300293</ele></trkpt><trkpt lat="42.96791553497312" lon="-1.727514266967768"><ele>676.65997314</ele></trkpt><trkpt lat="42.96804428100586" lon="-1.7269992828369116"><ele>677.89001465</ele></trkpt><trkpt lat="42.96813011169433" lon="-1.7267203330993683"><ele>678.34997559</ele></trkpt><trkpt lat="42.968151569366434" lon="-1.7266130447387678"><ele>678.90997314</ele></trkpt><trkpt lat="42.968130111694315" lon="-1.7261838912963816"><ele>679.79998779</ele></trkpt><trkpt lat="42.968173027038574" lon="-1.725926399230961"><ele>680.90997314</ele></trkpt><trkpt lat="42.968215942382805" lon="-1.7258405685424862"><ele>681.46002197</ele></trkpt><trkpt lat="42.96838760375976" lon="-1.7256045341491693"><ele>682.90997314</ele></trkpt><trkpt lat="42.96873092651367" lon="-1.7253684997558558"><ele>686.09002686</ele></trkpt><trkpt lat="42.968859672546394" lon="-1.7252397537231363"><ele>687.65997314</ele></trkpt><trkpt lat="42.968924045562744" lon="-1.7251110076904377"><ele>687.7800293</ele></trkpt><trkpt lat="42.9689884185791" lon="-1.7248964309692312"><ele>689.0300293</ele></trkpt><trkpt lat="42.969009876251214" lon="-1.7247247695922834"><ele>690.09997559</ele></trkpt><trkpt lat="42.9689025878906" lon="-1.724338531494137"><ele>691.26000977</ele></trkpt><trkpt lat="42.96883821487426" lon="-1.72390937805175"><ele>693.09997559</ele></trkpt><trkpt lat="42.96885523013769" lon="-1.7240232042968238"><ele>692.40002441</ele></trkpt><trkpt lat="42.96883821487426" lon="-1.72390937805175"><ele>693.09997559</ele></trkpt><trkpt lat="42.96883821487426" lon="-1.7237806320190399"><ele>693.88000488</ele></trkpt><trkpt lat="42.96885967254637" lon="-1.7237162590026935"><ele>694.45001221</ele></trkpt><trkpt lat="42.968945503234856" lon="-1.7235445976257244"><ele>695.9699707</ele></trkpt><trkpt lat="42.96922445297239" lon="-1.7232656478881876"><ele>699.46002197</ele></trkpt><trkpt lat="42.96918153762817" lon="-1.7230725288391116"><ele>700.39001465</ele></trkpt><trkpt lat="42.96916007995606" lon="-1.7226648330688559"><ele>702.39001465</ele></trkpt><trkpt lat="42.96931028366089" lon="-1.722579002380378"><ele>703.7800293</ele></trkpt><trkpt lat="42.96986818313598" lon="-1.722171306610106"><ele>709.17999268</ele></trkpt><trkpt lat="42.970104217529276" lon="-1.722064018249512"><ele>712.59997559</ele></trkpt><trkpt lat="42.97019004821778" lon="-1.721999645233154"><ele>713.78997803</ele></trkpt><trkpt lat="42.97053337097168" lon="-1.721956729888926"><ele>717.7199707</ele></trkpt><trkpt lat="42.97085523605346" lon="-1.721849441528314"><ele>719.69000244</ele></trkpt><trkpt lat="42.97117710113526" lon="-1.721999645233152"><ele>724.98999023</ele></trkpt><trkpt lat="42.97126293182372" lon="-1.7220211029052799"><ele>726.40997314</ele></trkpt><trkpt lat="42.971413135528564" lon="-1.7218923568725701"><ele>726.86999512</ele></trkpt><trkpt lat="42.97175645828246" lon="-1.7214417457580597"><ele>727.83001709</ele></trkpt><trkpt lat="42.97194957733154" lon="-1.7212915420532235"><ele>730.85998535</ele></trkpt><trkpt lat="42.972078323364244" lon="-1.7212057113647523"><ele>731.91998291</ele></trkpt><trkpt lat="42.97231435775757" lon="-1.7209696769714298"><ele>734</ele></trkpt><trkpt lat="42.972614765167236" lon="-1.7206907272338818"><ele>735.28997803</ele></trkpt><trkpt lat="42.97267737798393" lon="-1.7206176370382276"><ele>735.59997559</ele></trkpt><trkpt lat="42.97300100326538" lon="-1.7202401161193788"><ele>737.0300293</ele></trkpt><trkpt lat="42.97321557998657" lon="-1.7200469970703152"><ele>737.7800293</ele></trkpt><trkpt lat="42.97336578369141" lon="-1.7198538780212438"><ele>736.7199707</ele></trkpt><trkpt lat="42.973430156707764" lon="-1.719768047332759"><ele>736.36999512</ele></trkpt><trkpt lat="42.97351598739623" lon="-1.7195534706115765"><ele>736.26000977</ele></trkpt><trkpt lat="42.973666191101074" lon="-1.7191457748413164"><ele>737.15002441</ele></trkpt><trkpt lat="42.973902225494385" lon="-1.7187380790710374"><ele>739.36999512</ele></trkpt><trkpt lat="42.973945140838616" lon="-1.718609333038327"><ele>740.03997803</ele></trkpt><trkpt lat="42.973966598510756" lon="-1.7185449600219764"><ele>740.11999512</ele></trkpt><trkpt lat="42.97403097152707" lon="-1.718072891235348"><ele>737.82000732</ele></trkpt><trkpt lat="42.97418117523195" lon="-1.7175579071044869"><ele>734.7800293</ele></trkpt><trkpt lat="42.974224090576165" lon="-1.7171502113342374"><ele>733.15002441</ele></trkpt><trkpt lat="42.97424554824828" lon="-1.7169141769409229"><ele>732.65997314</ele></trkpt><trkpt lat="42.97428762540221" lon="-1.7169227264821578"><ele>732.58001709</ele></trkpt><trkpt lat="42.97446012496947" lon="-1.716957092285151"><ele>732.65002441</ele></trkpt><trkpt lat="42.974824905395494" lon="-1.7171931266784692"><ele>732.89001465</ele></trkpt><trkpt lat="42.974910736083984" lon="-1.717214584350585"><ele>733.08001709</ele></trkpt><trkpt lat="42.97497510910034" lon="-1.7171287536621123"><ele>733.2800293</ele></trkpt><trkpt lat="42.974942503497005" lon="-1.7171722557395643"><ele>733.15002441</ele></trkpt><trkpt lat="42.97497510910034" lon="-1.7171287536621123"><ele>733.2800293</ele></trkpt><trkpt lat="42.97506093978881" lon="-1.7168283462524325"><ele>735</ele></trkpt><trkpt lat="42.97512531280517" lon="-1.7166781425476139"><ele>735.76000977</ele></trkpt><trkpt lat="42.97521114349366" lon="-1.7165064811706505"><ele>737.04998779</ele></trkpt><trkpt lat="42.97531843185425" lon="-1.7163991928100595"><ele>737.40002441</ele></trkpt><trkpt lat="42.97533988952637" lon="-1.7161417007446318"><ele>738.94000244</ele></trkpt><trkpt lat="42.97536134719848" lon="-1.7160773277282737"><ele>737.84002686</ele></trkpt><trkpt lat="42.975490093231166" lon="-1.7159914970397996"><ele>736.55999756</ele></trkpt><trkpt lat="42.97555446624757" lon="-1.7159271240234317"><ele>737.78997803</ele></trkpt><trkpt lat="42.97557592391968" lon="-1.7158627510070845"><ele>736.65002441</ele></trkpt><trkpt lat="42.97559092752636" lon="-1.715765604749328"><ele>735.90002441</ele></trkpt><trkpt lat="42.97570466995239" lon="-1.715025901794433"><ele>732.65002441</ele></trkpt><trkpt lat="42.97574758529663" lon="-1.714553833007805"><ele>732.11999512</ele></trkpt><trkpt lat="42.97579050064087" lon="-1.714446544647215"><ele>732.66998291</ele></trkpt><trkpt lat="42.97585487365723" lon="-1.7143392562866158"><ele>733.01000977</ele></trkpt><trkpt lat="42.975897789001465" lon="-1.7142319679260254"><ele>733.46002197</ele></trkpt><trkpt lat="42.9760479927063" lon="-1.713609695434567"><ele>735.86999512</ele></trkpt><trkpt lat="42.97606945037842" lon="-1.7134165763855038"><ele>736.96002197</ele></trkpt><trkpt lat="42.9759407043457" lon="-1.713094711303713"><ele>739.67999268</ele></trkpt><trkpt lat="42.97585487365722" lon="-1.712923049926751"><ele>740.71002197</ele></trkpt><trkpt lat="42.97572612762451" lon="-1.7127299308776822"><ele>741.57000732</ele></trkpt><trkpt lat="42.975661754608154" lon="-1.7126655578613335"><ele>741.65002441</ele></trkpt><trkpt lat="42.97539521008729" lon="-1.712484257295732"><ele>742.25</ele></trkpt><trkpt lat="42.97512531280517" lon="-1.7123007774353025"><ele>740.0300293</ele></trkpt><trkpt lat="42.97506093978882" lon="-1.7122364044189438"><ele>739.35998535</ele></trkpt><trkpt lat="42.97497510910032" lon="-1.712064743042"><ele>739.48999023</ele></trkpt><trkpt lat="42.974932193756096" lon="-1.7120003700256354"><ele>739.48999023</ele></trkpt><trkpt lat="42.97488927841187" lon="-1.7119789123535245"><ele>739.91998291</ele></trkpt><trkpt lat="42.974610328674316" lon="-1.7120003700256314"><ele>740.60998535</ele></trkpt><trkpt lat="42.97435283660889" lon="-1.7119789123535072"><ele>741.61999512</ele></trkpt><trkpt lat="42.973988056182854" lon="-1.7117857933044445"><ele>743.22998047</ele></trkpt><trkpt lat="42.97373056411743" lon="-1.711742877960214"><ele>744.70001221</ele></trkpt><trkpt lat="42.973537025973194" lon="-1.7117169778794052"><ele>746.34002686</ele></trkpt><trkpt lat="42.97340869903565" lon="-1.7116999626159641"><ele>747.47998047</ele></trkpt><trkpt lat="42.97321557998657" lon="-1.711635589599611"><ele>749.30999756</ele></trkpt><trkpt lat="42.973172664642334" lon="-1.7115712165832544"><ele>749.86999512</ele></trkpt><trkpt lat="42.97306537628173" lon="-1.7113137245178132"><ele>751.89001465</ele></trkpt><trkpt lat="42.97274351119996" lon="-1.7108631134033119"><ele>756.70001221</ele></trkpt><trkpt lat="42.972400188446045" lon="-1.7101335525512793"><ele>762.72998047</ele></trkpt><trkpt lat="42.97216415405273" lon="-1.709854602813723"><ele>766.17999268</ele></trkpt><trkpt lat="42.97209978103635" lon="-1.7096829414367694"><ele>767.45001221</ele></trkpt><trkpt lat="42.97209600917993" lon="-1.7095319833606408"><ele>768.28997803</ele></trkpt><trkpt lat="42.972056865692124" lon="-1.707944869995113"><ele>781.20001221</ele></trkpt><trkpt lat="42.97203540802" lon="-1.7077732086181663"><ele>782.14001465</ele></trkpt><trkpt lat="42.97190666198732" lon="-1.7071938514709517"><ele>784.65997314</ele></trkpt><trkpt lat="42.971885204315186" lon="-1.707086563110359"><ele>784.89001465</ele></trkpt><trkpt lat="42.97188520431519" lon="-1.7067432403564367"><ele>784.90002441</ele></trkpt><trkpt lat="42.97199249267577" lon="-1.7063570022582986"><ele>785.59997559</ele></trkpt><trkpt lat="42.972013950347915" lon="-1.7061209678649865"><ele>785.21002197</ele></trkpt><trkpt lat="42.97202409245074" lon="-1.705999849364158"><ele>785.26000977</ele></trkpt><trkpt lat="42.97197103500366" lon="-1.7056703567504936"><ele>784.09002686</ele></trkpt><trkpt lat="42.97192811965941" lon="-1.705541610717774"><ele>783.02001953</ele></trkpt><trkpt lat="42.971906661987305" lon="-1.7054986953735438"><ele>782.5300293</ele></trkpt><trkpt lat="42.97173500061035" lon="-1.7053270339965774"><ele>779.65997314</ele></trkpt><trkpt lat="42.97160625457764" lon="-1.7051982879638639"><ele>778.47998047</ele></trkpt><trkpt lat="42.97156333923338" lon="-1.7051124572753968"><ele>778.5300293</ele></trkpt><trkpt lat="42.971492428332546" lon="-1.704807942733177"><ele>778.08001709</ele></trkpt><trkpt lat="42.971348762512214" lon="-1.7042970657348642"><ele>778.64001465</ele></trkpt><trkpt lat="42.97124147415161" lon="-1.703996658325188"><ele>778.55999756</ele></trkpt><trkpt lat="42.97113418579102" lon="-1.7037820816040024"><ele>778.15002441</ele></trkpt><trkpt lat="42.97102689743039" lon="-1.7035460472106951"><ele>779.07000732</ele></trkpt><trkpt lat="42.970898151397705" lon="-1.7030954360961874"><ele>782.34002686</ele></trkpt><trkpt lat="42.97081232070923" lon="-1.7027306556701718"><ele>785.5300293</ele></trkpt><trkpt lat="42.970769405365" lon="-1.7026662826538073"><ele>786.34002686</ele></trkpt><trkpt lat="42.97072649002075" lon="-1.7026233673095645"><ele>786.66998291</ele></trkpt><trkpt lat="42.970662117004395" lon="-1.702580451965337"><ele>787.2199707</ele></trkpt><trkpt lat="42.97044754028319" lon="-1.7025375366210933"><ele>786.76000977</ele></trkpt><trkpt lat="42.97038526274262" lon="-1.7025375366210938"><ele>786.26000977</ele></trkpt><trkpt lat="42.9699969291687" lon="-1.7025375366210915"><ele>782.66998291</ele></trkpt><trkpt lat="42.96967506408691" lon="-1.7025589942932144"><ele>779.15002441</ele></trkpt><trkpt lat="42.96956777572632" lon="-1.7025589942932133"><ele>778.48999023</ele></trkpt><trkpt lat="42.96946048736571" lon="-1.702537536621102"><ele>778.23999023</ele></trkpt><trkpt lat="42.969331741333" lon="-1.70247316360474"><ele>776.98999023</ele></trkpt><trkpt lat="42.96922445297239" lon="-1.7024302482605007"><ele>775.58001709</ele></trkpt><trkpt lat="42.969117164611795" lon="-1.702430248260491"><ele>774.52001953</ele></trkpt><trkpt lat="42.968902587890625" lon="-1.7024517059326234"><ele>773.9699707</ele></trkpt><trkpt lat="42.96877384185791" lon="-1.702494621276859"><ele>775.67999268</ele></trkpt><trkpt lat="42.96868801116943" lon="-1.702494621276854"><ele>776.55999756</ele></trkpt><trkpt lat="42.96847343444824" lon="-1.7024087905883885"><ele>778.94000244</ele></trkpt><trkpt lat="42.96823740005494" lon="-1.7023229598998906"><ele>782.40997314</ele></trkpt><trkpt lat="42.96791553497314" lon="-1.7023658752441344"><ele>785.89001465</ele></trkpt><trkpt lat="42.967786788940444" lon="-1.7024087905883851"><ele>786.25</ele></trkpt><trkpt lat="42.96752929687502" lon="-1.7024517059326252"><ele>785.78997803</ele></trkpt><trkpt lat="42.96720743179321" lon="-1.7024731636047394"><ele>782.29998779</ele></trkpt><trkpt lat="42.96701431274414" lon="-1.702516078948977"><ele>780.22998047</ele></trkpt><trkpt lat="42.966585159301765" lon="-1.7026877403259335"><ele>781.13000488</ele></trkpt><trkpt lat="42.96624183654786" lon="-1.7027091979980529"><ele>778.14001465</ele></trkpt><trkpt lat="42.96591997146607" lon="-1.702687740325933"><ele>776.13000488</ele></trkpt><trkpt lat="42.96583414077759" lon="-1.7027091979980529"><ele>775.65002441</ele></trkpt><trkpt lat="42.9656195640564" lon="-1.7028164863586415"><ele>774.5300293</ele></trkpt><trkpt lat="42.965512275695794" lon="-1.7028594017028762"><ele>773.77001953</ele></trkpt><trkpt lat="42.96534061431885" lon="-1.70285940170288"><ele>772.29998779</ele></trkpt><trkpt lat="42.96489000320435" lon="-1.702988147735602"><ele>771.26000977</ele></trkpt><trkpt lat="42.96461105346679" lon="-1.703031063079839"><ele>771.34002686</ele></trkpt><trkpt lat="42.963817119598396" lon="-1.7032241821288967"><ele>771.70001221</ele></trkpt><trkpt lat="42.96353816986085" lon="-1.7033314704894955"><ele>773.11999512</ele></trkpt><trkpt lat="42.963366508483894" lon="-1.7033743858337331"><ele>774</ele></trkpt><trkpt lat="42.963228626176715" lon="-1.703417887911195"><ele>774.88000488</ele></trkpt><trkpt lat="42.96295881271363" lon="-1.7035031318664606"><ele>776.0300293</ele></trkpt><trkpt lat="42.96280860900877" lon="-1.7035031318664593"><ele>776.38000488</ele></trkpt><trkpt lat="42.96263694763184" lon="-1.7035460472106914"><ele>776.71002197</ele></trkpt><trkpt lat="42.96252965927125" lon="-1.7036104202270528"><ele>776.52001953</ele></trkpt><trkpt lat="42.962443828582764" lon="-1.703653335571291"><ele>776.54998779</ele></trkpt><trkpt lat="42.962143421173074" lon="-1.7036962509155278"><ele>776.69000244</ele></trkpt><trkpt lat="42.96154260635376" lon="-1.703889369964596"><ele>782.34002686</ele></trkpt><trkpt lat="42.96130657196044" lon="-1.7039322853088317"><ele>784.47998047</ele></trkpt><trkpt lat="42.961177825927734" lon="-1.7039966583251938"><ele>784.32000732</ele></trkpt><trkpt lat="42.96111345291138" lon="-1.7040395736694316"><ele>784.08001709</ele></trkpt><trkpt lat="42.96104907989501" lon="-1.7040610313415574"><ele>783.90997314</ele></trkpt><trkpt lat="42.96096324920656" lon="-1.7041683197021518"><ele>783.58001709</ele></trkpt><trkpt lat="42.96087741851807" lon="-1.7042541503906252"><ele>783.65002441</ele></trkpt><trkpt lat="42.96053409576416" lon="-1.7042541503906228"><ele>775.48999023</ele></trkpt><trkpt lat="42.95993328094483" lon="-1.7043399810791036"><ele>769.01000977</ele></trkpt><trkpt lat="42.95980453491211" lon="-1.7042970657348604"><ele>767.76000977</ele></trkpt><trkpt lat="42.959697246551514" lon="-1.7042756080627435"><ele>766.97998047</ele></trkpt><trkpt lat="42.95913934707644" lon="-1.7042756080627428"><ele>763.07000732</ele></trkpt><trkpt lat="42.958967685699456" lon="-1.704297065734869"><ele>762.02001953</ele></trkpt><trkpt lat="42.95883893966675" lon="-1.704297065734864"><ele>761.09002686</ele></trkpt><trkpt lat="42.95871019363404" lon="-1.7042756080627381"><ele>759.7800293</ele></trkpt><trkpt lat="42.958238124847405" lon="-1.7041468620300253"><ele>757.7199707</ele></trkpt><trkpt lat="42.95815229415893" lon="-1.7041254043579124"><ele>757.73999023</ele></trkpt><trkpt lat="42.95802354812622" lon="-1.70410394668579"><ele>758.54998779</ele></trkpt><trkpt lat="42.957766056060784" lon="-1.703996658325201"><ele>759.89001465</ele></trkpt><trkpt lat="42.95765876770021" lon="-1.703932285308832"><ele>761.28997803</ele></trkpt><trkpt lat="42.9575514793396" lon="-1.7037820816040001"><ele>761.84002686</ele></trkpt><trkpt lat="42.957336902618415" lon="-1.703588962554932"><ele>764.40997314</ele></trkpt><trkpt lat="42.95720815658569" lon="-1.7035031318664595"><ele>766.05999756</ele></trkpt><trkpt lat="42.95701503753661" lon="-1.703438758850096"><ele>769.14001465</ele></trkpt><trkpt lat="42.956757545471184" lon="-1.7032885551452608"><ele>772.54998779</ele></trkpt><trkpt lat="42.95652151107789" lon="-1.7030739784240663"><ele>775.85998535</ele></trkpt><trkpt lat="42.956285476684556" lon="-1.702966690063478"><ele>779.38000488</ele></trkpt><trkpt lat="42.956252032890916" lon="-1.702947579324255"><ele>779.70001221</ele></trkpt><trkpt lat="42.95613527297973" lon="-1.7028808593749973"><ele>781.0300293</ele></trkpt><trkpt lat="42.955877780914314" lon="-1.7026877403259306"><ele>782.11999512</ele></trkpt><trkpt lat="42.95572757720947" lon="-1.7024302482604925"><ele>781</ele></trkpt><trkpt lat="42.95542716979981" lon="-1.7023229598999092"><ele>780.79998779</ele></trkpt><trkpt lat="42.95523405075072" lon="-1.7021942138671908"><ele>779.28997803</ele></trkpt><trkpt lat="42.95499801635743" lon="-1.7020010948181072"><ele>775.03997803</ele></trkpt><trkpt lat="42.95480489730836" lon="-1.7018079757690452"><ele>773.90002441</ele></trkpt><trkpt lat="42.954204082489" lon="-1.7010569572448633"><ele>773.21002197</ele></trkpt><trkpt lat="42.953968048095696" lon="-1.7008423805236892"><ele>773.69000244</ele></trkpt><trkpt lat="42.95371022075414" lon="-1.7004812881350564"><ele>772.98999023</ele></trkpt><trkpt lat="42.953646183013895" lon="-1.700391769409186"><ele>772.73999023</ele></trkpt><trkpt lat="42.95356035232543" lon="-1.7001986503601079"><ele>772.02001953</ele></trkpt><trkpt lat="42.953259944915764" lon="-1.699833869934086"><ele>771.92999268</ele></trkpt><trkpt lat="42.95310974121094" lon="-1.699619293212887"><ele>771.61999512</ele></trkpt><trkpt lat="42.95293807983397" lon="-1.6992545127868697"><ele>770.14001465</ele></trkpt><trkpt lat="42.95280933380127" lon="-1.699082851409919"><ele>769.89001465</ele></trkpt><trkpt lat="42.95270204544068" lon="-1.698997020721436"><ele>770.48999023</ele></trkpt><trkpt lat="42.952444553375265" lon="-1.698610782623297"><ele>769.72998047</ele></trkpt><trkpt lat="42.952144145965555" lon="-1.6979026794433634"><ele>772.88000488</ele></trkpt><trkpt lat="42.95199394226075" lon="-1.6974949836731017"><ele>775.82000732</ele></trkpt><trkpt lat="42.95182228088379" lon="-1.6965937614440922"><ele>779.67999268</ele></trkpt><trkpt lat="42.951822280883796" lon="-1.6964435577392591"><ele>779.39001465</ele></trkpt><trkpt lat="42.95180082321167" lon="-1.696379184722905"><ele>779.91998291</ele></trkpt><trkpt lat="42.951779365539544" lon="-1.6962504386901875"><ele>780.04998779</ele></trkpt><trkpt lat="42.95169353485106" lon="-1.6961216926574714"><ele>782.83001709</ele></trkpt><trkpt lat="42.95158624649047" lon="-1.6959285736083978"><ele>784.53997803</ele></trkpt><trkpt lat="42.95145750045774" lon="-1.695649623870842"><ele>786.03997803</ele></trkpt><trkpt lat="42.95132875442505" lon="-1.6954565048217825"><ele>788.22998047</ele></trkpt><trkpt lat="42.95085802674295" lon="-1.6946326475590494"><ele>792.05999756</ele></trkpt><trkpt lat="42.95081377029416" lon="-1.6945552825927728"><ele>792.25</ele></trkpt><trkpt lat="42.950406074523926" lon="-1.6936540603637675"><ele>791.15002441</ele></trkpt><trkpt lat="42.95019149780273" lon="-1.6932249069213843"><ele>791.86999512</ele></trkpt><trkpt lat="42.95006275177002" lon="-1.6930747032165472"><ele>793.19000244</ele></trkpt><trkpt lat="42.94999837875366" lon="-1.6929244995117112"><ele>793.94000244</ele></trkpt><trkpt lat="42.949955463409424" lon="-1.6927957534789977"><ele>794.26000977</ele></trkpt><trkpt lat="42.94989109039305" lon="-1.6926884651184013"><ele>794.54998779</ele></trkpt><trkpt lat="42.94982671737671" lon="-1.6925597190857007"><ele>794.71002197</ele></trkpt><trkpt lat="42.94980525970457" lon="-1.6924738883972235"><ele>794.11999512</ele></trkpt><trkpt lat="42.9495906829834" lon="-1.6919374465942314"><ele>791.90997314</ele></trkpt><trkpt lat="42.949397563934305" lon="-1.691572666168219"><ele>791.84002686</ele></trkpt><trkpt lat="42.949354648590074" lon="-1.6914010047912649"><ele>791.59997559</ele></trkpt><trkpt lat="42.94931173324583" lon="-1.6912078857421862"><ele>790.97998047</ele></trkpt><trkpt lat="42.94901132583617" lon="-1.6903710365295466"><ele>787.67999268</ele></trkpt><trkpt lat="42.94896841049194" lon="-1.6899633407592811"><ele>785.01000977</ele></trkpt><trkpt lat="42.94898986816406" lon="-1.6897487640380822"><ele>784.13000488</ele></trkpt><trkpt lat="42.94896841049193" lon="-1.689319610595708"><ele>780.82000732</ele></trkpt><trkpt lat="42.94886112213134" lon="-1.6888046264648386"><ele>773.90997314</ele></trkpt><trkpt lat="42.94881820678711" lon="-1.6883969306945832"><ele>770.17999268</ele></trkpt><trkpt lat="42.94875383377075" lon="-1.6877102851867727"><ele>765.38000488</ele></trkpt><trkpt lat="42.94873706996441" lon="-1.6870772838592436"><ele>760.47998047</ele></trkpt><trkpt lat="42.94873237609863" lon="-1.6868948936462327"><ele>760.09002686</ele></trkpt><trkpt lat="42.948775291442864" lon="-1.6867232322692813"><ele>759.48999023</ele></trkpt><trkpt lat="42.94879674911499" lon="-1.6863799095153866"><ele>760.44000244</ele></trkpt><trkpt lat="42.948732376098626" lon="-1.685285568237314"><ele>759.80999756</ele></trkpt><trkpt lat="42.94873237609861" lon="-1.684877872467032"><ele>759.13000488</ele></trkpt><trkpt lat="42.9486894607544" lon="-1.6842985153198164"><ele>755.65997314</ele></trkpt><trkpt lat="42.94864654541014" lon="-1.6841053962707502"><ele>754.57000732</ele></trkpt><trkpt lat="42.948668003082275" lon="-1.6840624809265097"><ele>754.52001953</ele></trkpt><trkpt lat="42.94868946075439" lon="-1.6839766502380358"><ele>754.5300293</ele></trkpt><trkpt lat="42.94883966445923" lon="-1.683719158172602"><ele>753.17999268</ele></trkpt><trkpt lat="42.94894695281982" lon="-1.6834616661071764"><ele>750.40997314</ele></trkpt><trkpt lat="42.94901132583618" lon="-1.6832685470581001"><ele>748.34002686</ele></trkpt><trkpt lat="42.94901627115906" lon="-1.683214232325563"><ele>747.63000488</ele></trkpt><trkpt lat="42.94901132583618" lon="-1.6832685470581001"><ele>748.34002686</ele></trkpt><trkpt lat="42.949054241180406" lon="-1.6827964782714915"><ele>744.17999268</ele></trkpt><trkpt lat="42.94903278350831" lon="-1.6825819015502876"><ele>743.4699707</ele></trkpt><trkpt lat="42.94903278350828" lon="-1.6822814941406166"><ele>741.89001465</ele></trkpt><trkpt lat="42.9490542411804" lon="-1.6821098327636677"><ele>741.07000732</ele></trkpt><trkpt lat="42.94905424118041" lon="-1.681938171386724"><ele>740.40997314</ele></trkpt><trkpt lat="42.94901132583618" lon="-1.6817879676818814"><ele>740.17999268</ele></trkpt><trkpt lat="42.94894695281982" lon="-1.6817021369934078"><ele>739.5</ele></trkpt><trkpt lat="42.94873237609861" lon="-1.6816163063049345"><ele>738.65002441</ele></trkpt><trkpt lat="42.948646545410156" lon="-1.6815519332885718"><ele>734.85998535</ele></trkpt><trkpt lat="42.948539257049575" lon="-1.6814875602722255"><ele>732.01000977</ele></trkpt><trkpt lat="42.94836759567259" lon="-1.6813373565673844"><ele>729.71002197</ele></trkpt><trkpt lat="42.94833549298346" lon="-1.6812915075570367"><ele>729.15997314</ele></trkpt><trkpt lat="42.94821739196778" lon="-1.6811227798461896"><ele>728.01000977</ele></trkpt><trkpt lat="42.94817447662353" lon="-1.6810369491577213"><ele>727.66998291</ele></trkpt><trkpt lat="42.948045730590806" lon="-1.6806936264038097"><ele>724.09997559</ele></trkpt><trkpt lat="42.94798135757445" lon="-1.6805005073547332"><ele>722.03997803</ele></trkpt><trkpt lat="42.94791698455808" lon="-1.6802859306335527"><ele>720.5300293</ele></trkpt><trkpt lat="42.947874069213846" lon="-1.6799426078796402"><ele>718.11999512</ele></trkpt><trkpt lat="42.94780969619751" lon="-1.6792559623718264"><ele>717.25</ele></trkpt><trkpt lat="42.94783115386961" lon="-1.6791701316833463"><ele>716.9699707</ele></trkpt><trkpt lat="42.94791698455811" lon="-1.6789984703064"><ele>715.77001953</ele></trkpt><trkpt lat="42.947938442230225" lon="-1.6789340972900375"><ele>714.75</ele></trkpt><trkpt lat="42.947895526886" lon="-1.6788697242736799"><ele>713.65997314</ele></trkpt><trkpt lat="42.94785261154175" lon="-1.6788911819457952"><ele>712.84997559</ele></trkpt><trkpt lat="42.94765949249266" lon="-1.6789126396179157"><ele>709.7800293</ele></trkpt><trkpt lat="42.94746637344358" lon="-1.678912639617917"><ele>705.90997314</ele></trkpt><trkpt lat="42.94708013534546" lon="-1.6789770126342778"><ele>699.63000488</ele></trkpt><trkpt lat="42.946865558624246" lon="-1.678977012634284"><ele>697.10998535</ele></trkpt><trkpt lat="42.94675827026367" lon="-1.6789340972900417"><ele>695.22998047</ele></trkpt><trkpt lat="42.946629524230964" lon="-1.6788697242736803"><ele>692.7199707</ele></trkpt><trkpt lat="42.946457862854004" lon="-1.6787195205688428"><ele>689.04998779</ele></trkpt><trkpt lat="42.9460072517395" lon="-1.6782689094543544"><ele>681.65002441</ele></trkpt><trkpt lat="42.945942878723145" lon="-1.678183078765867"><ele>679.07000732</ele></trkpt><trkpt lat="42.94587850570677" lon="-1.6781187057495117"><ele>677.69000244</ele></trkpt><trkpt lat="42.945685386657715" lon="-1.6779685020446706"><ele>672.98999023</ele></trkpt><trkpt lat="42.945427894592285" lon="-1.6773247718811115"><ele>656.80999756</ele></trkpt><trkpt lat="42.94538497924805" lon="-1.6770887374877927"><ele>651.04998779</ele></trkpt><trkpt lat="42.9453420639038" lon="-1.6768741607665936"><ele>646.5</ele></trkpt><trkpt lat="42.94534206390381" lon="-1.6766381263732897"><ele>642.03997803</ele></trkpt><trkpt lat="42.94549226760866" lon="-1.6764879226684553"><ele>639.08001709</ele></trkpt><trkpt lat="42.94542789459227" lon="-1.6765093803405822"><ele>639.67999268</ele></trkpt><trkpt lat="42.94532060623169" lon="-1.6765308380127006"><ele>639.77001953</ele></trkpt><trkpt lat="42.94504165649412" lon="-1.6765737533569385"><ele>642.90002441</ele></trkpt><trkpt lat="42.94491291046142" lon="-1.6766166687011657"><ele>644.26000977</ele></trkpt><trkpt lat="42.94474124908448" lon="-1.6767024993896547"><ele>645.09997559</ele></trkpt><trkpt lat="42.94429063796997" lon="-1.6771531105041488"><ele>644.65997314</ele></trkpt><trkpt lat="42.94407606124878" lon="-1.6771316528320295"><ele>641.23999023</ele></trkpt><trkpt lat="42.943904399871805" lon="-1.6771101951599106"><ele>638.5300293</ele></trkpt><trkpt lat="42.94360399246213" lon="-1.677217483520507"><ele>633.34002686</ele></trkpt><trkpt lat="42.94351816177368" lon="-1.6772603988647545"><ele>631.69000244</ele></trkpt><trkpt lat="42.943475246429415" lon="-1.677367687225342"><ele>631.07000732</ele></trkpt><trkpt lat="42.943453788757324" lon="-1.6774964332580506"><ele>627.94000244</ele></trkpt><trkpt lat="42.94345378875733" lon="-1.6775822639465372"><ele>626.80999756</ele></trkpt><trkpt lat="42.943367958068855" lon="-1.6775608062744132"><ele>625.63000488</ele></trkpt><trkpt lat="42.94332504272462" lon="-1.677517890930169"><ele>622.97998047</ele></trkpt><trkpt lat="42.943303585052504" lon="-1.6774535179138212"><ele>622.0300293</ele></trkpt><trkpt lat="42.94323921203613" lon="-1.6773462295532215"><ele>621.22998047</ele></trkpt><trkpt lat="42.94315338134767" lon="-1.6773247718810986"><ele>618.46002197</ele></trkpt><trkpt lat="42.943046092987075" lon="-1.677346229553215"><ele>617.09002686</ele></trkpt><trkpt lat="42.942852973938" lon="-1.6774964332580573"><ele>613.92999268</ele></trkpt><trkpt lat="42.942702770233154" lon="-1.6774964332580595"><ele>615.65002441</ele></trkpt><trkpt lat="42.942531108856194" lon="-1.6774320602416992"><ele>616.98999023</ele></trkpt><trkpt lat="42.942402362823465" lon="-1.6773676872253473"><ele>618.28997803</ele></trkpt><trkpt lat="42.942337989807115" lon="-1.6773247718811073"><ele>618.85998535</ele></trkpt><trkpt lat="42.94227361679077" lon="-1.677238941192621"><ele>619.60998535</ele></trkpt><trkpt lat="42.94220924377441" lon="-1.6771745681762744"><ele>620.61999512</ele></trkpt><trkpt lat="42.94210195541381" lon="-1.677131652832029"><ele>621.58001709</ele></trkpt><trkpt lat="42.94201612472534" lon="-1.6771316528320372"><ele>622.15002441</ele></trkpt><trkpt lat="42.94160842895505" lon="-1.677174568176265"><ele>621.80999756</ele></trkpt><trkpt lat="42.9414031561464" lon="-1.677233325317499"><ele>622.0300293</ele></trkpt><trkpt lat="42.94130802154539" lon="-1.6772603988647394"><ele>621.0300293</ele></trkpt><trkpt lat="42.941071987152085" lon="-1.6772818565368608"><ele>619.04998779</ele></trkpt><trkpt lat="42.94087886810303" lon="-1.6772603988647432"><ele>618.94000244</ele></trkpt><trkpt lat="42.940771579742425" lon="-1.677217483520506"><ele>618.60998535</ele></trkpt><trkpt lat="42.94047117233275" lon="-1.6770029067993173"><ele>619.55999756</ele></trkpt><trkpt lat="42.9403209686279" lon="-1.676917076110848"><ele>620.82000732</ele></trkpt><trkpt lat="42.94014930725098" lon="-1.6768312454223573"><ele>620.17999268</ele></trkpt><trkpt lat="42.939999103546135" lon="-1.6768312454223693"><ele>618.66998291</ele></trkpt><trkpt lat="42.93989181518555" lon="-1.676852703094475"><ele>617.57000732</ele></trkpt><trkpt lat="42.93976306915283" lon="-1.6770029067993253"><ele>615.27001953</ele></trkpt><trkpt lat="42.93965578079224" lon="-1.6771745681762713"><ele>613.90002441</ele></trkpt><trkpt lat="42.93954849243165" lon="-1.6775178909301738"><ele>612.20001221</ele></trkpt><trkpt lat="42.939333915710435" lon="-1.6780972480773844"><ele>613.7199707</ele></trkpt><trkpt lat="42.93926954269409" lon="-1.6783761978149432"><ele>614.2800293</ele></trkpt><trkpt lat="42.939183712005615" lon="-1.6786551475524822"><ele>613.32000732</ele></trkpt><trkpt lat="42.93909788131713" lon="-1.678848266601565"><ele>613.38000488</ele></trkpt><trkpt lat="42.938969135284424" lon="-1.679491996765139"><ele>613.67999268</ele></trkpt><trkpt lat="42.93884038925169" lon="-1.6798782348632804"><ele>614.26000977</ele></trkpt><trkpt lat="42.938668727874756" lon="-1.6802430152893018"><ele>614.5</ele></trkpt><trkpt lat="42.93853998184204" lon="-1.680586338043211"><ele>609.91998291</ele></trkpt><trkpt lat="42.938325405120864" lon="-1.6813802719116233"><ele>606.13000488</ele></trkpt><trkpt lat="42.93819665908811" lon="-1.6817235946655251"><ele>605.84002686</ele></trkpt><trkpt lat="42.938153743743904" lon="-1.6819167137146012"><ele>605.53997803</ele></trkpt><trkpt lat="42.938046455383294" lon="-1.6821098327636774"><ele>604.41998291</ele></trkpt><trkpt lat="42.93802499771118" lon="-1.6822171211242625"><ele>603.65997314</ele></trkpt><trkpt lat="42.93798208236692" lon="-1.6824102401733476"><ele>601.67999268</ele></trkpt><trkpt lat="42.93793916702271" lon="-1.6828608512878465"><ele>595.04998779</ele></trkpt><trkpt lat="42.937896251678474" lon="-1.683096885681153"><ele>591.7199707</ele></trkpt><trkpt lat="42.93778896331786" lon="-1.683440208435051"><ele>587.17999268</ele></trkpt><trkpt lat="42.93759584426882" lon="-1.6838479042053174"><ele>581.84997559</ele></trkpt><trkpt lat="42.93753147125242" lon="-1.6840839385986253"><ele>578.33001709</ele></trkpt><trkpt lat="42.93759584426882" lon="-1.6843628883361863"><ele>575.30999756</ele></trkpt><trkpt lat="42.937531471252434" lon="-1.684427261352543"><ele>574.29998779</ele></trkpt><trkpt lat="42.93746709823609" lon="-1.6845345497131339"><ele>573.40002441</ele></trkpt><trkpt lat="42.937424182891846" lon="-1.684684753417962"><ele>572.45001221</ele></trkpt><trkpt lat="42.937595844268806" lon="-1.6850066184997599"><ele>569.52001953</ele></trkpt><trkpt lat="42.93763875961304" lon="-1.685135364532479"><ele>567.80999756</ele></trkpt><trkpt lat="42.93763875961304" lon="-1.6851997375488192"><ele>567.58001709</ele></trkpt><trkpt lat="42.937574386596665" lon="-1.6852641105651809"><ele>567.17999268</ele></trkpt><trkpt lat="42.9374670982361" lon="-1.6852426528930584"><ele>566.77001953</ele></trkpt><trkpt lat="42.93740272521972" lon="-1.6852211952209515"><ele>566.40997314</ele></trkpt><trkpt lat="42.93731689453123" lon="-1.6851782798767014"><ele>565.40002441</ele></trkpt><trkpt lat="42.93725252151489" lon="-1.6851139068603456"><ele>564.47998047</ele></trkpt><trkpt lat="42.937209606170654" lon="-1.6849851608276447"><ele>563.34002686</ele></trkpt><trkpt lat="42.93712377548218" lon="-1.6848134994506827"><ele>561.95001221</ele></trkpt><trkpt lat="42.93708086013794" lon="-1.6847491264343313"><ele>561.46002197</ele></trkpt><trkpt lat="42.93699502944945" lon="-1.6846847534179679"><ele>560.36999512</ele></trkpt><trkpt lat="42.9365873336792" lon="-1.6844487190246624"><ele>556.0300293</ele></trkpt><trkpt lat="42.93637275695801" lon="-1.6843843460083026"><ele>553.78997803</ele></trkpt><trkpt lat="42.93628692626953" lon="-1.6843628883361885"><ele>552.90002441</ele></trkpt><trkpt lat="42.93570756912231" lon="-1.6842555999755906"><ele>547.77001953</ele></trkpt><trkpt lat="42.93534278869629" lon="-1.6842555999755822"><ele>545.54998779</ele></trkpt><trkpt lat="42.93542970903217" lon="-1.6843177098780926"><ele>545.69000244</ele></trkpt><trkpt lat="42.93549299240112" lon="-1.6843628883361843"><ele>545.59997559</ele></trkpt><trkpt lat="42.93575048446655" lon="-1.6846203804016167"><ele>545.94000244</ele></trkpt><trkpt lat="42.93581485748292" lon="-1.6847276687622013"><ele>546.01000977</ele></trkpt><trkpt lat="42.93607234954832" lon="-1.6851568222045812"><ele>546.34997559</ele></trkpt><trkpt lat="42.93609380722046" lon="-1.68522119522095"><ele>546.25</ele></trkpt><trkpt lat="42.93611526489258" lon="-1.685264110565188"><ele>546.34002686</ele></trkpt><trkpt lat="42.93617963790892" lon="-1.6853928565979055"><ele>546.44000244</ele></trkpt><trkpt lat="42.936308383941636" lon="-1.6855859756469789"><ele>546.70001221</ele></trkpt><trkpt lat="42.936501502990716" lon="-1.685929298400872"><ele>547.4699707</ele></trkpt><trkpt lat="42.936694622039795" lon="-1.686336994171141"><ele>548.07000732</ele></trkpt><trkpt lat="42.93688774108887" lon="-1.6868305206298897"><ele>548.7199707</ele></trkpt><trkpt lat="42.937145233154276" lon="-1.687495708465567"><ele>549.28997803</ele></trkpt><trkpt lat="42.93751001358032" lon="-1.6885256767272896"><ele>550.03997803</ele></trkpt><trkpt lat="42.93755292892455" lon="-1.6887187957763703"><ele>550</ele></trkpt><trkpt lat="42.937574386596665" lon="-1.6888046264648395"><ele>550.09997559</ele></trkpt><trkpt lat="42.93761730194091" lon="-1.6891264915466362"><ele>549.7800293</ele></trkpt><trkpt lat="42.93763875961302" lon="-1.6894698143005402"><ele>549.70001221</ele></trkpt><trkpt lat="42.93757438659668" lon="-1.690735816955564"><ele>549.79998779</ele></trkpt><trkpt lat="42.9374670982361" lon="-1.6928601264953536"><ele>552.52001953</ele></trkpt><trkpt lat="42.93744564056396" lon="-1.6928815841674805"><ele>552.53997803</ele></trkpt></trkseg></trk></gpx>